,venue,locality,postal_code,street,country,latitude,longitude,venue_website,manual_input
/venues/2206528,Gwenstival,Chiasso,,,Switzerland,45.83493,9.02702,,
/venues/2748968,Jazz in Bess,Chiasso,,,Switzerland,45.83493,9.02702,,
/venues/2955063,"Sala Teatro, LAC",Lugano,6900,Piazza Bernardino Luini 6,Switzerland,46.00006,8.9484,,
/venues/3391179,"Hall, LAC",Lugano,6900,Piazza Bernardino Luini 6,Switzerland,46.00006,8.9484,,
/venues/3340969,"Palco Teatro, LAC",Lugano,6900,Piazza Bernardino Luini 6,Switzerland,46.00006,8.9484,,
/venues/3340974,Spazio Esterno Lac,Lugano,6900,Piazza Bernardino Luini 6,Switzerland,46.00006,8.9484,,
/venues/3648104,Lac - Sala Refettorio,Lugano,6900,Piazza B. Luini 6,Switzerland,46.00006,8.9484,,
/venues/3044784,"Sala 4, LAC",Lugano,6900,Piazza Bernardino Luini 6,Switzerland,46.00006,8.9484,,
/venues/3265249,Estivo Festival Lugano Switzerland,Lugano,,,Switzerland,46.00368,8.95105,,
/venues/3747654,la dispensa,Lugano,,,Switzerland,46.00368,8.95105,,
/venues/3450639,Lux Art House,Lugano,,,Switzerland,46.00368,8.95105,,
/venues/3204943,Elettrolake Festival,Lugano,,,Switzerland,46.00368,8.95105,,
/venues/2068934,Théâtre la Poste,Sierre,3930,La Poste Platz 4,Switzerland,46.00407,7.74789,,
/venues/4368288,Heinz Julen Loft,Zermatt,3920,,Switzerland,46.00407,7.74789,,
/venues/1670818,Talstation Sunnegga Express,Zermatt,3920,,Switzerland,46.00407,7.74789,,
/venues/4366420,Hennu Stall,Zermatt,3920,,Switzerland,46.00407,7.74789,,
/venues/4366907,Zermatt Unplugged | Kapelle Winkelmatten,Zermatt,3920,,Switzerland,46.00407,7.74789,,
/venues/2894903,Studio Foce,Lugano,6900,Foce 1,Switzerland,46.00562,8.9613,http://www.foce.ch,
/venues/2074089,Teatro Nuovo Studio Foce,Lugano,6900,Via Foce 1 - 6900 Lugano,Switzerland,46.00562,8.9613,,
/venues/2552984,die sonnenstube,Lugano,,,Switzerland,46.00651,8.95231,,
/venues/2693493,Blues to Bop,Lugano,,,Switzerland,46.00651,8.95231,,
/venues/2507049,Ristorante San Michele Arosio,Lugano,,,Switzerland,46.00651,8.95231,,
/venues/2835893,Radiotelevisione Svizzera Di Lingua Italiana (rsi),Lugano,,,Switzerland,46.00651,8.95231,,
/venues/2679873,spazio 1929,Lugano,,,Switzerland,46.00651,8.95231,,
/venues/2611928,Porza,Lugano,,,Switzerland,46.00651,8.95231,,
/venues/3082054,La Saceba,Lugano,,,Switzerland,46.00651,8.95231,,
/venues/2920073,TI/STREET/ART,Lugano,,,Switzerland,46.00651,8.95231,,
/venues/2848088,1200MICROMETERS OUTDOOR RITUAL - Labyrinthine Crew,Lugano,,,Switzerland,46.00651,8.95231,,
/venues/3047344,Palaresega,Lugano,,Lugano,Switzerland,46.00651,8.95231,,
/venues/1587073,Il Domani,Lugano,6900,,Switzerland,46.00937,8.95079,,
/venues/116025,Piazza Della Riforma,Lugano,6900,,Switzerland,46.00937,8.95079,,
/venues/126480,Padiglione Conza,Lugano,6900,Padiglione Conza,Switzerland,46.00937,8.95079,,
/venues/2404679,Studio 2 RSI Lugano/Besso,Lugano,6900,,Switzerland,46.00937,8.95079,,
/venues/3834139,Living Room Club,Lugano,,6900 Lugano,Switzerland,46.00937,8.95079,,
/venues/3585179,Aula Magna Del Conservatorio,Lugano,6900,,Switzerland,46.00937,8.95079,,
/venues/1260226,Jazzclub-jazzy Jams,Lugano,6900,,Switzerland,46.00937,8.95079,,
/venues/1679908,Sassa Lounge,Lugano,6900,"Hotel Villa Sassa, Via Tesserete 10",Switzerland,46.01244,8.95009,,
/venues/1790503,Villa Sassa,Lugano,6900,Via Tesserete 10,Switzerland,46.01244,8.95009,http://www.villasassa.ch,
/venues/3432054,Pink Live Music Bar,Zermatt,,,Switzerland,46.02071,7.74912,,
/venues/3748824,Igludorf,Zermatt,,,Switzerland,46.02071,7.74912,,
/venues/3468689,Chez Vrony,Zermatt,,,Switzerland,46.02071,7.74912,http://www.chezvrony.ch/de/restaurant/index.php,
/venues/970056,Obere Matten,Zermatt,3920,Obere Mattenstrasse 7,Switzerland,46.02235,7.7484,,
/venues/4233234,"Zeltbühne, Obere Matten",Zermatt,3920,Obere Mattenstrasse 7,Switzerland,46.02235,7.7484,,
/venues/4400352,Rocklette,Valais,1934,,Switzerland,46.06847,7.20418,http://www.palpfestival.ch/evenements/rocklette,
/venues/2446229,Salle St-Marc,Martigny,1934,Le Châble,Switzerland,46.06847,7.20418,,
/venues/2838808,Kerrigan's Pub,Martigny,1920,Rue du Bourg 3,Switzerland,46.09123,7.06521,,/venues/4379391
/venues/4379391,Kerrigan's Tavern,Martigny,1920,Rue du Bourg 3,Switzerland,46.09123,7.06521,https://www.facebook.com/kerriganstavern/,X
/venues/4374320,Kerrigan Tavern,Martigny,1920,Rue de Bourg 3,Switzerland,46.09123,7.06521,,/venues/4379391
/venues/3198923,W Hotel,Martigny,,,Switzerland,46.09608,7.22888,http://www.wverbier.com/,
/venues/2537964,Bar 1936,Martigny,,,Switzerland,46.09608,7.22888,,
/venues/2468159,Freeride World Tour,Martigny,,,Switzerland,46.09608,7.22888,,
/venues/3292164,Salle Des Combins,Martigny,1936,Chemin Plan-Pra,Switzerland,46.10076,7.22008,,
/venues/2304799,Verbier Festival,Martigny,1936,Chemin Plan-Pra,Switzerland,46.10076,7.22008,,
/venues/3472014,Bruson Freeride,Martigny,,,Switzerland,46.10498,7.07553,https://www.brusonfreeride.ch/,
/venues/4340119,Finhaut,Martigny,1925,,Switzerland,46.10498,7.07553,,
/venues/3887874,Color Race,Martigny,1937,,Switzerland,46.10498,7.07553,https://orsierescolorrace.ch/,
/venues/3614809,A Bloc Festival,Martigny,,,Switzerland,46.10498,7.07553,https://www.ablocfestival.ch/,
/venues/3327119,Cinema Amphitheater Martigny,Martigny,1920,,Switzerland,46.10498,7.07553,,
/venues/4371190,RedClub CH,Martigny,1920,"Rue de l'Ancienne Pointe, 16",Switzerland,46.10971,7.0932,https://www.facebook.com/Red-Club-Martigny-425026588284197/,/venues/4373946
/venues/4373946,Red Club,Martigny,1920,Rue de l'Ancienne Pointe 16,Switzerland,46.10971,7.0932,,X
/venues/2867373,La D'zine,Geneva,,Chemin de l'Usine,Switzerland,46.14251,7.11827,,
/venues/4061029,Belle usine,Geneva,1926,Chemin de l'Usine,Switzerland,46.14251,7.11827,http://www.belleusine.ch,
/venues/1583463,Jazz Cat Club,Locarno,,Via Muraccio 21,Switzerland,46.15458,8.77505,,
/venues/2599703,Teatro Del Gatto,Locarno,6612,Via Muraccio 21,Switzerland,46.15458,8.77505,,
/venues/841756,JazzAscona,Locarno,,,Switzerland,46.15732,8.77736,http://www.jazzascona.ch,
/venues/417381,Teatro San Materno,Locarno,,,Switzerland,46.15732,8.77736,,
/venues/417371,Delta Beach Music Lounge,Locarno,,,Switzerland,46.15732,8.77736,,
/venues/417361,Teatre Variete,Locarno,,,Switzerland,46.15732,8.77736,,
/venues/1880503,Ascona Big Band,Locarno,,p.zza elvezia,Switzerland,46.15732,8.77736,,
/venues/2363259,Switzerland National Day,Locarno,,,Switzerland,46.15732,8.77736,,
/venues/4257844,Open Air Al Lago,Locarno,6600,Viale lido,Switzerland,46.16331,8.80299,,
/venues/3954109,Viale al Lido,Locarno,6600,Viale Al Lido,Switzerland,46.16331,8.80299,,
/venues/126444,Palazzetto Fevi,Locarno,6600,Via alla Peschiera - Locarno (CH),Switzerland,46.16345,8.79,,
/venues/2729448,Palaexpo Fevi,Locarno,6601,Via alla Peschiera,Switzerland,46.16345,8.79,,
/venues/4417698,Festival Rock d'Arare,Geneva,1228,,Switzerland,46.16552,6.11602,http://www.festivalrockarare.ch,
/venues/3723869,Le Petit Festival,Geneva,1228,,Switzerland,46.16552,6.11602,http://www.plan-les-ouates.ch/lepetitfestival,
/venues/3612449,Moon & Stars Piazza Piccola,Locarno,,,Switzerland,46.167,8.79426,,
/venues/3628839,Festival del film Locarno (la Rotonda),Locarno,,,Switzerland,46.167,8.79426,http://pardo.ch,
/venues/3386624,Monobar,Locarno,,,Switzerland,46.167,8.79426,,
/venues/3725534,Casa Borgo,Locarno,,,Switzerland,46.167,8.79426,,
/venues/3677489,Studio Foce,Locarno,,,Switzerland,46.167,8.79426,,
/venues/4390496,Tersnaus Square,Locarno,7116,,Switzerland,46.167,8.79426,http://buatsch-festival.simplesite.com/,
/venues/856166,Magic Blues Festival,Locarno,,Various Venues,Switzerland,46.16796,8.78898,,
/venues/2992363,Locarno Folk Festival,Locarno,,,Switzerland,46.16796,8.78898,,
/venues/2465954,Unknown Venue,Locarno,,,Switzerland,46.16796,8.78898,,
/venues/2591458,Selz,Locarno,,,Switzerland,46.16796,8.78898,,
/venues/2470704,Piazza Napoleone,Locarno,,,Switzerland,46.16796,8.78898,,
/venues/2611933,Bar Selz,Locarno,,,Switzerland,46.16796,8.78898,,
/venues/3017149,Fevi,Locarno,,,Switzerland,46.16796,8.78898,,
/venues/95511,Moon And Stars,Locarno,6600,Piazza Grande 1,Switzerland,46.16922,8.79744,,
/venues/3033689,Piazza Grande,Locarno,6600,Piazza Grande 1,Switzerland,46.16922,8.79744,,
/venues/4003294,Casa del Negromante,Locarno,6600,Via Borghese 14,Switzerland,46.17038,8.79327,http://www.negromante.com/,
/venues/2945723,Negromante,Locarno,,VIA BORGHESE 14,Switzerland,46.17038,8.79327,,
/venues/2509074,Cave Marignac,Geneva,1212,Avenue Eugène Lance 28,Switzerland,46.18057,6.12284,http://www.concertsdelancy.ch/page15.php,
/venues/3587684,Fête de la musique Lancy,Geneva,1212,"Ferme Marignac, Grand-Lancy",Switzerland,46.18057,6.12284,,
/venues/3638184,Champmeslé,Geneva,1227,"Rue Jacques Dalphin 53, 1227 Carouge, 1227 Genève",Switzerland,46.18089,6.1403,,
/venues/2929368,La Tanière,Geneva,1227,Rue Jacques Dalphin 53,Switzerland,46.18089,6.1403,,
/venues/1200566,Théâtre Carouge,Geneva,1227,"57, Rue Ancienne Salle Gérard Carrat",Switzerland,46.18314,6.13987,,
/venues/945231,Chateau Carton,Geneva,,,Switzerland,46.18314,6.13987,,
/venues/945136,Le Zoo,Geneva,,,Switzerland,46.18314,6.13987,,
/venues/944691,Place De Sardaigne,Geneva,,,Switzerland,46.18314,6.13987,,
/venues/796811,Stade De Genève,Geneva,1227,,Switzerland,46.18314,6.13987,,
/venues/2857388,Halle Cff Pont-rouge,Geneva,,,Switzerland,46.18314,6.13987,,
/venues/417666,Chat Noir,Geneva,1227,Rue Vautier 13,Switzerland,46.18504,6.14242,,
/venues/2985438,Festival Jazz Contreband,Geneva,1227,Rue Vautier 13,Switzerland,46.18504,6.14242,,
/venues/3252219,Cité Universitaire de Genève,Geneva,1206,46 Avenue de Miremont,Switzerland,46.18674,6.15892,,
/venues/3461009,Theatre Cite-bleue,Geneva,1206,"46, avenue de Miremont",Switzerland,46.18674,6.15892,,
/venues/2512579,Thonex Live,Geneva,1226,Av. Tronchet 18,Switzerland,46.19398,6.20505,,X
/venues/2933123,Salle Communale de Thônex,Geneva,1226,"18, avenue du Tronchet",Switzerland,46.19398,6.20505,,/venues/2512579
/venues/3247614,The Pit,Locarno,,,Switzerland,46.19462,9.02441,,
/venues/4410110,San Bernardino (Mesocco),Locarno,6565,Strada del Lido 2,Switzerland,46.19462,9.02441,,
/venues/3938689,Transforme Festival,Geneva,1213,Chemin Gérard-De-Ternier 18,Switzerland,46.19511,6.1067,,
/venues/3937234,CFPC Lancy,Geneva,1213,Chemin Gérard de Ternier 18,Switzerland,46.19511,6.1067,,
/venues/4116219,Porteus,Geneva,1203,Chemin de la Verseuse,Switzerland,46.19564,6.09203,,
/venues/4023829,Le PLongeoir,Geneva,1203,Chemin de la Verseuse,Switzerland,46.19564,6.09203,,
/venues/2461099,Halle W,Geneva,,,Switzerland,46.19839,6.1423,,
/venues/2697233,Five Night Club,Geneva,,,Switzerland,46.19839,6.1423,,
/venues/2723023,Grand Théâtre de Genève,Geneva,,,Switzerland,46.19839,6.1423,,
/venues/2514249,TheÂtre PitoËff,Geneva,,,Switzerland,46.19839,6.1423,,
/venues/3083219,Port Gitana Bellevue,Geneva,,,Switzerland,46.19839,6.1423,,
/venues/2513629,Centre communal de Genthod,Geneva,,,Switzerland,46.19839,6.1423,,
/venues/3054114,Britannia Pub,Geneva,,,Switzerland,46.19839,6.1423,,
/venues/3074024,Octopode Festival,Geneva,,,Switzerland,46.19839,6.1423,,
/venues/2901818,Le marchand de sable,Geneva,,,Switzerland,46.19839,6.1423,,
/venues/2906618,Median Structure Radio,Geneva,,,Switzerland,46.19839,6.1423,http://medianstructure.com,
/venues/2467129,Cave 12 L'ecurie,Geneva,,,Switzerland,46.19839,6.1423,,
/venues/2926333,Festival L'amr Aux Cropettes,Geneva,,,Switzerland,46.19839,6.1423,,
/venues/2802928,Isc,Geneva,,,Switzerland,46.19839,6.1423,,
/venues/920961,Private Event,Geneva,,,Switzerland,46.19839,6.1423,,
/venues/3080029,Kitchen Studio,Geneva,,,Switzerland,46.19839,6.1423,,
/venues/3052344,Les Voiles,Geneva,,,Switzerland,46.19839,6.1423,,
/venues/2558689,I club,Geneva,,,Switzerland,46.19839,6.1423,,
/venues/2804093,Café le Nyamuk,Geneva,,,Switzerland,46.19839,6.1423,http://www.nyamuk.ch,
/venues/2792188,Dorciere,Geneva,,,Switzerland,46.19839,6.1423,,
/venues/3069994,Geneva Art Festival,Geneva,,,Switzerland,46.19839,6.1423,,
/venues/460306,Espocentro,Locarno,,,Switzerland,46.19849,9.02692,,
/venues/2985603,Folk Bar,Locarno,,,Switzerland,46.19849,9.02692,,
/venues/417446,Piazza Governo,Locarno,,,Switzerland,46.19849,9.02692,,
/venues/460341,Palabasket,Locarno,,,Switzerland,46.19849,9.02692,,
/venues/2137754,Indipendenza,Locarno,,,Switzerland,46.19849,9.02692,,
/venues/2289079,Garage,Locarno,,,Switzerland,46.19849,9.02692,,
/venues/1598403,Porta Ticinese,Locarno,,,Switzerland,46.19849,9.02692,,
/venues/931506,Mcr Piazza,Locarno,,,Switzerland,46.19849,9.02692,,
/venues/1578533,Palais De L'athénée,Geneva,1205,"2, Rue De L’athénée",Switzerland,46.19861,6.14791,,X
/venues/4053244,"Palais De L’athénée, Salle Des Abeilles",Geneva,1205,Rue de l’Athénée 2,Switzerland,46.19861,6.14791,,/venues/1578533
/venues/3398589,Cercle des Bains,Geneva,1205,rue des Vieux-Grenadiers 10,Switzerland,46.19873,6.13767,https://cercledesbains.ch/,X
/venues/4280019,Cercle des Bains - Le Bar,Geneva,1205,"10, Rue des Vieux-Grenadiers",Switzerland,46.19873,6.13767,,/venues/3398589
/venues/1161286,Parc Des Bastions,Geneva,1204,Prom. des Bastions 1,Switzerland,46.20074,6.14458,,X
/venues/4253954,Bastion Réformateur,Geneva,1204,Prom. des Bastions 1,Switzerland,46.20074,6.14458,,/venues/1161286
/venues/2747113,Pointe de la Jonction,Geneva,1205,Sentier des Saules 27,Switzerland,46.2014,6.12323,,X
/venues/3892314,A la Pointe,Geneva,1205,Sentier des Saules 27,Switzerland,46.2014,6.12323,,/venues/2747113
/venues/2895688,Avegno Piazza,Locarno,6670,Avegno Piazza,Switzerland,46.20213,8.74393,,
/venues/417401,Vallemaggia Magic Blues,Locarno,,,Switzerland,46.20213,8.74393,,
/venues/592156,Salle Centrale de la Madeleine,Geneva,1204,Rue de la Madeleine 10,Switzerland,46.20216,6.14863,,/venues/3343559
/venues/3343559,Théâtre De La Madeleine,Geneva,1204,10 rue de la Madeleine,Switzerland,46.20216,6.14863,,X
/venues/928041,MàD,Geneva,1204,20 bis rue du Stand,Switzerland,46.20303,6.13489,,/venues/1130551
/venues/1130551,Moulin a Danses,Geneva,,20 Bis Rue Du Stand,Switzerland,46.20303,6.13489,,X
/venues/32891,Le Zoo,Geneva,1204,4 Pl. des Volontaires,Switzerland,46.20397,6.13589,http://www.lezoo.ch/,
/venues/4369271,"Le Rez, Usine",Geneva,1204,"Place des Volontaires, 4",Switzerland,46.20397,6.13589,https://www.kalvingrad.com/,
/venues/45690,L'Usine,Geneva,1211,"4, Place Des Volontaires",Switzerland,46.204,6.13628,http://usine.ch,
/venues/2462799,Post Tenebras Rock (PTR) - L'Usine,Geneva,1204,Place des Volontaires 4,Switzerland,46.204,6.13628,http://ptrnet.ch,
/venues/2654753,LA MAKHNO,Geneva,1205,4 place des Volontaires,Switzerland,46.204,6.13628,http://www.facebook.com/lamakhno,
/venues/2167164,Kalvingrad,Geneva,1240,4 Place Des Volontaires,Switzerland,46.204,6.13628,,
/venues/2204909,Moloko,Geneva,1204,"4, place des volontaires",Switzerland,46.204,6.13628,,
/venues/2534209,Le Spoutnik,Geneva,1204,4 place des Volontaires,Switzerland,46.204,6.13628,http://www.spoutnik.info/,
/venues/69500,Le Kab,Geneva,,Place des Volontaires 4,Switzerland,46.204,6.13628,,
/venues/3660454,Audio,Geneva,,,Switzerland,46.20439,6.14316,,
/venues/1621258,Antigel Festival,Geneva,,,Switzerland,46.20439,6.14316,http://www.antigel.ch,
/venues/4413702,"Croix-de-Rozon, Switzerland",Geneva,1257,,Switzerland,46.20439,6.14316,,
/venues/1416308,Motel Campo,Geneva,,Geneva,Switzerland,46.20439,6.14316,,
/venues/3172749,Urgence Disk Records,Geneva,,,Switzerland,46.20439,6.14316,https://www.facebook.com/URGENCE-DISK-RECORDS-101329779912757/,X
/venues/2160054,Le Bateau-Lavoir,Geneva,,,Switzerland,46.20439,6.14316,http://bateau-lavoir.ch/,
/venues/3131514,Villa Tacchini,Geneva,,,Switzerland,46.20439,6.14316,http://villatacchini.ch,
/venues/3139289,Les Créatives,Geneva,,,Switzerland,46.20439,6.14316,,
/venues/3171749,Chant'appart,Geneva,,,Switzerland,46.20439,6.14316,,
/venues/1235356,Halles de l'Île,Geneva,,,Switzerland,46.20439,6.14316,,
/venues/3344939,L'Escale,Geneva,,,Switzerland,46.20439,6.14316,,
/venues/3530439,Urgence Disks,Geneva,,,Switzerland,46.20439,6.14316,,/venues/3172749
/venues/3604954,Fêtes de Genève,Geneva,,,Switzerland,46.20439,6.14316,http://www.fetesdegeneve.ch/2017/fr/,
/venues/3484709,Bars en fete,Geneva,,,Switzerland,46.20439,6.14316,,
/venues/3395219,Les Pâquis sont à la Rue,Geneva,,,Switzerland,46.20439,6.14316,,
/venues/3650059,Veisenaz,Geneva,,,Switzerland,46.20439,6.14316,,
/venues/3276209,Bibarium,Geneva,,,Switzerland,46.20439,6.14316,,
/venues/3459784,TBA,Geneva,,,Switzerland,46.20439,6.14316,,
/venues/3651864,Soulitude,Geneva,,,Switzerland,46.20439,6.14316,,
/venues/3631969,Tropical Corner,Geneva,,,Switzerland,46.20439,6.14316,http://www.trop.ch,
/venues/3643369,Ile Rousseau,Geneva,,,Switzerland,46.20439,6.14316,,
/venues/3434174,Hot Point,Geneva,,,Switzerland,46.20439,6.14316,,
/venues/3241144,Festival Métissages,Geneva,,,Switzerland,46.20439,6.14316,,
/venues/3585474,Les Athénéennes,Geneva,,,Switzerland,46.20439,6.14316,,
/venues/3597629,Astions Crypte,Geneva,,,Switzerland,46.20439,6.14316,,
/venues/3328504,Pere Jakob - Soral,Geneva,,,Switzerland,46.20439,6.14316,,
/venues/3187094,DAF Festival '16,Geneva,,,Switzerland,46.20439,6.14316,,
/venues/3260739,Evangelical Lutheran Church,Geneva,,,Switzerland,46.20439,6.14316,,
/venues/3187039,Atelier La Reilure,Geneva,,,Switzerland,46.20439,6.14316,,
/venues/3623824,C.E.R.N.,Geneva,,,Switzerland,46.20439,6.14316,,
/venues/3231764,"Backstage Pub, Gland",Geneva,,,Switzerland,46.20439,6.14316,,
/venues/3660444,Rive Sonores,Geneva,,,Switzerland,46.20439,6.14316,,
/venues/3860514,Le Terreau,Geneva,,8 Rue des Terreaux-du-Temple,Switzerland,46.20617,6.14036,,
/venues/70214,Salle du Faubourg,Geneva,1201,Rue du Terreaux du Temple 8,Switzerland,46.20617,6.14036,,
/venues/593496,Gare De Geneve,Geneva,,Place Dorciere,Switzerland,46.20835,6.14674,,
/venues/922301,Place Dorciere,Geneva,,Place Dorcière,Switzerland,46.20835,6.14674,,
/venues/593611,Gare Routiere,Geneva,,Place Dorcire,Switzerland,46.20835,6.14674,,
/venues/1173391,Uptown,Geneva,1201,"2, Rue de la Servette",Switzerland,46.20931,6.1397,,
/venues/2742188,Comedie De La Gare - Uptown Geneva,Geneva,1201,RUE DE LA SERVETTE 2,Switzerland,46.20931,6.1397,,
/venues/3350954,Place Chateaubriand,Geneva,1201,,Switzerland,46.20955,6.14505,,
/venues/3333294,Place de la Navigation,Geneva,1201,,Switzerland,46.20955,6.14505,,
/venues/2345219,Walden,Geneva,1201,rue des Amis 9,Switzerland,46.21016,6.1403,https://www.facebook.com/lee.walden.75,X
/venues/3409034,Walden club hétérotopique,Geneva,,9 rue des Amis,Switzerland,46.21016,6.1403,,/venues/2345219
/venues/98757,Théâtre du Léman,Geneva,1201,"19, Quai du Mont Blanc",Switzerland,46.21018,6.15088,,X
/venues/46352,Grand Casino,Geneva,1250,Quai du Mont-Blanc 19,Switzerland,46.21018,6.15088,,/venues/98757
/venues/3743989,Quai du Mont-Blanc 19,Geneva,1201,Quai du Mont-Blanc 19,Switzerland,46.21018,6.15088,http://www.rrp.ch,
/venues/2817958,Club Tsunami,Conthey,1964,Rue des industries 9,Switzerland,46.21602,7.29728,http://www.tsunami.ch/,/venues/3823269
/venues/3823269,Octave Club,Conthey,1964,Rue des Industries 9,Switzerland,46.21602,7.29728,,X
/venues/3789594,Le Cercle,Conthey,1964,Rue des Industries 9,Switzerland,46.21602,7.29728,http://www.cercle-club.ch,/venues/3823269
/venues/2917723,Petit Music Hohl,Geneva,1216 Genève,"54, avenue Louis-Casaï",Switzerland,46.22326,6.11009,,
/venues/3271084,P'tit Rock Fest,Geneva,,avenue Louis-Casaï 54,Switzerland,46.22326,6.11009,http://www.rock-fest.ch/,
/venues/2395599,Arcades de la Grenette Grand-Pont,Sion,1950,,Switzerland,46.22702,7.35334,http://www.lagreu.ch/arcades/sarcades.htm,
/venues/2781763,Plaine De Tourbillon,Sion,1950,,Switzerland,46.22702,7.35334,,
/venues/1074741,Ferme-Asile,Sion,1950,Promenade des Pêcheurs 10,Switzerland,46.22978,7.37238,,/venues/3198558
/venues/3198558,La Ferme Asile,Sion,1950,Promenade des Pêcheurs 10,Switzerland,46.22978,7.37238,,X
/venues/1257581,"Kellertheater, Brig",Sion,,-,Switzerland,46.23312,7.36063,,
/venues/3234169,Sion sous les Étoiles,Sion,,,Switzerland,46.23312,7.36063,,
/venues/2511179,Guinness Irish Festival,Sion,,,Switzerland,46.23312,7.36063,,
/venues/4412929,Kasse-Noisettes Granges,Sion,3977,,Switzerland,46.23312,7.36063,,
/venues/3489049,L'E-Gloo Vernamiège,Sion,,,Switzerland,46.23312,7.36063,,
/venues/4368588,Place du midi 29,Sion,1950,,Switzerland,46.23312,7.36063,,
/venues/3544994,Château De La Majorie,Sion,,,Switzerland,46.23312,7.36063,,
/venues/491426,Forum de Meyrin,Geneva,,,Switzerland,46.2335,6.08,,
/venues/492661,Salle Antoine-Verchere,Geneva,,,Switzerland,46.2335,6.08,,
/venues/2138324,La Centrale,Geneva,,,Switzerland,46.2335,6.08,,
/venues/2138319,Aérogare,Geneva,,,Switzerland,46.2335,6.08,,
/venues/2779143,Gare Routière Aéroport de Genève,Geneva,1211,Cointrin (près du P1),Switzerland,46.23701,6.10916,,
/venues/3163409,Église de Saanen,Geneva,3780,,Switzerland,46.23701,6.10916,,
/venues/772831,Gare Cff,Geneva,1215,Aeroport De Geneve/coitrin,Switzerland,46.23701,6.10916,,
/venues/418426,Pont Rouge,Monthey,1870,Avenue de Plantaud 122,Switzerland,46.25056,6.96431,http://www.pontrouge.ch,/venues/4233269
/venues/4233269,Le Pont Rouge,Monthey,1870,Av. de la plantaud 122,Switzerland,46.25056,6.96431,,X
/venues/4245059,Buvette du bord de l'eau,Sierre,3960,Lac de Géronde,Switzerland,46.28894,7.54277,http://auborddeleau.bar,
/venues/1381866,Lac de Géronde,Sierre,3960,Lac de Géronde,Switzerland,46.28894,7.54277,,
/venues/2261264,Week End Au Bord De L'eau,Sierre,,Géronde Lake,Switzerland,46.28894,7.54277,,
/venues/1410093,Hacienda Sonic,Sierre,3960,Rue De La Monderèche 7,Switzerland,46.29065,7.53197,,
/venues/3316499,Jazz Station Sierre,Sierre,,Route de la Mondérêche 7,Switzerland,46.29065,7.53197,,
/venues/3461269,Anciens Abattoirs,Sierre,3960,Rue de la Monderèche 7,Switzerland,46.29065,7.53197,http://www.aslec.ch/,
/venues/3211483,Station service,Sierre,3960,Anciens abattoirs,Switzerland,46.29167,7.54293,,
/venues/1351156,Villa Bayard,Sierre,,Ch-3960,Switzerland,46.29167,7.54293,,
/venues/4390481,"Evolène, Switzerland",Sierre,1983,,Switzerland,46.29413,7.53354,,
/venues/1351166,Sierre Downtown,Sierre,,Downtown Sierre,Switzerland,46.29413,7.53354,,
/venues/4372903,Buvette Orzival Burger - Grimentz,Sierre,3961,,Switzerland,46.29413,7.53354,https://www.valdanniviers.ch/fr/remontees-mecaniques-grimentz-zinal-1950.html,
/venues/3769749,AltiKulti,Sierre,3930,,Switzerland,46.29473,7.88212,,
/venues/4415344,"Chalte Bodu, Bürchen",Sierre,3935,,Switzerland,46.29473,7.88212,,
/venues/2848083,La Pote,Montreux,,,Switzerland,46.3,7.05,,
/venues/3195148,Place Du Marche,Montreux,,,Switzerland,46.3,7.05,,
/venues/3453734,Cry D'er - Club d'Altitude,Sierre,,,Switzerland,46.30762,7.47371,http://www.cryder.ch/accueil/,
/venues/3360714,New Pub,Sierre,,,Switzerland,46.30762,7.47371,,
/venues/3818334,Kellertheater,Sierre,3900 Brig,Alte Simplonstrasse 28,Switzerland,46.31529,7.99065,http://www.kellertheater.ch/,
/venues/4096889,Stockalperpalast,Sierre,3900,Alte Simplonstrasse 28,Switzerland,46.31529,7.99065,,
/venues/4055984,Salle de l'Aiglon,Montreux,1860,Avenue de Loës 6,Switzerland,46.31588,6.96691,,X
/venues/4055974,L'Aiglon,Montreux,1860,Avenue de Loës 6,Switzerland,46.31588,6.96691,,/venues/4055984
/venues/3092669,"Das Zelt Ag, Rhonesandterrain, Brig",Sierre,3900,Rhonesandterrain,Switzerland,46.3159,7.98782,,
/venues/4379369,Patinage,Sierre,,Rathausstraße 8,Switzerland,46.3159,7.98782,,
/venues/3769779,Hip Hop Zelt,Sierre,,,Switzerland,46.3159,7.98782,,
/venues/1625638,Leysarium,Montreux,,,Switzerland,46.34129,7.01243,,
/venues/418371,Centre Des Sports Leysin,Montreux,,,Switzerland,46.34129,7.01243,,
/venues/2185989,Station,Montreux,,,Switzerland,46.34129,7.01243,,
/venues/3481649,IcogneJazz Festival,Sierre,1977,Icogne,Switzerland,46.34257,7.49844,http://www.icognejazz.ch,
/venues/3738974,Le Pacha,Sierre,,,Switzerland,46.34257,7.49844,,
/venues/3738969,Cervin Lounge Club,Sierre,,,Switzerland,46.34257,7.49844,,
/venues/2138119,Les Hivernales,Nyon,1260,Multiple venues,Switzerland,46.38051,6.22987,https://leshivernales.ch,
/venues/3263484,Fête de la Musique,Nyon,1260,Various venues,Switzerland,46.38051,6.22987,http://www.nyonmusique.ch,
/venues/4056459,Bar la Parenthèse,Nyon,1260,Grand-Rue 22 Bis,Switzerland,46.38166,6.23897,http://www.bar-laparenthese.ch/,/venues/341441
/venues/4011669,La Paranthese,Nyon,1260,Grand-Rue 22 Bis,Switzerland,46.38166,6.23897,http://www.bar-laparenthese.ch,/venues/341441
/venues/341441,La Parenthèse,Nyon,1260,Grand-rue 22bis,Switzerland,46.38327,6.23479,http://www.bar-laparenthese.ch,X
/venues/4274024,Gare Nyon,Nyon,1260,,Switzerland,46.38327,6.23479,,
/venues/2268154,Inch Club,Sion,3984,Furkastrasse 59,Switzerland,46.38342,8.09874,https://www.facebook.com/inchclubfiesch,
/venues/3903024,Gommer Openair Lax,Sierre,3994,Furkastrasse 46,Switzerland,46.38342,8.09874,,
/venues/4366121,Alpina Tipi Bar - Fiescheralp,Sierre,3984,,Switzerland,46.40145,8.13331,http://www.alpinafiescheralp.ch/,
/venues/3631599,Eggishorn - 2926 müM,Sierre,,,Switzerland,46.40145,8.13331,,
/venues/84629,Montreaux Casino,Montreux,1820,,Switzerland,46.42761,6.95941,,
/venues/491421,Montreux Jazz Café,Montreux,1820,,Switzerland,46.42761,6.95941,,
/venues/2356919,Montreux Music and Convention Center - Jazz Club,Montreux,1820,,Switzerland,46.42761,6.95941,,
/venues/2803258,Funky Claude's Lounge,Montreux,1820,,Switzerland,46.42761,6.95941,,
/venues/2985128,Montreux Palace,Montreux,1820,,Switzerland,46.42761,6.95941,,
/venues/2950868,Boats,Montreux,1820,,Switzerland,46.42761,6.95941,,
/venues/108189,Montreux Jazz Festival,Montreux,,,Switzerland,46.43122,6.91068,,
/venues/3321349,Strobe Klub,Montreux,,,Switzerland,46.43122,6.91068,,
/venues/3671884,Tattoo Convention,Montreux,,,Switzerland,46.43122,6.91068,,
/venues/3449719,Le bar à vin,Montreux,,,Switzerland,46.43122,6.91068,,
/venues/3342939,Energy Challenge,Montreux,,Place du Marché,Switzerland,46.4321,6.90977,,
/venues/4418984,Statue de Freddie Mercury,Montreux,1820,Pl. du Marché,Switzerland,46.4321,6.90977,,
/venues/101332,Ned Music Club,Montreux,1820,Rue du Marché 19,Switzerland,46.43391,6.91234,,
/venues/4351024,Festi'Bac,Montreux,,Rue du Marché 19,Switzerland,46.43391,6.91234,,
/venues/3026684,Montreux Jazz Festival Club,Montreux,,,Switzerland,46.436,6.91028,,
/venues/2648928,Jazz in the Park,Montreux,,Montreux Jazz Festival,Switzerland,46.436,6.91028,,
/venues/3034809,MJF - Terrasse Couleur 3,Montreux,,,Switzerland,46.436,6.91028,,
/venues/2311624,Montreux Jazz Club,Montreux,1829,Avenue Claude Nobs 2,Switzerland,46.43861,6.9068,http://www.montreuxjazz.com,
/venues/4391549,Jardin du Montreux palace,Montreux,1820,Av. Claude-Nobs 2,Switzerland,46.43861,6.9068,,
/venues/3535434,Fairmont Hotel Le Montreux Palace,Montreux,1820,Av. Claude-Nobs 2,Switzerland,46.43861,6.9068,,
/venues/4382933,Oniria Festival,Montreux,,Avenue Claude Nobs 5,Switzerland,46.43922,6.90435,http://oniriafestival.com,
/venues/3958664,Montreux Music & Convention Centre,Montreux,1820,AV. CLAUDE-NOBS 5,Switzerland,46.43922,6.90435,,X
/venues/4044449,2m2c Montreux Music & Convention Center,Montreux,1820,Avenue Claude Nobs 5,Switzerland,46.43922,6.90435,,/venues/3958664
/venues/4250569,Auditorium Stravinski Debout 2019,Montreux,1820,Avenue Claude Nobs 5,Switzerland,46.43922,6.90435,,/venues/64260
/venues/64260,Auditorium Stravinski,Montreux,1820,Grand-Rue 95,Switzerland,46.43931,6.90471,,X
/venues/1048096,Montreux Music and Convention Center,Montreux,1820,Grand-Rue 95,Switzerland,46.43931,6.90471,,/venues/3958664
/venues/3724009,Salle des Remparts,Montreux,1814,"Place des Anciens-Fossés 7, Tour-de-Peilz",Switzerland,46.45288,6.85851,,X
/venues/4366012,Salle des Remparts,Riviera-Pays-d'Enhaut,1814,Place des Anciens-Fossés 7,Switzerland,46.45288,6.85851,https://www.la-tour-de-peilz.ch/,/venues/3724009
/venues/4387472,Le Temple,Riviera-Pays-d'Enhaut,1814,,Switzerland,46.45721,6.86927,,
/venues/3379239,Théâtre du Château,Montreux,1814,,Switzerland,46.45721,6.86927,,
/venues/2223439,Le Local,Montreux,1800,30 rue du Panorama,Switzerland,46.46085,6.84793,http://www.facebook.com/groups/fetivalocal/,
/venues/1953989,Kava Zik,Montreux,1800 Vevey,PANORAMA 30,Switzerland,46.46085,6.84793,http://le-local.org/,
/venues/3307194,Temple Saint-martin,Montreux,1800,Boulevard Saint-Martin,Switzerland,46.46163,6.84933,,X
/venues/2744723,Église Saint-Martin,Montreux,1800,Bd. Saint-Martin,Switzerland,46.46163,6.84933,,/venues/3307194
/venues/1001236,Live Vevey,Montreux,,,Switzerland,46.46273,6.84243,,/venues/971771
/venues/971771,Espace Guinguette,Montreux,,,Switzerland,46.46273,6.84243,,X
/venues/2085669,Sessions Studio 603,Montreux,,,Switzerland,46.46273,6.84243,https://www.facebook.com/pages/Sessions-Studio-603/165978506784016?ref=hl,
/venues/2372334,Jardin Roussy,Montreux,,,Switzerland,46.46273,6.84243,,
/venues/245593,Animai,Montreux,,,Switzerland,46.46273,6.84243,,
/venues/2410869,La Fourchette,Montreux,,,Switzerland,46.46273,6.84243,,
/venues/1446438,Salle de Castillo,Montreux,,,Switzerland,46.46273,6.84243,,
/venues/236273,Toit Du Monde,Montreux,,,Switzerland,46.46273,6.84243,,
/venues/1008911,Vaud Market Place,Montreux,,,Switzerland,46.46273,6.84243,,
/venues/563341,Les Temps Modernes,Montreux,,,Switzerland,46.46273,6.84243,,
/venues/3203138,Diva Club,Montreux,,,Switzerland,46.46283,6.84192,,
/venues/3313634,Squat FMR,Montreux,,,Switzerland,46.46283,6.84192,,
/venues/4375499,Villa de La Becque,Montreux,,La Tour-de-Peilz,Switzerland,46.46283,6.84192,,
/venues/861761,Café Ve,Montreux,1800,pl. de la Gare,Switzerland,46.46308,6.84296,http://www.veme.ch,/venues/1107486
/venues/1107486,Cafe Le Veme,Montreux,,Place De La Gare,Switzerland,46.46308,6.84296,,X
/venues/3737209,Chesery Club,Martigny,,,Switzerland,46.47176,7.28657,,
/venues/4122174,Ride on Music,Martigny,3780,,Switzerland,46.47176,7.28657,,
/venues/3434414,Das Zelt,Martigny,3780,Eisenbahnareal,Switzerland,46.47176,7.28657,,
/venues/3772934,Skigebiet Schönried-Saanenmöser,Martigny,,,Switzerland,46.47176,7.28657,,
/venues/3655339,Festival Tent,Martigny,,,Switzerland,46.47176,7.28657,,
/venues/3430294,Katholische Kirche Zweisimmen bei,Martigny,,,Switzerland,46.47176,7.28657,http://www.zweisimmenjazz.ch/programm-2016-2017/heidi-happy,
/venues/2867038,Jam Gstaad,Martigny,3780,Hauptstrasse,Switzerland,46.47199,7.28555,http://jam-events.ch/,X
/venues/2867598,Jam Gstaad,Montreux,3792,Hauptstrasse,Switzerland,46.47199,7.28555,,/venues/2867038
/venues/3393679,Le 3780,Martigny,3780,Promenade 57,Switzerland,46.47427,7.28579,http://www.le3780.ch/,
/venues/2843683,Kapelle Gstaad,Martigny,3780,Promenade,Switzerland,46.47427,7.28579,,
/venues/4132894,Kempinski Residences,St. Moritz,,Via Mezdi 35,Switzerland,46.48189,9.83322,https://www.kempinski-residences.ch/en,X
/venues/4132899,Kempisnki Residences,St. Moritz,,Via Mezdi 35,Switzerland,46.48189,9.83322,https://www.kempinski-residences.ch/en,/venues/4132894
/venues/2171889,Chapiteau,Lausanne,1096,Place d'Armes,Switzerland,46.48845,6.73283,,
/venues/2171894,Next Step,Lausanne,1096,Place d'Armes,Switzerland,46.48845,6.73283,,
/venues/4149999,Union Vinicole De Cully,Lausanne,1096,Rue de la Gare 10,Switzerland,46.4893,6.72779,,X
/venues/4233274,Union Vinicole De Cully / Temple Extramuros,Lausanne,1096,Rue de la Gare 10,Switzerland,46.4893,6.72779,,/venues/4149999
/venues/3506954,Festival Lavaux Classic,Lausanne,,,Switzerland,46.4896,6.72909,,X
/venues/2994563,Cully Classique,Lausanne,,,Switzerland,46.4896,6.72909,,/venues/3506954
/venues/3119414,Corvatsch & Schulhausplatz St. Moritz,St. Moritz,7500,,Switzerland,46.4908,9.83551,,
/venues/3726369,House of Fans,St. Moritz,,,Switzerland,46.4908,9.83551,,
/venues/4321319,Pontisella,St. Moritz,7605,Strada Cantonale 86,Switzerland,46.4908,9.83551,http://www.pontisella-stampa.ch/,
/venues/2635968,Pitschna Scena,St. Moritz,,,Switzerland,46.49164,9.90374,,
/venues/2496439,Sporthotel Lounge,St. Moritz,,Sporthotel Lounge,Switzerland,46.49164,9.90374,,
/venues/2621568,Larett Market,St. Moritz,,,Switzerland,46.49164,9.90374,,
/venues/2788463,Bergrestaurant Alp Languard,St. Moritz,7504,,Switzerland,46.49164,9.90374,,
/venues/2756958,Kongress- und Kulturzentrum Rondo,St. Moritz,7504,Via Maistra 133,Switzerland,46.49302,9.9029,,
/venues/1865428,Voices on Top,St. Moritz,7504,Via Maistra 133,Switzerland,46.49302,9.9029,,
/venues/4378865,Hauser's Terrasse,St. Moritz,7500,Via Traunter plazzas 7,Switzerland,46.49753,9.83785,https://www.hotelhauser.ch/hauser-st-moritz/,
/venues/4364970,RooBar,St. Moritz,7500,Via Traunter Plazzas 7,Switzerland,46.49753,9.83785,https://www.hotelhauser.ch/hauser-restaurant/hauser-roobar/,
/venues/3343969,Les Estivales Pully,Lausanne,,,Switzerland,46.50927,6.66549,,
/venues/3441024,Cinéma City Club,Lausanne,,,Switzerland,46.50927,6.66549,,X
/venues/2078519,City Club,Lausanne,,,Switzerland,46.5093,6.6616,,/venues/3441024
/venues/2593563,Café-Théâtre de la Voirie,Lausanne,,,Switzerland,46.5093,6.6616,,
/venues/4113324,Centre Pluriculturel et social d’Ouchy (,Lausanne,1006,Chemin de  Beau-Rivage 2,Switzerland,46.51096,6.63036,https://www.cpo-ouchy.ch,X
/venues/4339577,Cpo D'ouchy,Lausanne,1006,Beau-Rivage 2,Switzerland,46.51096,6.63036,,/venues/4113324
/venues/2386324,Watergate,Lausanne,1007,,Switzerland,46.51605,6.609,http://www.water-gate.ch/fr/le-cafe/,
/venues/2134484,E-jaques Dalcrose 9,Lausanne,1007,,Switzerland,46.51605,6.609,http://www.water-gate.ch/,
/venues/612901,For Noise Festival,Lausanne,1009,Chemin Du Stand 5,Switzerland,46.51958,6.66884,,
/venues/1029536,Site Des 4-vents,Lausanne,,Chemin Du Stand 5,Switzerland,46.51958,6.66884,,
/venues/3875219,La Grange de Dorigny,Lausanne,1015,,Switzerland,46.5196,6.56849,http://wp.unil.ch/grangededorigny,
/venues/2619663,Rolex Learning Center,Lausanne,,1015 Ecublens,Switzerland,46.5196,6.56849,,
/venues/3494679,Jetlag,Lausanne,,,Switzerland,46.51965,6.63227,,
/venues/3201463,Représentation privée,Lausanne,,,Switzerland,46.51965,6.63227,,
/venues/4384179,Prémices Festival,Lausanne,1000,,Switzerland,46.51965,6.63227,https://premices.ch/,
/venues/3617389,1066 Festival,Lausanne,,,Switzerland,46.51965,6.63227,,
/venues/3770599,Porno Diesel,Lausanne,,,Switzerland,46.51965,6.63227,,
/venues/4390488,Quais de Lutry,Lausanne,1095,,Switzerland,46.51965,6.63227,http://www.sdlutry.ch/concerts.html,
/venues/3448744,La Casona Latina,Lausanne,,,Switzerland,46.51965,6.63227,,
/venues/3709564,Café du Pont,Lausanne,,,Switzerland,46.51965,6.63227,,
/venues/3697779,Mad Moulin à Danses,Lausanne,,,Switzerland,46.51965,6.63227,,
/venues/3112609,Le Sapin,Lausanne,,,Switzerland,46.51965,6.63227,,
/venues/3670519,Metal Highway,Lausanne,,,Switzerland,46.51965,6.63227,,
/venues/4385864,Parc de Valency,Lausanne,1010,,Switzerland,46.51965,6.63227,https://www.lausanne.ch/agenda-et-actualites/lausanne-heure-ete/garden-parties/garden-parties;jsessionid=7E59DD561FFF0FC26EC9A6298D664309,
/venues/3550409,La Bourdache,Lausanne,,,Switzerland,46.51965,6.63227,,
/venues/4294084,Auberge de beaulieu,Lausanne,1000,,Switzerland,46.51965,6.63227,http://lauberge-de-beaulieu.thefork.rest/,
/venues/3552484,Impetus Festival,Lausanne,,,Switzerland,46.51965,6.63227,,
/venues/3548024,Le Broadway Av.,Lausanne,,,Switzerland,46.51965,6.63227,,
/venues/3616004,Pavillon Bar & Kitchen,Lausanne,,,Switzerland,46.51965,6.63227,,
/venues/3177169,Depart Place De Bellerive,Lausanne,,,Switzerland,46.51965,6.63227,,
/venues/3499809,Intimité Live 7Radio,Lausanne,,,Switzerland,46.51965,6.63227,,
/venues/3516524,RTS Espace 2 – émission Magnétique,Lausanne,,,Switzerland,46.51965,6.63227,,
/venues/4279434,Jardin Roussy,Lausanne,1814,,Switzerland,46.51965,6.63227,,
/venues/3402754,Topophoniques,Lausanne,,,Switzerland,46.51965,6.63227,http://topophoniques.blogspot.ch,
/venues/3643809,Punk,Lausanne,,,Switzerland,46.51965,6.63227,,
/venues/3686539,Ancient Astronaut,Lausanne,,,Switzerland,46.51965,6.63227,,
/venues/3586604,Kadok Club,Lausanne,,,Switzerland,46.51965,6.63227,,
/venues/4406170,Église Saint-François,Lausanne,1003,Place St-François,Switzerland,46.51989,6.63359,,X
/venues/4406168,Eglise St Francois,Lausanne,1003,Place St. François,Switzerland,46.51989,6.63359,,/venues/4406170
/venues/1017681,Festival de la Cité Lausanne,Lausanne,,,Switzerland,46.51996,6.6336,,
/venues/2511579,Mica Club,Lausanne,,,Switzerland,46.51996,6.6336,,
/venues/2523969,LFM Radio,Lausanne,,,Switzerland,46.51996,6.6336,,
/venues/2598568,Label Suisse Festival / EJMA,Lausanne,,,Switzerland,46.51996,6.6336,http://www.labelsuisse.ch/,
/venues/2453054,Sasha Club,Lausanne,,,Switzerland,46.51996,6.6336,,
/venues/2887933,M4music,Lausanne,,,Switzerland,46.51996,6.6336,,
/venues/3002529,"Bateaux solaires, Ouchy",Lausanne,,,Switzerland,46.51996,6.6336,,
/venues/2645833,Festival De La Terre,Lausanne,,,Switzerland,46.51996,6.6336,,
/venues/2916858,Lausanne Estival,Lausanne,,,Switzerland,46.51996,6.6336,http://www.lausanne.ch/lausanneestivale,
/venues/2844993,Hemu,Lausanne,,,Switzerland,46.51996,6.6336,,
/venues/3020889,Rolle,Lausanne,,,Switzerland,46.51996,6.6336,,
/venues/2594478,La Chaine,Lausanne,,,Switzerland,46.51996,6.6336,,
/venues/2746088,Tech A Break bar @EPFL,Lausanne,,,Switzerland,46.51996,6.6336,,
/venues/2929423,Open Air Stage,Lausanne,,,Switzerland,46.51996,6.6336,,
/venues/2850988,TBA,Lausanne,,,Switzerland,46.51996,6.6336,,
/venues/96586,Le Bourg,Lausanne,1002,Rue de Bourg 51,Switzerland,46.52013,6.63663,http://www.le-bourg.ch/,
/venues/3385664,Label Suisse,Lausanne,1002,Rue de Bourg 51,Switzerland,46.52013,6.63663,https://labelsuisse.ch,
/venues/3217513,ECAL,Lausanne,1003,Rue de Bourg 51,Switzerland,46.52013,6.63663,http://www.le-bourg.ch,
/venues/1111161,Casino De Montbenon,Lausanne,1003,Allée Ernest-ansermet 3,Switzerland,46.52038,6.62502,,X
/venues/3358784,Casino De Montbenon - Salle Paderewski,Lausanne,1003,Allée Ernest-Ansermet 3,Switzerland,46.52038,6.62502,,/venues/1111161
/venues/1431213,Salle Paderewski,Lausanne,1003,Allée Ernest-Ansermet 3,Switzerland,46.52038,6.62502,,/venues/1111161
/venues/3358789,Casino De Montbenon - Espacejazz,Lausanne,1003,Allée Ernest-Ansermet 3,Switzerland,46.52038,6.62502,,/venues/1111161
/venues/2444149,Montbenon Casino,Lausanne,1003,Allée Ernest-Ansermet 3,Switzerland,46.52038,6.62502,,/venues/1111161
/venues/2792453,Casino De Montbanon,Lausanne,,Allee Ernest Ansermet 3,Switzerland,46.52038,6.62502,,/venues/1111161
/venues/4027974,Duke's,Lausanne,,12 rue du Flon,Switzerland,46.52065,6.63558,,X
/venues/4255109,Duke S Wine Tapas & Music Bar,Lausanne,1003,Rue du Flon 12,Switzerland,46.52065,6.63558,,/venues/4027974
/venues/130024,D Club,Lausanne,1000,Place Centrale 1,Switzerland,46.52067,6.63155,,X
/venues/105720,D! Club| Place Centrale,Lausanne,1001,Place Centrale 1,Switzerland,46.52067,6.63155,http://www.dclub.ch,/venues/130024
/venues/1100181,Label Suisse Festival / D-club,Lausanne,,place Centrale 1,Switzerland,46.52067,6.63155,,/venues/130024
/venues/2719243,Electrosanne Open Air,Lausanne,1003,Place centrale 1,Switzerland,46.52067,6.63155,,
/venues/32589,Loft Club and Cafe,Lausanne,1003,,Switzerland,46.52079,6.63149,http://www.loftclub.ch,
/venues/3160114,Steinway Hall,Lausanne,1003 Lausanne,Arcades Pichard 13,Switzerland,46.52079,6.63149,http://steinwayhall.ch/,
/venues/2381709,Divers Lieux,Lausanne,1003,,Switzerland,46.52079,6.63149,,
/venues/3489459,Le Mad Club & Quai No 1,Lausanne,1003,,Switzerland,46.52079,6.63149,,/venues/67423
/venues/4335410,Espacejazz,Lausanne,1003,,Switzerland,46.52079,6.63149,,
/venues/3196208,Taco's Bar,Lausanne,1003,Rue de Genève 17,Switzerland,46.52168,6.62817,http://tacos-bar.ch/,
/venues/46109,Le Métropole,Lausanne,1002,Rue de Genève 17,Switzerland,46.52168,6.62817,,
/venues/67423,Le Mad,Lausanne,1003,Rue de Geneve 23,Switzerland,46.52187,6.62717,,X
/venues/3807999,JET by Valentino,Lausanne,1003,Rue de Genève 23,Switzerland,46.52187,6.62717,http://www.madclub.ch,/venues/67423
/venues/4378735,JET Club - 3e étage du MAD,Lausanne,1002,Rue de Genève 23,Switzerland,46.52187,6.62717,,/venues/67423
/venues/2933888,Boulevard Des Stars,Lausanne,1003,Rue St. Martin 11,Switzerland,46.52256,6.63689,,
/venues/4083664,El Secreto Club,Lausanne,1003,Rue Saint-Martin 11,Switzerland,46.52256,6.63689,,
/venues/3154219,BCU,Lausanne,1000,place de la Riponne,Switzerland,46.52365,6.63267,,
/venues/3343849,La Grenette,Lausanne,,place de la riponne,Switzerland,46.52365,6.63267,,
/venues/1655248,Rouge City,Lausanne,1003,Place Chauderon 18,Switzerland,46.52382,6.62529,,
/venues/3102759,Chauderon18,Lausanne,1003,Place Chauderon 18,Switzerland,46.52382,6.62529,http://chauderon18.ch,/venues/3569194
/venues/3293424,Club Chauderon 18,Lausanne,1003,Place Chauderon 18,Switzerland,46.52382,6.62529,,/venues/3569194
/venues/3662454,No Name - Chaudron 18,Lausanne,,Chauderon 18,Switzerland,46.52382,6.62529,,/venues/3569194
/venues/3668064,Le Cazard,Lausanne,1004 Lausanne,Pré-du-Marché 15,Switzerland,46.52408,6.62958,,X
/venues/4397947,Le Romandie Au Cazard,Lausanne,1004,Rue Pré du Marché 15,Switzerland,46.52408,6.62958,,/venues/3668064
/venues/1403163,Vinyl Club,Lausanne,1005,Place du Tunnel 9,Switzerland,46.52592,6.635,http://vinylclub-lausanne.blogspot.com/,
/venues/2395989,Broadway Av.,Lausanne,1005,Place du Tunnel 9,Switzerland,46.52592,6.635,,
/venues/3424479,TKM Théatre Kléber-Méleau,Lausanne,1020,Chemin de l'Usine à gaz 9,Switzerland,46.5262,6.59946,http://www.t-km.ch/,/venues/4250619
/venues/4250619,Théâtre Kléber-Méleau,Lausanne,1020 Renens-Malley,Chemin de l’Usine à Gaz 9,Switzerland,46.5262,6.59946,https://www.tkm.ch/,X
/venues/54921,Théâtre de Beaulieu,Lausanne,1004,Avenue Bergières 10,Switzerland,46.52943,6.6229,,X
/venues/1896843,MCH Beaulieu Lausanne,Lausanne,1000,Avenue des Bergieres 10,Switzerland,46.52943,6.6229,,/venues/54921
/venues/3159424,"Studio 15, RTS",Lausanne,1010,Avenue du Temple 40,Switzerland,46.53337,6.64943,http://www.rts.ch,X
/venues/2446039,RTS Espace2 - émission JazzZ,Lausanne,1000,Av. du Temple 40,Switzerland,46.53337,6.64943,http://www.rts.ch/espace-2/programmes/jazzz/,/venues/3159424
/venues/945221,"Studio 15, RSR",Lausanne,1010,Avenue du Temple 40,Switzerland,46.53337,6.64943,http://www.rsr.ch,/venues/3159424
/venues/879761,Salle Des Spectacles,Lausanne,,Rue De Lausanne 37,Switzerland,46.53648,6.58603,,X
/venues/936406,Salle De Spectacles,Lausanne,1020,Rue De Lausanne 37,Switzerland,46.53648,6.58603,,/venues/879761
/venues/619716,Salle De Grand-vennes,Lausanne,,17 Chemin Des Abeilles,Switzerland,46.5412,6.64795,,
/venues/1011066,Grand V Rock,Lausanne,1010,Chemin Des Abeilles 17,Switzerland,46.5412,6.64795,http://grandvrock.ch,
/venues/2958443,"Kiental, Switzerland",Frutigen,3723,,Switzerland,46.5431,7.75573,http://naturalsound.ch,
/venues/2958433,Kientalerhof,Frutigen,3723,Kiental,Switzerland,46.5431,7.75573,http://www.kientalerhof.ch,
/venues/4332994,Open Air Im Freibadareal,Frutigen,3714,Sportweg 1,Switzerland,46.59355,7.65342,,
/venues/4145434,Kulturverein Kandertal im Sportzentrum Frutigen,Frutigen,3714,Sportweg 1,Switzerland,46.59355,7.65342,,
/venues/4390913,Alpinhotel Bort,Grindelwald,3818,Bortweg 44,Switzerland,46.60006,8.05305,,
/venues/4397949,Stream Vom Jungfraujoch,Grindelwald,3818,,Switzerland,46.60006,8.05305,,
/venues/2799013,Aula Lyceum Alpinum,St. Moritz,7524,Via Lyceum,Switzerland,46.60218,9.95978,,
/venues/2751918,Theater Globe,St. Moritz,,,Switzerland,46.60218,9.95978,,
/venues/4151944,Fleebar 3000,Chur,7132,Vale 199A,Switzerland,46.60947,9.17302,,/venues/4169169
/venues/4169169,Fleebar,Chur,7132,Vale 199A,Switzerland,46.60947,9.17302,,X
/venues/3472824,Les Archives,Bulle,,,Switzerland,46.61545,7.05773,,
/venues/3695394,Halle Sottas,Bulle,,,Switzerland,46.61545,7.05773,,
/venues/4412054,Andermatt Reuss,Luzern,6490,,Switzerland,46.62674,8.61759,,
/venues/4415538,"Raum Altdorf, Radisson Blu Hotel",Luzern,6490,,Switzerland,46.62674,8.61759,,
/venues/4286929,Mehrzweckhalle Sedrun,Surselva,7188,,Switzerland,46.63506,8.76335,,
/venues/4337963,ROCKseDRUN,Surselva,7188,,Switzerland,46.63506,8.76335,http://www.rocksedrun.ch,
/venues/4059954,"Casa d'Angel, Lumbrein",Chur,7148 Lumnezia,Dado baselgia 116,Switzerland,46.68335,9.13625,https://culturalumnezia.ch/,/venues/4059969
/venues/4059969,Casa d'Angel,Chur,7148 Lumnezia,Dado Baselgia 116,Switzerland,46.68335,9.13625,https://culturalumnezia.ch,X
/venues/885001,Trucker & Country Festival Grounds,Bern,,,Switzerland,46.68635,7.8632,,
/venues/3747754,Hangover Club,Bern,,,Switzerland,46.68635,7.8632,,
/venues/1579043,Das Zelt,Bern,3800,Höhenmatte,Switzerland,46.68648,7.85691,,
/venues/2732328,Höhematte,Bern,3800,Höheweg 41,Switzerland,46.68648,7.85691,,
/venues/3592804,"Salle de Versailles, Grand Hotel Victoria-Jungfrau",Bern,3800,Höheweg 41,Switzerland,46.68648,7.85691,,
/venues/2603173,Greenfield,Bern,,,Switzerland,46.68738,7.86955,,/venues/2638278
/venues/2638278,Green Fields Festival,Bern,,,Switzerland,46.68738,7.86955,,X
/venues/2658193,Goldener Anker,Bern,,,Switzerland,46.68738,7.86955,,
/venues/3336969,La Tour du Sauvage,Fribourg,1680,Romont,Switzerland,46.69189,6.91181,http://www.romontregion.ch,
/venues/3212043,Les Capucins,Fribourg,1680,Romont,Switzerland,46.69189,6.91181,http://www.les-capucins.ch/resources/2016-2017/LESCAPUCINS_16-17_Programme_1.jpg,
/venues/1924209,Openair Val Lumnezia,Chur,CH-7145,,Switzerland,46.70783,9.1678,,
/venues/3034339,Openair-gelände,Chur,7145,,Switzerland,46.70783,9.1678,,
/venues/2846953,Hessel Espace Culturel,Lausanne,1350,Rue Davall 3,Switzerland,46.72302,6.53273,https://www.hesselespaceculturel.ch/,/venues/3800434
/venues/3800434,Hessel Espace Culturel,Yverdon-Les-Bains,1350 Orbe,"Hessel Espace Culturel, Rue Davall 3",Switzerland,46.72302,6.53273,,X
/venues/3665564,Hotel Schweizerhof,Chur,7078,,Switzerland,46.726,9.55775,,
/venues/3665574,Guarda Val,Chur,7078,,Switzerland,46.726,9.55775,,
/venues/4011834,Grandhotel Giessbach,Brienz,3855,,Switzerland,46.72634,8.05346,,
/venues/2837663,Brienzersee Rockfestival,Brienz,3855,Postfach,Switzerland,46.72634,8.05346,http://www.brienzerseerockfestival.ch,
/venues/4255884,Zentrum der Einheit,Brienz,3855,,Switzerland,46.72634,8.05346,,
/venues/2732323,Parkplatz Fadail,Chur,7078,,Switzerland,46.7283,9.54128,,
/venues/3411589,Eichhörnliwald Lenzerheide,Chur,7078,,Switzerland,46.7283,9.54128,,
/venues/3725524,Radio RNV,Lausanne,,,Switzerland,46.72933,6.53236,,
/venues/3173639,Château de Corcelles-sur-Chavornay,Lausanne,,,Switzerland,46.72933,6.53236,http://www.chateaudecorcelles.ch/Chateau_de_Corcelles/Home.html,
/venues/4367958,Halle des Fêtes,Lausanne,1337,,Switzerland,46.72933,6.53236,,
/venues/4370222,"Khal'Fest, Vallorbe (VD)",Lausanne,1337,Rue des Fontaines 12,Switzerland,46.72933,6.53236,https://www.tempslibre.ch/vaud/concerts/407937-silver-dust-at-khal-fest-vallorbe-vd,
/venues/4180984,Crest'ota,Chur,7078,Dieschen seura 7,Switzerland,46.73358,9.5606,,
/venues/4377268,Berggasthaus Crest'ota,Obervaz,7078,Dieschen seura 7,Switzerland,46.73358,9.5606,,
/venues/3815394,Schloss Oberhofen,Bern,3653,Oberhofen am Thunersee,Switzerland,46.73533,7.67619,https://www.schlossoberhofen.ch,
/venues/3815399,Haus der Musik Oberhofen,Bern,3653,,Switzerland,46.73533,7.67619,http://www.matter-stiftung.ch,
/venues/1483203,Schadausaal (kkthun),Bern,3504,Seestrasse 68,Switzerland,46.74324,7.62953,,/venues/1562518
/venues/2732298,"Kk Thun, Lachensaal",Bern,3601,Seestrasse 68,Switzerland,46.74324,7.62953,,/venues/1562518
/venues/1231906,Lachensaal (kkthun),Bern,3604,Seestrasse 68,Switzerland,46.74324,7.62953,,/venues/1562518
/venues/2960663,Thunfest,Bern,,,Switzerland,46.74843,7.6263,,
/venues/2919693,Eventfabrik Thun,Bern,,,Switzerland,46.74843,7.6263,,
/venues/2761223,Schadau Park,Bern,,,Switzerland,46.74843,7.6263,,
/venues/2943458,Gleiswerk,Bern,3600,Seestrasse 14,Switzerland,46.75142,7.63312,,X
/venues/2974473,Gleiswerk Die Eventfabrik,Bern,3600,Seestrasse 14,Switzerland,46.75142,7.63312,,/venues/2943458
/venues/1303006,N8stern Disco-club,Bern,3600,Seestrasse 14,Switzerland,46.75142,7.63312,,
/venues/1562518,Kkthun,Bern,3600,,Switzerland,46.75352,7.62244,,X
/venues/4299429,Generationenfestival,Bern,3600,,Switzerland,46.75352,7.62244,https://www.generationentandem.ch/generationenfestival/,
/venues/4256659,Thuner Hauptgassenfest,Bern,3600,,Switzerland,46.75352,7.62244,,
/venues/3329834,Berner Literaturfest Thun,Bern,3600,,Switzerland,46.75352,7.62244,http://www.berner-literaturfest.ch/,
/venues/3766349,Sherlock Lounge Meiringen,Brienz,,,Switzerland,46.75415,8.03169,http://sherlock-lounge.ch,
/venues/3549004,Judihui Festival,Brienz,,,Switzerland,46.75415,8.03169,,
/venues/3292009,Kick Down Bar,Brienz,,,Switzerland,46.75415,8.03169,,
/venues/4138844,Vamp Club,Bern,3600,,Switzerland,46.75799,7.62799,https://www.vampclub.ch/de/,
/venues/3565709,Streetsoccer Turnier,Bern,,,Switzerland,46.75799,7.62799,,
/venues/3511639,House Show,Bern,,,Switzerland,46.75799,7.62799,,
/venues/3331334,REX-Cinema No. 5,Bern,,,Switzerland,46.75799,7.62799,,
/venues/3345194,"Konzertzone Rathaus, Thun",Bern,,,Switzerland,46.75799,7.62799,,
/venues/196798,Mokka,Bern,3600,Allmendstrasse 14,Switzerland,46.75977,7.62386,,/venues/275196
/venues/418871,Café Bar Mokka,Bern,3600,Allmendstrasse 14,Switzerland,46.75977,7.62386,http://www.mokka.ch/,/venues/275196
/venues/275196,Cafe Mokka,Bern,3600,Allmendstrasse 14,Switzerland,46.75977,7.62386,,X
/venues/1630563,Konzepthalle6,Bern,3600,Scheibenstrasse 6,Switzerland,46.76079,7.624,,/venues/2070544
/venues/2070544,Konzepthalle 6,Bern,,Scheibenstrasse 6,Switzerland,46.76079,7.624,,X
/venues/3768624,The Legacy,Bern,3600,Scheibenstrasse 63,Switzerland,46.76132,7.6193,https://www.legacythun.ch/,
/venues/3147264,The Selve,Bern,3600,Scheibenstrasse 63,Switzerland,46.76132,7.6193,,
/venues/4352137,Schüür - Restaurant & Kultur,Bern,3613,Bernstrasse 111,Switzerland,46.77279,7.61665,,X
/venues/4386447,Schüür Restaurant & Kultur,Bern,,Bernstrasse 111,Switzerland,46.77279,7.61665,,/venues/4352137
/venues/419076,Suisse,Yverdon-Les-Bains,,,Switzerland,46.77822,6.64149,,
/venues/419096,Expo 02 Arteplage,Yverdon-Les-Bains,,,Switzerland,46.77822,6.64149,,
/venues/3002544,Fête de la Musique,Yverdon-Les-Bains,,,Switzerland,46.77822,6.64149,,
/venues/3002534,Café Le Tempo,Yverdon-Les-Bains,,,Switzerland,46.77822,6.64149,,
/venues/2905043,Pixelsound Studio,Yverdon-Les-Bains,,,Switzerland,46.77822,6.64149,,
/venues/2905283,Antidote Festival,Yverdon-Les-Bains,,,Switzerland,46.77822,6.64149,,
/venues/926121,Living Room,Yverdon-Les-Bains,,,Switzerland,46.77822,6.64149,,
/venues/3723874,Représentation privée,Yverdon-Les-Bains,,,Switzerland,46.77847,6.64118,,
/venues/3268299,Skate-Park,Yverdon-Les-Bains,,,Switzerland,46.77847,6.64118,,
/venues/3831469,Arosa Electronica Festival,Arosa,,"Dorf, 7050",Switzerland,46.78237,9.67991,,
/venues/3739729,Los Bar,Arosa,,,Switzerland,46.78237,9.67991,,
/venues/3776104,Güterschuppen,Arosa,7050,,Switzerland,46.78237,9.67991,http://www.gueterschuppen-arosa.ch,
/venues/3735969,Diverse Veranstaltungsorte Arosa Kultur,Arosa,7050,,Switzerland,46.78237,9.67991,,
/venues/3967844,Valsana,Arosa,7050,,Switzerland,46.78237,9.67991,,
/venues/3585189,Sport- Und Kongresszentrum,Arosa,7050,,Switzerland,46.78237,9.67991,,
/venues/3385679,Arosa Kultursommer (duo Feat. Andri Perl (lesung)),Arosa,,,Switzerland,46.78237,9.67991,,
/venues/3098884,aifach,Arosa,,,Switzerland,46.78237,9.67991,http://aifach.ch/,
/venues/3647139,Gipfelrestaurant Weisshorn,Arosa,7050,,Switzerland,46.78237,9.67991,,
/venues/3585199,Strandbad Untersee,Arosa,7050,,Switzerland,46.78237,9.67991,,
/venues/3628779,Arosa Platz,Arosa,7050,,Switzerland,46.78237,9.67991,,
/venues/3459129,Kursaal Arosa,Arosa,7050,Poststrasse,Switzerland,46.78286,9.68168,,
/venues/3459124,Arosa Kulm Hotel & Alpin Spa,Arosa,7050,Poststrasse,Switzerland,46.78286,9.68168,,
/venues/3459134,Ruobstei Arosa,Arosa,7050,Poststrasse,Switzerland,46.78286,9.68168,,
/venues/3459094,Ev. Dorfkirche,Arosa,7050,Poststrasse,Switzerland,46.78286,9.68168,,
/venues/3735309,Kongresssaal Arosa,Arosa,7050,Poststrasse,Switzerland,46.78297,9.68221,,
/venues/3874414,Café Weber,Arosa,7050,Poststrasse,Switzerland,46.78297,9.68221,,
/venues/1564848,Bar Bolgenschanze,Davos,7270,Skistrasse 1,Switzerland,46.79328,9.82472,,
/venues/1647433,Bolgenareal,Davos,7270,Skistrasse 1,Switzerland,46.79328,9.82472,,
/venues/4364971,Platzhirsch,Davos,7270,Promenade 63,Switzerland,46.79636,9.82137,http://www.platzhirschclub-davos.com/,
/venues/4374292,Tonic Bar / Hotel Europe,Davos,7270 Davos Platz,Promenade 63,Switzerland,46.79636,9.82137,,
/venues/3846919,Hard Rock Hotel,Davos,7270,Tobelmühlestrasse 2,Switzerland,46.7971,9.82306,https://www.hardrockhotels.com/davos/,
/venues/4108754,Chapel Hard Rock Hotel,Davos,7270,Tobelmühlestrasse 2,Switzerland,46.7971,9.82306,http://www.songbirdfestival.ch/de/,
/venues/1971409,Kongresszentrum Davos,Davos,7270,Talstrasse 41,Switzerland,46.79759,9.82728,,
/venues/2076449,Fanzelt Beim Eisstadion,Davos,7270,Talstraße 41,Switzerland,46.79759,9.82728,,
/venues/2948593,La Coutellerie,Fribourg,,,Switzerland,46.80167,7.14557,,
/venues/2998854,Festi'Cheyres,Fribourg,,,Switzerland,46.80167,7.14557,,
/venues/2007659,le tunnel fribourg,Fribourg,,,Switzerland,46.80167,7.14557,http://www.cafeletunnel.ch/,
/venues/3083309,Excalibar Taverne,Fribourg,,,Switzerland,46.80167,7.14557,,
/venues/2951108,Cafè du Thèâtre de la Marionnette,Fribourg,,,Switzerland,46.80167,7.14557,,
/venues/2611938,La Fonderie 11,Fribourg,,,Switzerland,46.80167,7.14557,,
/venues/3725774,Montana Bar,Davos,,,Switzerland,46.80275,9.83597,,
/venues/3484754,Cava,Davos,,,Switzerland,46.80275,9.83597,,
/venues/3280219,Temple De Fribourg,Fribourg,1700,Rue de Romont,Switzerland,46.80443,7.15429,,
/venues/3623764,Eglise Evangelique-reformee,Fribourg,1700,Rue de Romont,Switzerland,46.80443,7.15429,,
/venues/2619258,Les Georges Festival,Fribourg,1700,Place Georges Python,Switzerland,46.80467,7.15637,http://www.lesgeorges.ch/fr,
/venues/3061724,Festival Brasseries Artisanales Fribourg,Fribourg,1700,Place Python,Switzerland,46.80467,7.15637,,
/venues/3591384,La Tour Vagabonde,Fribourg,,,Switzerland,46.80648,7.16197,,
/venues/96258,Place George-Python,Fribourg,1700,,Switzerland,46.80648,7.16197,,
/venues/4366026,FC Semsales,Fribourg,1623,Case postale 2,Switzerland,46.80648,7.16197,http://fcsemsales.ch/manisfestations-2013/,
/venues/3451694,Théâtre Crapouille,Fribourg,1701 Fribourg,Case postale 333,Switzerland,46.80648,7.16197,http://www.crapouille.ch/infos-generales/,
/venues/3718879,Indy Bar,St. Gallen,,,Switzerland,46.80916,9.26078,,
/venues/3466659,rockresort,St. Gallen,,,Switzerland,46.80916,9.26078,,
/venues/3766274,Indie Bar,St. Gallen,,,Switzerland,46.80916,9.26078,,
/venues/2043554,Equilibre - La Spirale,Fribourg,1700,,Switzerland,46.80978,7.16684,,
/venues/1643123,Halle Des Fetes,Fribourg,1700,,Switzerland,46.80978,7.16684,,
/venues/4338930,Bahnhof Fribourg,Fribourg,1700,,Switzerland,46.80978,7.16684,https://www.sbb.ch/,
/venues/3946419,Cyclo Café,Fribourg,1700,,Switzerland,46.80978,7.16684,,
/venues/2870063,Grand-places,Fribourg,1700,,Switzerland,46.80978,7.16684,,
/venues/1311656,Box Davos,Davos,CH-7260,Bahnhofstrasse 19,Switzerland,46.81178,9.84321,,/venues/3769164
/venues/3769164,Box,Davos,7260,Bahnhofstrasse 19,Switzerland,46.81178,9.84321,http://www.boxdavos.ch/,X
/venues/4095624,Mehrzweckanlagen Pöschen,Schwarzenburg,3150,Freiburgstrasse 100,Switzerland,46.81497,7.32612,http://www.altjahrswoche.ch,/venues/2335274
/venues/2335274,Pöschensaal,Schwarzenburg,3150,Freiburgstrasse 100,Switzerland,46.81497,7.32612,,X
/venues/2929448,Gasthaus Grünenwald,Luzern,,,Switzerland,46.81993,8.40699,,/venues/2794028
/venues/2794028,Restaurant Grünenwald,Luzern,,,Switzerland,46.81993,8.40699,,X
/venues/3515499,The Yucatan,Luzern,,,Switzerland,46.82003,8.40699,,
/venues/3141324,Gletscherspalte,Luzern,,,Switzerland,46.82003,8.40699,,
/venues/3632079,Berghotel Trübsee,Luzern,,,Switzerland,46.82003,8.40699,,
/venues/4112649,The Hide Hotel Flims,Chur,CH-7017 Flims,Via Nova 80,Switzerland,46.83376,9.28232,https://www.thehideflims.ch/en,
/venues/4297524,La Fabrica Flims,Chur,7017,Via Nova 80,Switzerland,46.83376,9.28232,https://www.lafabricaflims.ch/,
/venues/1238491,Eventhalle,Erstfeld,6472,Breiteli 22/24,Switzerland,46.8342,8.64071,,
/venues/417871,Transilvania,Erstfeld,6472,Breiteli 22/24,Switzerland,46.8342,8.64071,,
/venues/4097804,Hotel Alpina,Chur,7250,,Switzerland,46.83902,9.95884,,
/venues/4097814,Ref. Kirche St. Jakob,Chur,7250,,Switzerland,46.83902,9.95884,,
/venues/3649279,"ACP Garage Club, Giswil",Luzern,6074,"Industriestrasse 38, Giswil",Switzerland,46.84328,8.18219,http://www.lex-power.ch,
/venues/3725779,Garage Club,Bern,6074,Industriestrasse 38,Switzerland,46.84328,8.18219,http://www.lex-power.ch,
/venues/59278,Palazzo Chur,Chur,7000,Seilerbahnweg 9,Switzerland,46.84694,9.52747,http://www.palazzochur.ch,
/venues/4242244,Loucy,Chur,7000,Seilerbahnweg 9,Switzerland,46.84694,9.52747,,
/venues/3408869,Palazzo Beat Club,Chur,7007,Seilerbahnweg 7,Switzerland,46.84728,9.52713,,X
/venues/3705064,Palazzo Bowling & Beat Club,Chur,7007,Seilerbahnweg 7,Switzerland,46.84728,9.52713,,/venues/3408869
/venues/4237939,8x15 (Arcas Rock),Chur,7000,Arcas,Switzerland,46.84795,9.53171,https://www.srf.ch/play/tv/sendung/8x15-?id=c5a89422-4580-0001-4f24-1889dc30d730,/venues/4315914
/venues/4315914,Arcas,Chur,7000,Arcas,Switzerland,46.84795,9.53171,,X
/venues/1088946,Marsoel,Chur,7000,Süsswinkelgasse 25,Switzerland,46.84823,9.53384,http://www.weeklyjazz.ch,X
/venues/4347321,"Saal Marsöl, Süsswinkelgasse 25",Chur,7000,Süsswinkelgasse 25,Switzerland,46.84823,9.53384,,/venues/1088946
/venues/4379030,Marsol Die Bar,Chur,7000,Süsswinkelgasse 25,Switzerland,46.84823,9.53384,https://www.jazzchur.ch/,/venues/1088946
/venues/417891,Estivale Open Air,Estavayer-Le-Lac,,,Switzerland,46.84964,6.84506,http://www.estivale.ch/,
/venues/1028421,Place Nova Friburgo,Estavayer-Le-Lac,1470,Au Bord Du Lac,Switzerland,46.84964,6.84506,,
/venues/3139804,Toms Beer Box,Chur,7000,,Switzerland,46.85078,9.53199,http://www.toms.ch/,
/venues/178438,Safari Beat Club,Chur,,,Switzerland,46.85078,9.53199,,
/venues/3260464,Kino Apollo,Chur,,,Switzerland,46.85078,9.53199,,
/venues/3280784,Roots Bar,Chur,,,Switzerland,46.85078,9.53199,,
/venues/3333624,Felsen Bar,Chur,,,Switzerland,46.85078,9.53199,,
/venues/3172744,Calanda Spring Festival,Chur,,,Switzerland,46.85078,9.53199,https://www.facebook.com/calandaspringfestival/,
/venues/3333644,Cabinett der Visionäre,Chur,,,Switzerland,46.85078,9.53199,,
/venues/3281184,Autra Caussa Open Air Brigels,Chur,,,Switzerland,46.85078,9.53199,,
/venues/2148719,Bahnhofbuffet,Dudingen,3186,Bahnhofplatz 2,Switzerland,46.85099,7.19058,,
/venues/1994794,Hotel Bahnhof,Dudingen,3186,Bahnhofplatz 2,Switzerland,46.85099,7.19058,,
/venues/2560829,Churerfest,Chur,7000,,Switzerland,46.85726,9.52673,,
/venues/2672388,Klibühni (langer Samstag),Chur,7000,Kirchgasse 14,Switzerland,46.85726,9.52673,,
/venues/2853883,Ds Jugi vu Khur,Chur,7000,,Switzerland,46.85726,9.52673,http://www.dsjugivukhur.ch/,
/venues/2451849,"Jungwachtheim, Bad Ragaz",Chur,,Alpenstrasse,Switzerland,46.85726,9.52673,,
/venues/3408609,A Burning Man,Bern,,,Switzerland,46.87468,7.56275,,
/venues/3592144,Flmnächte Münsingen,Bern,,,Switzerland,46.87468,7.56275,http://www.filmnaechte.ch/fn2017/,
/venues/3671239,Keller Kultur,Bern,,,Switzerland,46.87468,7.56275,,
/venues/2917948,El Cannario,Bern,,,Switzerland,46.87965,7.62115,,
/venues/2440234,Chäsi Gyssenstein,Bern,,,Switzerland,46.87965,7.62115,,
/venues/1675408,Tonart Festival,Luzern,,,Switzerland,46.88213,8.64284,http://www.tonartfestival.ch,
/venues/4011269,Gurtnellen,Luzern,,Gurtnellen,Switzerland,46.88213,8.64284,,
/venues/3306119,Greinergässli,Luzern,,,Switzerland,46.88213,8.64284,,
/venues/923131,Gurtenfestival,Bern,3000,Gurten,Switzerland,46.9173,7.44348,,/venues/46069
/venues/46069,Gurten Festival,Bern,3000,Gurten,Switzerland,46.9173,7.44348,https://gurtenfestival.ch,X
/venues/3313349,Aula Alpenquai,Luzern,6000,,Switzerland,46.9176,7.60257,,
/venues/3269524,Gutenberg Club / Lion Club,Luzern,8000,,Switzerland,46.9176,7.60257,,
/venues/2305504,Kulturhof (pfrundschüür),Bern,3098,Muhlernstrasse 11,Switzerland,46.9207,7.41421,,X
/venues/3109469,Kulturhof Schloss Köniz,Bern,3098,Muhlernstrasse 11,Switzerland,46.9207,7.41421,http://www.kulturhof.ch,/venues/3109469
/venues/4228809,Bären Biglen,Bern,3507 Biglen,Bärenstutz 17,Switzerland,46.92827,7.62813,,
/venues/4088939,Bären,Bern,3507,Bärenstutz 17,Switzerland,46.92827,7.62813,http://www.baeren-biglen.ch,
/venues/3153034,"Pantschau Am See, Murten",Bern,3280,Pantschau am See,Switzerland,46.92922,7.12018,,
/venues/3776399,Le Trou,Bern,,,Switzerland,46.92922,7.12018,,
/venues/3350649,Käpt'n Holger,Bern,3550,Dorfstrasse 29,Switzerland,46.93822,7.78797,http://www.kaeptnholger.ch/,
/venues/2533634,Il Caffe,Bern,3550,Dorfstrasse 29,Switzerland,46.93822,7.78797,http://www.ilcaffelangnau.ch,
/venues/93725,Jugend- & Kulturzentrum Gaskessel,Bern,3007,Sandrainstrasse 25,Switzerland,46.93835,7.4424,http://gaskessel.ch.vasco.sui-inter.net/,
/venues/4136399,Gaskessel,Bern,3007,Sandrainstrasse 25,Switzerland,46.93835,7.4424,,
/venues/4416710,Anstadt,Bern,,Gaswerkareal,Switzerland,46.93835,7.4424,,
/venues/2764628,Playground Lounge,Bern,3007,Sandrainstrasse 10,Switzerland,46.94,7.44059,https://www.facebook.com/playgroundlounge,
/venues/1112866,Formbar,Bern,3007,Sandrainstrasse 10,Switzerland,46.94,7.44059,,
/venues/1110011,Tell Blues Club,Bern,3072,Bernstrasse 101,Switzerland,46.94015,7.39108,,/venues/940196
/venues/940196,Tell Saal,Bern,3072,Bernstrasse 101,Switzerland,46.94015,7.39108,,X
/venues/4412404,Bienzgut Bümpliz,Bern,3018,Bernstrasse 77,Switzerland,46.94115,7.39284,,
/venues/4399397,Rock'n Wine,Bern,3018,Bernstrasse 77,Switzerland,46.94115,7.39284,https://www.rock-n-wine.ch/,
/venues/827531,Musigbistrot,Bern,3007,Mühlemattstrasse 48,Switzerland,46.94251,7.43351,http://www.musigbistrot.ch,X
/venues/3231204,Musig Bistrot,Bern,,Mühlemattstrasse 48,Switzerland,46.94251,7.43351,,/venues/3231204
/venues/1215251,Theatersaal Hotel National,Bern,3011,Hirschengraben 24,Switzerland,46.94614,7.43698,,/venues/542011
/venues/542011,Theater National,Bern,3011,Hirschengraben 24,Switzerland,46.94614,7.43698,,X
/venues/1443033,Kultur Casino,Bern,3011,"Herrengasse 25 Bern, Switzerland",Switzerland,46.94689,7.44871,,X
/venues/1159326,Kultur-casino Bern,Bern,3011,Herrengasse 25,Switzerland,46.94689,7.44871,,/venues/1443033
/venues/2612458,"Kulturcasino Bern, Grosser Konzertsaal",Bern,3011,Herrengasse 25,Switzerland,46.94689,7.44871,,/venues/1443033
/venues/2755738,Botanischer Garten,Bern,,,Switzerland,46.94792,7.44461,,
/venues/2531414,Rondel,Bern,,,Switzerland,46.94792,7.44461,,
/venues/2474944,Sonarraum U64,Bern,,,Switzerland,46.94792,7.44461,,
/venues/2533614,wetterhorn hasliberg (hasliberg city),Bern,,,Switzerland,46.94792,7.44461,http://www.wetterhorn-hasliberg.ch/,
/venues/2755408,PROGR,Bern,,,Switzerland,46.94792,7.44461,,X
/venues/2806288,rest bären buchsi,Bern,,,Switzerland,46.94792,7.44461,http://www.baerenbuchsi.ch/,
/venues/3006254,Zaffaraya,Bern,,,Switzerland,46.94792,7.44461,,
/venues/2644403,Jack Club,Bern,,,Switzerland,46.94792,7.44461,,
/venues/2481204,All in - Music Bar,Bern,,,Switzerland,46.94792,7.44461,,
/venues/3077409,Bjørnstrømmeland,Bern,,,Switzerland,46.94792,7.44461,,
/venues/2533599,broncos lodge,Bern,,,Switzerland,46.94792,7.44461,http://www.broncos-mc.ch/pages/logepag.html,
/venues/2468914,Intertaken,Bern,,,Switzerland,46.94792,7.44461,,
/venues/2736838,Badi Lounge,Bern,,,Switzerland,46.94792,7.44461,,
/venues/2712908,Saint Ghetto,Bern,,,Switzerland,46.94792,7.44461,http://dampfzentrale.ch/festival/saint-ghetto-2017/,
/venues/2783838,BM1,Bern,,,Switzerland,46.94792,7.44461,http://www.bm1.ch,
/venues/2605973,32 Tattoo,Bern,,,Switzerland,46.94792,7.44461,,
/venues/2848108,Clubtunes.FM,Bern,,,Switzerland,46.94792,7.44461,,
/venues/2835878,Jazz Werkstatt Bern Festival,Bern,,,Switzerland,46.94792,7.44461,,
/venues/2820958,Mism Records HQ,Bern,,,Switzerland,46.94792,7.44461,http://www.mismrecords.net/,
/venues/2525569,Edge,Bern,,,Switzerland,46.94792,7.44461,,
/venues/2752828,Tour de Lorraine,Bern,,,Switzerland,46.94792,7.44461,,
/venues/2781743,Bern Expo,Bern,,,Switzerland,46.94792,7.44461,,
/venues/3753069,Select Club,Bern,,,Switzerland,46.94797,7.44745,,
/venues/1615003,Private Event,Bern,,3000,Switzerland,46.94797,7.44745,,
/venues/3236004,Stef's Kultur Bistro,Bern,,,Switzerland,46.94797,7.44745,,
/venues/3630089,Peter Flamingo,Bern,,,Switzerland,46.94797,7.44745,,
/venues/3181874,Bjorn's Stubenkonzert,Bern,,,Switzerland,46.94797,7.44745,,
/venues/3370924,Warmbächlibrache,Bern,,,Switzerland,46.94797,7.44745,,
/venues/3420189,H27,Bern,,,Switzerland,46.94797,7.44745,,
/venues/3760774,Gränni,Bern,,,Switzerland,46.94797,7.44745,,
/venues/3562144,Schlosserei,Bern,,,Switzerland,46.94797,7.44745,,
/venues/3388989,O bolles,Bern,,,Switzerland,46.94797,7.44745,,
/venues/3551669,Kiental-Boden,Bern,,,Switzerland,46.94797,7.44745,,
/venues/3184639,Grosser Konzertsaal HKB,Bern,,,Switzerland,46.94797,7.44745,,
/venues/3612014,Café Martha,Bern,,,Switzerland,46.94797,7.44745,,
/venues/3768714,Zoo Studio,Bern,,,Switzerland,46.94797,7.44745,http://www.thezoo.ch/,
/venues/3432779,Chlini Buni,Bern,,,Switzerland,46.94797,7.44745,,
/venues/3572959,"THOUNE,SUISSE",Bern,,,Switzerland,46.94797,7.44745,,
/venues/3743354,Orangerie Elfenau,Bern,,,Switzerland,46.94797,7.44745,,
/venues/3125019,Bistro Prima Luna,Bern,,,Switzerland,46.94797,7.44745,,
/venues/3623094,Katholische Kirche Bern Dreifaltigkeit,Bern,,,Switzerland,46.94797,7.44745,,
/venues/3139464,Fort Fluekiger House Show,Bern,,,Switzerland,46.94797,7.44745,,
/venues/3623089,Reformierte Kirche Muri BE,Bern,,,Switzerland,46.94797,7.44745,,
/venues/3161974,Unit Records Night,Bern,,,Switzerland,46.94797,7.44745,,
/venues/3160819,Bern City Lounge,Bern,,,Switzerland,46.94797,7.44745,,
/venues/3141674,Gare Cff,Bern,,,Switzerland,46.94797,7.44745,,
/venues/3418609,House Concert,Bern,,,Switzerland,46.94797,7.44745,,
/venues/3739734,Propeller Bar,Bern,,,Switzerland,46.94797,7.44745,,
/venues/3489444,Grosse Allmend,Bern,,,Switzerland,46.94797,7.44745,,
/venues/3634804,Lorrainechilbi,Bern,,,Switzerland,46.94797,7.44745,,
/venues/2985573,Berner GenerationenHaus,Bern,3001 Bern,Bahnhofplatz 2,Switzerland,46.94802,7.43962,,
/venues/3343199,MatterFestival @ Burgerspittel,Bern,3000,Bahnhofplatz 2,Switzerland,46.94802,7.43962,http://www.musicline.ch/events.php,
/venues/3964014,Burgerspittel am Bahnhof,Bern,3011,Bahnhofpl. 2,Switzerland,46.94802,7.43962,https://www.derburgerspittel.ch/,
/venues/1575583,Ono,Bern,CH-3011,Kramgasse 6,Switzerland,46.94815,7.45196,http://www.onobern.ch,
/venues/3495209,Theatre ONO,Bern,CH-3011,Kramgasse 6,Switzerland,46.94815,7.45196,http://www.onobern.ch/,
/venues/3282149,MiniBar,Bern,,Schweizerhof-Passage,Switzerland,46.94876,7.44152,,
/venues/2430249,Jack Klub,Bern,3011,Schweizerhofpassage,Switzerland,46.94876,7.44152,,
/venues/3211233,Hotel Schweizerhof,Bern,3001,Bahnhofplatz 11,Switzerland,46.94884,7.44093,,X
/venues/4233244,Hotel Schweizerhof Bern & the Spa,Bern,3001,Bahnhofplatz 11,Switzerland,46.94884,7.44093,,/venues/3211233
/venues/3740689,Passion Club,Bern,3012,Parkterasse 16,Switzerland,46.94935,7.43791,,X
/venues/3241059,Perron Club,Bern,3012,Parkterrasse 16,Switzerland,46.94935,7.43791,,
/venues/2479579,Four Club,Bern,3012,Parkterrasse 16,Switzerland,46.94935,7.43791,http://www.four-club.ch/,
/venues/4169719,Passion Club Bern,Bern,3012,Parkterrasse 16,Switzerland,46.94935,7.43791,,/venues/3740689
/venues/3749944,Karma Club,Bern,3011,Genfergasse 10,Switzerland,46.94965,7.44116,http://www.karmabern.com,
/venues/2783933,Rondel Club Bern,Bern,3011,Genfergasse 10,Switzerland,46.94965,7.44116,,/venues/3059554
/venues/3059554,Rondel Club,Bern,3011,Genferstrasse 10,Switzerland,46.94965,7.44116,,X
/venues/3448954,Retro Bar,Bern,3011,Genfergasse 10,Switzerland,46.94965,7.44116,https://www.facebook.com/pages/Retro-Bar-Bern/668459359866437,
/venues/2572799,"Fraktion Tanz, Rondel Club",Bern,3011,Genfergasse 10,Switzerland,46.94965,7.44116,,
/venues/4233304,City Pub Bern,Bern,3011,Aarbergergasse 30,Switzerland,46.94984,7.44287,,/venues/4361454
/venues/4361454,City Pup,Bern,3010,AARBERGERGASSE 30,Switzerland,46.94984,7.44287,https://citypubbern.ch,X
/venues/603186,Bee-Flat im Progr,Bern,3001,"Atelier 155, Waisenhausplatz 30",Switzerland,46.95016,7.44387,http://www.bee-flat.ch,/venues/2755408
/venues/1182241,Stiftung Progr,Bern,3011,Waisenhausplatz 30,Switzerland,46.95016,7.44387,http://progr.ch,/venues/2755408
/venues/3124129,Progr Hof,Bern,,Waisenhausplatz 30,Switzerland,46.95016,7.44387,,/venues/2755408
/venues/4152839,Progr U62,Bern,3011,Waisenhausplatz 30,Switzerland,46.95023,7.4439,,/venues/2755408
/venues/4353825,Reflector Gallery,Bern,3011,Waisenhauspatz. 30,Switzerland,46.95023,7.4439,,/venues/2755408
/venues/2767953,Turnhalle,Bern,3011,Speichergasse 4,Switzerland,46.95034,7.44298,,X
/venues/2783968,Café-bar Turnhalle,Bern,3011,Speichergasse 4,Switzerland,46.95034,7.44298,,/venues/2767953
/venues/4370231,Stube im Progr,Bern,3011,Speichergasse 4,Switzerland,46.95034,7.44298,,/venues/2755408
/venues/3488519,Sound & Sandwich,Bern,,Fabrikstrasse 2a,Switzerland,46.95236,7.42282,,
/venues/2871183,FabrikBistro,Bern,,Fabrikstrasse 2a,Switzerland,46.95236,7.42282,,
/venues/3594614,"Frauenraum, Reitschule",Bern,,Neubrückstr. 8,Switzerland,46.95293,7.44038,http://www.frauenraum.ch,/venues/101173
/venues/4054874,Reitschule Kino,Bern,3012,Neubrückstrasse 8,Switzerland,46.95293,7.44038,http://www.kino.reitschule.ch/reitschule/kino/,/venues/101173
/venues/2125964,Rössli Bar,Bern,5053,Reitschule Bern  Neubrückstr. 8,Switzerland,46.95296,7.44066,,
/venues/606371,Dachstock Reithalle,Bern,,Schutzenmatte Neubruckstrasse 8,Switzerland,46.95296,7.44066,,/venues/101173
/venues/4161334,SCHÜTZenhaus,Bern,3011,Schützenmatte,Switzerland,46.95304,7.4412,,
/venues/4359419,Frachter Bar & Restaurant,Bern,3012,Schützenmatt,Switzerland,46.95304,7.4412,https://www.dropbox.com/sh/gjdoz02lngxsfzw/AADJG7FObPIeiCoh-OtrqC4Xa?dl=0,
/venues/101173,Dachstock,Bern,3001,Neubrückstrasse 8,Switzerland,46.95305,7.44016,http://www.dachstock.ch/,X
/venues/950646,Rössli,Bern,3001,Neubrückstrasse 8,Switzerland,46.95305,7.44016,http://www.roessli.be/,
/venues/57178,Reitschule,Bern,3011,Neubrückstrasse 8,Switzerland,46.95305,7.44016,http://www.reitschule.ch/,/venues/101173
/venues/1956239,"Tojo Theater, Reitschule",Bern,3001,Neubrückstrasse 8,Switzerland,46.95305,7.44016,http://www.reitschule.ch/,/venues/101173
/venues/581561,Kursaal Arena,Bern,3013,Kornhausstrasse 3,Switzerland,46.9531,7.44938,,/venues/1112026
/venues/1112026,Kongress & Kursaal Bern,Bern,3000,Kornhausstrasse 3,Switzerland,46.9531,7.44938,,X
/venues/766616,ISC Club,Bern,3012,Neubrückstrasse 10,Switzerland,46.95349,7.43981,http://www.isc-club.ch/programm,X
/venues/3188834,Isc,Bern,3012,Neubrückstrasse 10,Switzerland,46.95349,7.43981,,/venues/766616
/venues/3615099,Bierhübeli Bern,Bern,3012,Neubrückstr. 43,Switzerland,46.95626,7.43782,,
/venues/4274124,Gustav,Bern,3012,Neubrückstrasse 43,Switzerland,46.95626,7.43782,,X
/venues/4382613,Gustav@bierhübeli (kleiner Saal),Bern,3012,Neubrückstrasse 43,Switzerland,46.95626,7.43782,,/venues/4274124
/venues/835141,Stanser Musiktage,Stans,6003,Stans Dorfplatz,Switzerland,46.95719,8.36597,http://www.stansermusiktage.ch,
/venues/4282109,Summer Ferry,Stans,,Beckenried,Switzerland,46.95719,8.36597,,
/venues/1241286,Saal Stanserhorn,Stans,6370,,Switzerland,46.95719,8.36597,,
/venues/3525864,Quai Buochs,Stans,,,Switzerland,46.95719,8.36597,,
/venues/2212769,Stans Dorfplatz,Stans,6370,"Stans, City Center",Switzerland,46.95719,8.36597,,
/venues/3518494,Kapuzinerkloster,Stans,,,Switzerland,46.95719,8.36597,,
/venues/4048584,Turbine,Stans,6074,Giswil,Switzerland,46.95719,8.36597,https://kurtfhunk.jimdofree.com,
/venues/3517369,PANORAMAschneebar Klewenalp,Stans,,,Switzerland,46.95719,8.36597,,
/venues/3607639,Restaurant Stockhütte Emmetten,Stans,,,Switzerland,46.95719,8.36597,,
/venues/4374935,Haus Wyrsch,Stans,6370,,Switzerland,46.95719,8.36597,,
/venues/4374534,Haus Tottikon,Stans,6370,,Switzerland,46.95719,8.36597,,
/venues/4159074,Unteres Beinhaus,Stans,6370,,Switzerland,46.95719,8.36597,,
/venues/462496,La Cappella,Bern,3014,Allmendstrasse 24 3014 Bern,Switzerland,46.95947,7.45184,https://www.la-cappella.ch/de/,X
/venues/621661,La Capella,Bern,,Allmendstrasse 24 3014 Bern,Switzerland,46.95947,7.45184,,/venues/462496
/venues/1141436,"Bea Festhalle Bern, Halle 310",Bern,3000,Mingerstrasse 6,Switzerland,46.95965,7.46775,,
/venues/1613398,Festhalle Bernexpo,Bern,3014,Mingerstrasse 6,Switzerland,46.95965,7.46775,,
/venues/1907933,Bernexpo - Halle 4.1,Bern,3014,Mingerstraße 6,Switzerland,46.9598,7.46817,,/venues/1170106
/venues/1170106,BEA Bern Expo,Bern,3014,Mingerstrasse 6,Switzerland,46.9598,7.46817,,X
/venues/3112134,Bernexpo Halle 4,Bern,3014,Mingerstrasse 6,Switzerland,46.9598,7.46817,,/venues/1170106
/venues/3099824,Zoobar,Bern,3014,Lorrainestrasse 69,Switzerland,46.95985,7.44548,http://www.zoobar.ch,
/venues/2564144,Soon,Bern,3014,Lorrainestrasse 69,Switzerland,46.95985,7.44548,http://www.soon-art.ch/web/,
/venues/836756,Marian's Jazzroom,Bern,3012,Hotel Innere Enge Engestrasse 54,Switzerland,46.96103,7.43941,,/venues/3389884
/venues/2834658,Venue Tba – bern (hotel Innere Enge Or Marians Jazzroom),Bern,3012,Engestrasse 54,Switzerland,46.96103,7.43941,,/venues/3389884
/venues/3389884,Marian's Jazz Club,Bern,3012,Engestrasse 54,Switzerland,46.96103,7.43941,,X
/venues/2879528,Hotel Innere Enge,Bern,3012,Engestrasse 54,Switzerland,46.96103,7.43941,,
/venues/3217933,Myami Club,Bern,3014,Papiermühlestrasse 79,Switzerland,46.96343,7.46576,,
/venues/2537969,Edge Club Wankdorf,Bern,3014,Papiermühlestrasse 79,Switzerland,46.96343,7.46576,,
/venues/4390342,NewGraffiti,Bern,3014,,Switzerland,46.96399,7.46101,,
/venues/3092674,Das Zelt,Bern,3014,,Switzerland,46.96399,7.46101,,
/venues/2883053,Bernexpo Ag,Bern,3014,,Switzerland,46.96399,7.46101,,
/venues/3386759,Spinnerei,Bern,3004,Spinnereiweg 17,Switzerland,46.96876,7.44151,http://kulturspinnerei.ch,
/venues/747186,Via Felsenau,Bern,3004,Spinnereiweg 17,Switzerland,46.96876,7.44151,,
/venues/4139239,Iheimisch,Stans,,Flugfeld Buochs,Switzerland,46.97237,8.39551,,
/venues/4359370,Concert Night Buochs,Stans,6370,Flugplatz Buochs,Switzerland,46.97237,8.39551,https://chatzemuisig.ch/fasnachtseroeffnung-buochs/,
/venues/2819533,Reberhaus,Bern,,Kirchstrasse 9,Switzerland,46.97446,7.49559,,X
/venues/4375248,Reberhaus Bolligen Kultur Raum,Bern,3065,Kirchstrasse 9,Switzerland,46.97446,7.49559,https://www.aulaverein.ch/programm,/venues/2819533
/venues/3347104,Auvernier Jazz Festival,Neuchatel,,,Switzerland,46.97757,6.87692,http://www.auvernierjazz.ch,
/venues/3672044,Caveau de Vigneron,Neuchatel,,,Switzerland,46.97757,6.87692,,
/venues/3672034,Fête Privée,Neuchatel,,,Switzerland,46.97757,6.87692,,
/venues/33268,La Case à Chocs,Neuchatel,2000,Quai Philippe Godet 20,Switzerland,46.98923,6.9218,http://www.case-a-chocs.ch,X
/venues/188313,Queen Kong Club,Neuchatel,2000,Quai Philippe Godet 20,Switzerland,46.98923,6.9218,,
/venues/2880683,Jeunes Rives,Neuchatel,2001,,Switzerland,46.98999,6.92927,,
/venues/3398949,Le Balkkon,Neuchatel,,,Switzerland,46.98999,6.92927,,
/venues/3567269,Kiosk'Art Jeunes-Rives,Neuchatel,,,Switzerland,46.98999,6.92927,,
/venues/3474864,INside BOX,Neuchatel,,,Switzerland,46.98999,6.92927,,
/venues/3301744,Interface,Neuchatel,,,Switzerland,46.98999,6.92927,,
/venues/3333304,Havana,Neuchatel,,,Switzerland,46.98999,6.92927,,
/venues/3926674,Place Du Port,Neuchatel,2000,-,Switzerland,46.98999,6.92927,,
/venues/4400396,"Grande Salle, La Case à Chocs",Neuchatel,2000,,Switzerland,46.98999,6.92927,,/venues/33268
/venues/3525479,TBA Neuchâtel,Neuchatel,,,Switzerland,46.98999,6.92927,,
/venues/2450499,StrassClub,Neuchatel,,,Switzerland,46.99298,6.93193,,
/venues/2582818,La Marée,Neuchatel,,,Switzerland,46.99298,6.93193,,
/venues/3029214,Saars 13,Neuchatel,,,Switzerland,46.99298,6.93193,,
/venues/2536189,Musée d'Ethnographie (MEN),Neuchatel,,,Switzerland,46.99298,6.93193,,
/venues/3013889,Taboo,Neuchatel,,,Switzerland,46.99298,6.93193,,
/venues/3914699,Kultur Im Ort,Chur,7310,,Switzerland,46.99377,9.46552,https://www.kulturimort.ch/,
/venues/4369683,Musiksalon Des Grand Resort,Chur,7310,,Switzerland,46.99377,9.46552,,
/venues/4369681,Evangelische Kirche Bad Ragaz,Chur,7310,,Switzerland,46.99377,9.46552,,
/venues/3332024,Kult-Turm,Luzern,,,Switzerland,46.99546,8.6065,,
/venues/2957773,Kombüse,Luzern,6440 Brunnen SZ,Waldstätterquai 1,Switzerland,46.99546,8.6065,http://www.kombuse.ch,
/venues/4410896,Brunnen Schiffstation,Luzern,6440,,Switzerland,46.99546,8.6065,,
/venues/3286369,Nova Brunnen,Luzern,,,Switzerland,46.99546,8.6065,http://www.bton.ch,
/venues/2585348,Théâtre de la Poudrière,Neuchatel,2000,Quai Ph.-Godet 22,Switzerland,46.9996,6.93441,http://www.theatre-poudriere.ch,
/venues/4419137,Jeunes Rives Neuchâtel,Neuchatel,2000,.,Switzerland,46.9996,6.93441,,
/venues/3537044,Association Kiosk-Art,Neuchatel,2000,,Switzerland,46.9996,6.93441,http://www.kiosk-art.ch/,
/venues/4228799,Altes Rathaus,Gersau,6442 Gersau,Dorfplatz,Switzerland,47.00935,8.52362,,
/venues/4368670,Pfarrkirche St. Marzellus,Gersau,6442,,Switzerland,47.00935,8.52362,,
/venues/3688629,Chilbi Schwyz,Schwyz,,,Switzerland,47.02071,8.65299,,
/venues/3695449,Trubebude,Schwyz,,,Switzerland,47.02071,8.65299,,
/venues/3532959,House Show,Schwyz,,,Switzerland,47.02071,8.65299,,
/venues/2327349,Kantonsschule Kollegium,Schwyz,6430,Kollegiumstrasse 24,Switzerland,47.02457,8.6529,,
/venues/3602474,Kollegiumskirche,Schwyz,6430,Kollegiumsstrasse 24,Switzerland,47.02457,8.6529,,
/venues/3072259,Gaswerk Eventbar,Basel,6423 Seewen,Bahnhofstrasse 180b,Switzerland,47.02978,8.6291,,/venues/3399244
/venues/3399244,Gaswerk Eventbar,Schwyz,6423 Seewen,Bahnhofstrasse 180b,Switzerland,47.02978,8.6291,https://www.gaswerk-eventbar.ch/,X
/venues/4393646,Rest. Grossboden,Schwyz,6430,,Switzerland,47.03264,8.66928,,
/venues/4210604,British Bastards,Schwyz,6430,,Switzerland,47.03264,8.66928,http://www.bastards.ch/,
/venues/1943654,Mad Wallstreet,Luzern,,,Switzerland,47.03354,8.28183,,
/venues/418241,Cinema Scala,Luzern,,,Switzerland,47.03354,8.28183,,
/venues/1910393,Sudpol Club Gallery,Luzern,,,Switzerland,47.03354,8.28183,,
/venues/3552429,Summer Sounds Weggis,Luzern,6353,,Switzerland,47.03376,8.45876,,
/venues/4191344,Seebühne / Rosenfest Weggis,Luzern,6353,,Switzerland,47.03376,8.45876,,
/venues/2387639,Messe Luzern - Halle 1,Luzern,6005,Horwerstr. 87,Switzerland,47.03393,8.30517,,/venues/3832779
/venues/3832779,Messehalle,Luzern,6005,Horwerstrasse 87,Switzerland,47.03393,8.30517,,X
/venues/125906,"Dachstock, Reitschule",Bern,3001,Schützenmatte,Switzerland,47.03436,7.31387,http://www.reitschule.ch,/venues/101173
/venues/3981479,Neustadt Lab,Bern,,Schützenmatte,Switzerland,47.03436,7.31387,http://neustadtbern.ch/,
/venues/4274514,Parolanto Eventfabrik,Luzern,6102 Malters,Luzernstrasse 36,Switzerland,47.03627,8.1749,https://www.parolanto.ch,/venues/4299409
/venues/4299409,Parolanto Malters,Luzern,6102,Luzernstrasse 36,Switzerland,47.03627,8.1749,https://www.parolanto.ch/,X
/venues/4172354,Güterschuppen,Zürich,8750,Im Volksgarten,Switzerland,47.03838,9.07149,http://www.facebook.com/gleis1glarus/,
/venues/4392609,Volksgarten,Zürich,8750,Im Volksgarten,Switzerland,47.03838,9.07149,,
/venues/3086114,The Club - Glarus,Zürich,,,Switzerland,47.04043,9.06721,,
/venues/2830838,Holenstein,Zürich,,,Switzerland,47.04043,9.06721,,
/venues/4305779,Stadtkirche,Zürich,8750,,Switzerland,47.04112,9.0679,,
/venues/3840204,Rathaus- und Cityplatz,Zürich,,8750,Switzerland,47.04112,9.0679,,
/venues/3523654,Eiszentrum - Aussenfeld,Luzern,6005,Eisfeldstrasse 2,Switzerland,47.04115,8.32138,,
/venues/3438714,Regionales Eiszentrum Luzern,Luzern,6005,Eisfeldstrasse 2,Switzerland,47.04115,8.32138,,
/venues/364226,Endlager,Lyss,,,Switzerland,47.04311,7.27338,,
/venues/386541,Open Air Kallnachkanal,Lyss,,,Switzerland,47.04311,7.27338,,
/venues/33266,Schüür,Luzern,6005,Tribschenstrasse 1,Switzerland,47.04458,8.31125,http://www.schuur.ch,X
/venues/567551,Konzerthaus Schüür,Luzern,6005,Tribschenstrasse 1,Switzerland,47.04458,8.31125,http://www.schuur.ch,/venues/33266
/venues/3197833,VersuchsStollen Hagerbach,Mels,,,Switzerland,47.04785,9.44061,,
/venues/4372957,Rathausplatz Walenstadt,Mels,8880,Rathausplatz,Switzerland,47.04785,9.44061,,
/venues/4366614,Theaterplatz,Luzern,6003,,Switzerland,47.04846,8.292,,
/venues/841906,Théâtre La Fourmi,Luzern,6003,,Switzerland,47.04846,8.292,,
/venues/2465959,Unknown Venue,Luzern,6003,,Switzerland,47.04846,8.292,,
/venues/2160729,Suite Lounge,Luzern,6003,,Switzerland,47.04846,8.292,,
/venues/2800958,Seebecken,Luzern,6006,,Switzerland,47.0494,8.34626,,
/venues/3157179,Churchill-quai (zwischen Lido Und Seeburg),Luzern,6006,,Switzerland,47.0494,8.34626,,
/venues/2732433,Lido,Luzern,6006,,Switzerland,47.0494,8.34626,,
/venues/2809878,Rok Klub,Luzern,,,Switzerland,47.05004,8.30893,,
/venues/2665313,Lucerne Festival,Luzern,,,Switzerland,47.05004,8.30893,http://www.lucernefestival.ch/de/,
/venues/2579513,Industrie Keller,Luzern,,,Switzerland,47.05004,8.30893,,
/venues/1857008,KKL Seebar,Luzern,,,Switzerland,47.05004,8.30893,,/venues/33304
/venues/2767008,Hotel Villa Honegg,Luzern,,,Switzerland,47.05004,8.30893,,
/venues/3040064,Club Schuur,Luzern,,,Switzerland,47.05004,8.30893,,
/venues/2845828,Kult-Turm,Luzern,,,Switzerland,47.05004,8.30893,http://www.kult-turm.ch,
/venues/2686648,Kulturraum Ruswil,Luzern,,,Switzerland,47.05004,8.30893,,
/venues/2811078,Palace Luzern,Luzern,,,Switzerland,47.05004,8.30893,,
/venues/2619338,Grand Ballroom,Luzern,,,Switzerland,47.05004,8.30893,,
/venues/2701283,Secret Show,Luzern,,,Switzerland,47.05004,8.30893,,
/venues/2811098,The Hotel,Luzern,,,Switzerland,47.05004,8.30893,,
/venues/3017419,Blueballs Festival,Luzern,,,Switzerland,47.05004,8.30893,,/venues/1016706
/venues/2604313,Funk Am See,Luzern,,Lidowiese,Switzerland,47.05004,8.30893,,
/venues/3520584,Phrontistery,Luzern,,,Switzerland,47.05017,8.30931,,
/venues/3745819,Parterre Klub,Luzern,,,Switzerland,47.05017,8.30931,,
/venues/3515034,Neubad Club,Luzern,,,Switzerland,47.05017,8.30931,,
/venues/3460134,Kultur i de Braui Hochdorf,Luzern,,,Switzerland,47.05017,8.30931,,
/venues/3166004,Rok Club,Luzern,,,Switzerland,47.05017,8.30931,,
/venues/3369564,Glücklich Festival,Luzern,,Multiple venues,Switzerland,47.05017,8.30931,,
/venues/3747694,Europaplatz,Luzern,,,Switzerland,47.05017,8.30931,,
/venues/3725529,Die Kneipe,Luzern,,,Switzerland,47.05017,8.30931,,
/venues/3409149,Wohnzimmerkonzert,Luzern,,,Switzerland,47.05017,8.30931,,
/venues/3407924,Martinskeller Adligenswil,Luzern,,,Switzerland,47.05017,8.30931,,
/venues/3527559,"RUSWIL, Tropfstei am Märtplatz",Luzern,,,Switzerland,47.05017,8.30931,,
/venues/3106929,Konzeerthaus,Luzern,,,Switzerland,47.05017,8.30931,,
/venues/3548994,TBA,Luzern,,,Switzerland,47.05017,8.30931,,
/venues/3463139,Im Grüebli,Luzern,,,Switzerland,47.05017,8.30931,,
/venues/3174259,Jazz/leitung Institute,Luzern,,,Switzerland,47.05017,8.30931,,
/venues/3518514,Restaurant Crazy Cactus,Luzern,,,Switzerland,47.05017,8.30931,,
/venues/3436599,Hotel Pilatus Kulm,Luzern,,,Switzerland,47.05017,8.30931,http://www.pilatus.ch/,
/venues/4397948,Stream Aus Dem Planetarium,Luzern,6000,,Switzerland,47.05017,8.30931,,
/venues/3133199,Allmend Festival,Luzern,,,Switzerland,47.05017,8.30931,,
/venues/3528224,Blue Bar,Luzern,,,Switzerland,47.05017,8.30931,http://www.blue-luzern.ch,
/venues/1827243,Luzern Schwanenplatz,Luzern,6000,,Switzerland,47.05017,8.30931,,
/venues/4397967,Stream Aus Dem Verkehrshaus,Luzern,6000,,Switzerland,47.05017,8.30931,,
/venues/4343654,WERFT,Luzern,6020,Bahnhofplatz 1,Switzerland,47.05026,8.31031,http://www.musikwerft.ch,
/venues/4329614,Magazin,Luzern,6020,Bahnhofplatz 1,Switzerland,47.05026,8.31031,https://www.facebook.com/magazinluzern/,
/venues/33304,KKL Luzern,Luzern,6005,Europaplatz 1,Switzerland,47.05032,8.31183,http://www.kkl-luzern.ch,X
/venues/1808203,KKL Luzernersaal,Luzern,6005,Europa Platz 1,Switzerland,47.05032,8.31183,http://www.kkl-luzern.ch,/venues/33304
/venues/1016706,Blue Balls Festival,Luzern,,"Europaplatz 1, CH-6005",Switzerland,47.05032,8.31183,http://www.blueballs.ch,X
/venues/3325879,"Kkl Luzern, Konzertsaal",Luzern,,"Europaplatz 1, 6005 Luzern",Switzerland,47.05032,8.31183,,/venues/33304
/venues/1857018,KKL Konzertsaal,Luzern,6005,Europaplatz 1,Switzerland,47.05032,8.31183,,/venues/33304
/venues/3751659,Kultur- und Kongresszentrum Luzern,Luzern,6005,Europaplatz 1,Switzerland,47.05032,8.31183,https://www.kkl-luzern.ch/en/,/venues/33304
/venues/3526799,Culture and Congress Centre,Luzern,,Europaplatz 1,Switzerland,47.05032,8.31183,,/venues/33304
/venues/2536924,Bettstatt B&B,Luzern,,,Switzerland,47.05033,8.31561,http://bettstatt.ch/,
/venues/2449414,Bürgenstock Chapel,Luzern,,,Switzerland,47.05033,8.31561,http://www.buergenstock-momente.ch/index.html,
/venues/2600483,Luzerner Theater,Luzern,6003,Theaterstrasse 2,Switzerland,47.05062,8.3062,http://www.luzernertheater.ch/,X
/venues/3882544,Box Luzerner Theater,Luzern,6003,Theaterstrasse 2,Switzerland,47.05062,8.3062,,/venues/2600483
/venues/1910463,Rock Altitude Festival,La Chaux De Fonds,2400,Route du Communal 3,Switzerland,47.05074,6.75758,,
/venues/2927348,Patinoire,La Chaux De Fonds,2400,3 COMMUNAL,Switzerland,47.05074,6.75758,,
/venues/3287419,Le Locle Openair,La Chaux De Fonds,,Route du Communal 3,Switzerland,47.05074,6.75758,,
/venues/3727634,Loco Bar,Luzern,6003,Baselstr. 27,Switzerland,47.05238,8.29627,http://www.loco-bar.ch,
/venues/3465359,Kaffee Kind,Luzern,,Baselstraße 27,Switzerland,47.05238,8.29627,http://www.kaffee-kind.ch/,
/venues/4273599,Verkehrshaus Planetarium,Luzern,6006,Lidostrasse 5,Switzerland,47.05249,8.33572,,X
/venues/4389595,Verkehrshaus der Schweiz,Luzern,,Lidostrasse 5,Switzerland,47.05249,8.33572,,/venues/4273599
/venues/1560253,Bar Berlin,Luzern,6003,Laedelistr. 6,Switzerland,47.0537,8.29471,,
/venues/3807524,el Barrio,Luzern,6003,Lädelistrasse 6,Switzerland,47.0537,8.29471,https://elbarrio.ch/,
/venues/3902964,Sommernachtsträume Burgdorf,Burgdorf,3400,,Switzerland,47.05385,7.61758,http://sommernachtstraeume.ch/,
/venues/3644844,Rockwall Under The Bridge,Burgdorf,3400,,Switzerland,47.05385,7.61758,,
/venues/953141,Casineum Grand Casino,Luzern,6006,Haldenstrasse 6,Switzerland,47.05504,8.31707,,/venues/2730788
/venues/2730788,Grand Casino Luzern,Luzern,6006,Haldenstr.6,Switzerland,47.05504,8.31707,,X
/venues/1983384,Casineum Club,Luzern,6006,Haldenstrasse 6,Switzerland,47.05504,8.31707,,/venues/2730788
/venues/2773408,La Grange,La Chaux De Fonds,2400,Avenue du Technicum 1,Switzerland,47.05592,6.74703,http://www.grange-casino.ch/,
/venues/2280109,Casino Théâtre,La Chaux De Fonds,2400,Av. du Technicum 1,Switzerland,47.05592,6.74703,http://www.grange-casino.ch/,
/venues/1984889,Kino Bourbaki,Luzern,6004,Löwenplatz 11,Switzerland,47.05693,8.31125,,X
/venues/4391170,STATTKINO Bourbaki Panorama,Luzern,6004,Löwenplatz 11,Switzerland,47.05693,8.31125,https://stattkino.ch,/venues/1984889
/venues/2311074,zone pietonne open air,Bern,,,Switzerland,47.0632,7.09126,http://www.lazonepietonne.ch/,
/venues/3273819,Café Théâtre de la Tour de Rive,Bern,,,Switzerland,47.0632,7.09126,,
/venues/3872059,Viscose club,Luzern,6020,Emmenweidstrasse 20,Switzerland,47.07361,8.27461,https://www.facebook.com/pg/viscoseclub/,X
/venues/972626,Viscose Eventbar,Luzern,6020,Emmenweidstrasse 20,Switzerland,47.07361,8.27461,http://www.viscose-eventbar.ch/,/venues/3872059
/venues/3911989,Seebühne,Luzern,6403,,Switzerland,47.07385,8.44665,,
/venues/1929714,Widder Saal,Luzern,6403,,Switzerland,47.07385,8.44665,,
/venues/4258939,Nf49 Am Seetalplatz,Luzern,6020,Bahnhofplatz 1,Switzerland,47.07718,8.26741,,
/venues/4052784,Le Théâtre - Emmen,Luzern,6020,,Switzerland,47.07718,8.26741,,
/venues/2854308,Theatersaal Gersag,Luzern,6020,Rüeggisingerstrasse 20a,Switzerland,47.0778,8.27853,,
/venues/2575093,Gersag,Luzern,6020,Rüeggisingerstrasse 20a,Switzerland,47.0778,8.27853,,
/venues/417851,Open Air,Luzern,,,Switzerland,47.0796,8.28123,,
/venues/417861,Bau 604,Luzern,,,Switzerland,47.0796,8.28123,,
/venues/388116,Kulturfabrik (KUFA) Lyss,Lyss,3250,Werdtstrasse 17,Switzerland,47.08065,7.29443,,
/venues/1987464,Kufa Avec Adam Port,Lyss,3250,Werdtstrasse 17,Switzerland,47.08065,7.29443,,
/venues/1895523,L'entre-deux Café,La Chaux De Fonds,2300,rue Jaquet-Droz 27,Switzerland,47.10105,6.82935,,X
/venues/3776069,Le'Entre Deux,La Chaux De Fonds,,Rue Jaquet-Droz 27,Switzerland,47.10105,6.82935,,/venues/1895523
/venues/3114084,La scierie,La Chaux De Fonds,,,Switzerland,47.10349,6.83278,https://www.facebook.com/2300lascierie,
/venues/3343094,L'Heure Bleue,La Chaux De Fonds,,,Switzerland,47.10349,6.83278,,
/venues/2936273,Cinéma ABC,La Chaux De Fonds,2300,"11, rue du Coq.",Switzerland,47.10556,6.82981,http://www.abc-culture.ch,
/venues/2936268,Temple Allemand,La Chaux De Fonds,2300,"11, rue du Coq.",Switzerland,47.10556,6.82981,http://www.abc-culture.ch,
/venues/3085514,Kloster,Einsiedeln,8840,,Switzerland,47.11093,8.73564,,
/venues/2610633,Einsiedler Musikfest,Einsiedeln,8840,,Switzerland,47.11093,8.73564,,
/venues/2395439,Braderie,La Chaux De Fonds,2300,,Switzerland,47.11768,6.84057,,
/venues/1136926,Petit Paris,La Chaux De Fonds,2300,,Switzerland,47.11768,6.84057,,
/venues/4393132,Jugendkirche Einsiedeln,Einsiedeln,8840 Einsiedeln,Eisenbahnstrasse 22,Switzerland,47.12855,8.74982,,
/venues/4393131,Klosterplatz Einsiedeln,Einsiedeln,8840 Einsiedeln,Eisenbahnstrasse 22,Switzerland,47.12855,8.74982,,
/venues/4406919,Summer Now ExpoPark Nidau,Lyss,2560,Uferweg,Switzerland,47.12977,7.23788,https://www.summernow.ch,/venues/4415890
/venues/4415890,Sommer Now,Lyss,2560,Uferweg,Switzerland,47.12977,7.23788,https://www.summernow.ch/home/de/summer-now,X
/venues/3620169,Mauz,Einsiedeln,8840,Zürichstrasse 38,Switzerland,47.13128,8.74523,,
/venues/4393645,TC Crows,Einsiedeln,8840 Einsiedeln,Zürichstrasse 38,Switzerland,47.13128,8.74523,https://www.tc-crows.ch/ueber-uns/index.php,
/venues/3054079,Nebia,Biel,2502,Rue Thomas-Wyttenbach  4,Switzerland,47.13368,7.24488,http://www.nebia.ch,
/venues/1785898,Kino Theater Palace,Biel,2502,Thomas-wyttenbach-strasse 4,Switzerland,47.13368,7.24488,,
/venues/986136,Abendrundfahrt Auf Dem Bielersee,Biel,2500,,Switzerland,47.13678,7.24679,,
/venues/1674553,Braderie Zentralplatz Bühne,Biel,2500,-,Switzerland,47.13678,7.24679,http://www.bielerbraderie.ch,
/venues/3302399,Expo-park Nidau,Biel,,,Switzerland,47.13678,7.24679,,
/venues/3133374,State Club,Biel,,,Switzerland,47.13678,7.24679,,
/venues/3140914,Cargo Club,Biel,,,Switzerland,47.13678,7.24679,,X
/venues/3481719,Grundlos Bar,Biel,,,Switzerland,47.13678,7.24679,,
/venues/1613393,"Narrena Festzelt, Guisanplatz",Biel,2500,,Switzerland,47.13678,7.24679,,
/venues/3116359,Chez Voisins,Biel,,,Switzerland,47.13678,7.24679,,
/venues/3341084,Ping Pong Festival,Biel,,,Switzerland,47.13678,7.24679,,
/venues/3108119,Bibliothek,Biel,,,Switzerland,47.13678,7.24679,,
/venues/2455884,Cargo Club Biel,Biel,2503,Mattenstrasse 165,Switzerland,47.13834,7.25963,,/venues/3140914
/venues/1655273,Passion Club,Biel,2503,Mattenstrasse 165,Switzerland,47.13834,7.25963,,
/venues/1176071,Viva Night Club,Biel,2503,Mattenstrasse 165,Switzerland,47.13834,7.25963,,
/venues/3317839,Omega beach,Biel,2503,Mattenstrasse 165,Switzerland,47.13834,7.25963,,
/venues/2599708,Römerareal,Biel,2552,,Switzerland,47.13899,7.30681,,
/venues/2670923,Pfadi-folk-fest 2014,Biel,,,Switzerland,47.13899,7.30681,,
/venues/2481544,living room concert series,Biel,,,Switzerland,47.14019,7.24377,,
/venues/2731918,Centre Pasquart,Biel,,,Switzerland,47.14019,7.24377,,
/venues/2661938,X-Project,Biel,,,Switzerland,47.14019,7.24377,,
/venues/2763668,House Show,Biel,,,Switzerland,47.14019,7.24377,,
/venues/2929128,Le Singe,Biel,2502,Untergasse 21,Switzerland,47.1417,7.24703,https://www.lesinge.ch,X
/venues/3194099,le signe,Biel,2502,Untergasse 21,Switzerland,47.1417,7.24703,http://www.lesinge.ch,/venues/2929128
/venues/2812028,Literaturcafé,Biel,2502,Literaturcafé,Switzerland,47.14876,7.24987,,
/venues/3921114,Stade de Gurzelen,Biel,2502,,Switzerland,47.14876,7.24987,,
/venues/1564833,Waschhaus Margrethenhof,Zürich,6275,Margrethenhof 1,Switzerland,47.15265,8.32185,,
/venues/2849778,Pfadijugendhaus,Zürich,6275,,Switzerland,47.15265,8.32185,,
/venues/936341,"Ms Zug, Landsgemeindeplatz",Zug,6300,,Switzerland,47.15583,8.53149,,/venues/3829734
/venues/3275969,Das Zelt,Zug,6300,Stierenmarkplatz,Switzerland,47.15583,8.53149,,
/venues/3829734,Landsgemeindeplatz,Zug,6300,-,Switzerland,47.15583,8.53149,,X
/venues/2701753,Akkordeon Festival Zug,Zug,6300,,Switzerland,47.15583,8.53149,,
/venues/3988134,Seebühne Gerbiplatz,Zug,6300,Gerbiplatz,Switzerland,47.15583,8.53149,,
/venues/474766,Theater Casino Zug,Zug,6300,Artherstrasse 2-4,Switzerland,47.16458,8.5139,http://www.theatercasino.ch,X
/venues/3021539,"Theater Casino Zug, Theatersaal",Zug,6300,Artherstrasse 2-4,Switzerland,47.16458,8.5139,,/venues/474766
/venues/2847078,"Theater Casino Zug, Festsaal",Zug,6300,Artherstrasse 2-4,Switzerland,47.16458,8.5139,,/venues/474766
/venues/3021544,Grosser Casinosaal,Zug,6300,Artherstrasse 2,Switzerland,47.16458,8.5139,,/venues/474766
/venues/551536,Chicago Bar,Zug,,,Switzerland,47.16617,8.51549,,
/venues/126115,Jugendzentrum Zug,Zug,,,Switzerland,47.16617,8.51549,,
/venues/3381719,Victoria Bar,Zug,,,Switzerland,47.16617,8.51549,http://www.victoria-bar.ch/,
/venues/3752339,vieljazzfestival,Zug,,,Switzerland,47.16617,8.51549,http://www.vieljazz.ch,
/venues/3404564,private event,Zug,,,Switzerland,47.16617,8.51549,,
/venues/2958778,Kulturausschluss,Solothurn,,,Switzerland,47.1711,7.57331,http://www.kulturausschuss.ch,
/venues/1629923,Alcatraz,Solothurn,,,Switzerland,47.1711,7.57331,,
/venues/418056,Grunau Restaurant,Solothurn,,,Switzerland,47.1711,7.57331,,
/venues/1296016,Summer Sound,Sursee,6210,,Switzerland,47.17715,8.10436,,
/venues/986336,Märtplatz,Sursee,6210,,Switzerland,47.17715,8.10436,,
/venues/2820618,"Kreuz-saal, Restaurant Steirereck",Cham,6330,Luzernerstrasse 14,Switzerland,47.1801,8.45832,,/venues/936401
/venues/936401,Restaurant Kreuz,Cham,6330,Luzernerstrasse 14,Switzerland,47.1801,8.45832,,X
/venues/559691,Galvanik,Zug,6300,Chamerstrasse 173,Switzerland,47.18133,8.48393,http://www.galvanik-zug.ch/,
/venues/3671769,Viertel vor Fritig,Zug,6300,Chamerstrasse 173,Switzerland,47.18133,8.48393,,
/venues/130232,Industrie 45 (I45),Zug,6302,Industriestrasse 45,Switzerland,47.18222,8.52076,,X
/venues/4166489,I45,Zug,6300,Industriestrasse 45,Switzerland,47.18222,8.52076,,/venues/130232
/venues/3083284,Bar & Pub Festival Tuggen,Eschenbach,8856,Betti 67,Switzerland,47.18563,8.93004,http://www.barundpub.ch,
/venues/4029814,Bandits Club,Schwyz,8856,Betti 67,Switzerland,47.18563,8.93004,,
/venues/4377154,"Koller Events, Luxory",Grenchen,2540,Maienstrasse 6,Switzerland,47.19048,7.40552,,X
/venues/4351247,Koller-event Hall,Grenchen,2540,Maienstrasse 6,Switzerland,47.19048,7.40552,,/venues/4377154
/venues/4280414,Luxory,Grenchen,2540,Maienstrasse 6,Switzerland,47.19048,7.40552,,
/venues/4356248,Alte Mühle,St. Gallen,9473,Müliweg 5,Switzerland,47.20426,9.44063,,X
/venues/4356249,Alte Mühle Gams,St. Gallen,9473 Gams,Müliweg 5,Switzerland,47.20426,9.44063,,/venues/4356248
/venues/2586008,Am Quai,Solothurn,,,Switzerland,47.20866,7.53795,,
/venues/2701478,Kofemehl,Solothurn,,,Switzerland,47.20866,7.53795,,
/venues/2736828,Gate 68,Solothurn,,,Switzerland,47.20866,7.53795,,
/venues/4019999,HESO Herbstmesse Solothurn,Solothurn,4500,,Switzerland,47.20883,7.53229,https://heso.ch/,
/venues/3480899,Rothushalle,Solothurn,,,Switzerland,47.20883,7.53229,,
/venues/3460144,Zähnteschür,Solothurn,,,Switzerland,47.20883,7.53229,,
/venues/4334308,Solothurner Musiktage,Solothurn,4500,,Switzerland,47.20883,7.53229,http://www.solothurnermusiktage.ch,
/venues/3646169,La Chiquita,Solothurn,,,Switzerland,47.20883,7.53229,,
/venues/986141,Abendrundfahrt Auf Der Aare,Solothurn,4500,,Switzerland,47.20883,7.53229,,
/venues/4210914,Kunsthaus Langenthal,Langenthal,4900,Marktgasse 13,Switzerland,47.21192,7.78924,,
/venues/4358358,à la cArte,Langenthal,4900,Marktgasse 13,Switzerland,47.21192,7.78924,http://www.restaurantalacarte.ch,
/venues/3362199,Restaurant Zur Traube,Langenthal,4900,Urbanstrasse 36,Switzerland,47.21274,7.7924,,X
/venues/3095379,Test. Bar Zur Traube,Langenthal,4900,Urbanstrasse 36,Switzerland,47.21274,7.7924,,/venues/3362199
/venues/4319854,Hoffest Langenthal,Langenthal,4900,,Switzerland,47.21404,7.78577,,
/venues/4149229,Street Festival Langenthal,Langenthal,4900,,Switzerland,47.21404,7.78577,http://www.street-festival.ch,
/venues/4386707,Theatersaal Stadttheater,Langenthal,4900,,Switzerland,47.21404,7.78577,,/venues/4393509
/venues/4393509,Theater 49 Stadttheater,Langenthal,4900,,Switzerland,47.21404,7.78577,,X
/venues/2873963,Le Royal,Bern,,,Switzerland,47.2202,7.19882,http://www.leroyal.ch,
/venues/3025499,La Combe 5,Bern,,,Switzerland,47.2202,7.19882,,
/venues/3469944,Wadin Jazz,Zürich,8820 Wädenswil,Seestrasse 57,Switzerland,47.22545,8.67877,https://www.wadinjazz.ch/,
/venues/2545064,Théâtre Ticino,Zürich,8820,Seestrasse 57,Switzerland,47.22545,8.67877,https://www.facebook.com/pages/P%C3%A2quson-Festival-W%C3%A4denswil/247936365294187,
/venues/2874663,Pâqu'son Festival Wädenswil,Zürich,8820,SEESTRASSE 57,Switzerland,47.22545,8.67877,http://www.theater-ticino.ch/de/Programm/Liste,
/venues/4368612,ZHAW Diplomfeier Wädenswil,Zürich,8820,,Switzerland,47.22555,8.64951,,
/venues/3729764,Kulturhalle Glärnisch,Zürich,8820,,Switzerland,47.22555,8.64951,,
/venues/4389093,Seeplatz,Zürich,8820,,Switzerland,47.22555,8.64951,,
/venues/4374255,KANTINE ATTISHOLZ,Solothurn,4533,Attisholzstrasse 10,Switzerland,47.22649,7.57728,https://kantine-attisholz.ch,
/venues/4127289,Kesselhaus Attisholz,Solothurn,4533,Attisholzstrasse 10 (Riedholz),Switzerland,47.22649,7.57728,https://www.facebook.com/kesselhausattisholz/,
/venues/3280824,Rattenfest,Zürich,,,Switzerland,47.22662,8.81844,,
/venues/3628419,Rockfest.ch,Zürich,,,Switzerland,47.22662,8.81844,,
/venues/4059774,ALTEFABRIK,Zürich,8640,Klaus-Gebert-Strasse 5,Switzerland,47.22737,8.81987,https://www.alte-fabrik.ch/,
/venues/4085604,Alte Fabrik,Zürich,8640,Klaus-Gebert-Strasse 5,Switzerland,47.22737,8.81987,https://www.alte-fabrik.ch,
/venues/4375049,Bar Nostrum,Zürich,8820,Seestrasse 93,Switzerland,47.22781,8.67524,https://www.facebook.com/Bar-Nostrum-442963319597154/,
/venues/4379659,Nostrum,Zürich,8820,Seestrasse 93,Switzerland,47.22781,8.67524,,
/venues/3940474,Seenachtsfest Rapperswil-Jona,Zürich,8640,,Switzerland,47.22797,8.82558,https://seenachtfest.ch,
/venues/1297066,Blues'n'jazz Rapperswil-jona,Zürich,,8640 Rapperswil-jona,Switzerland,47.22797,8.82558,http://www.ticketcorner.ch/tickets.html?affiliate=TCS&fun=search&action=search&doc=search%2Fsearch&detailadoc=erdetaila&detailbdoc=evdetailb&kudoc=artist&sort_by=score&sort_direction=desc&fuzzy=yes&suchbegriff=bl%C3%B6ues%27n%27jazz,
/venues/4336892,Eventhouse,Zürich,8640,Neue Jonastrasse 65,Switzerland,47.2282,8.82464,,X
/venues/4209049,Eventhouse Rapperswil,Zürich,8640,Neue Jonastrasse 65,Switzerland,47.2282,8.82464,http://www.eventhouse-rapperswil.ch/,/venues/4336892
/venues/3299379,Halle des Fêtes,Biel,,Vie des Crêts 51 - CH 2732,Switzerland,47.2294,7.22541,,
/venues/3265619,Soirée de Louange,Bern,2732,Halle des Fêtes - Vie des Crêts 51,Switzerland,47.2294,7.22541,,
/venues/3363529,Seebadi Stäfa,Stäfa,,,Switzerland,47.23923,8.73514,,
/venues/3484639,Sunshine Hill,Stäfa,,,Switzerland,47.23923,8.73514,http://www.sunshinehill.ch,
/venues/418771,Kulturkarussell Rössli,Stäfa,8712,Bahnhofstrasse 1,Switzerland,47.23949,8.71878,http://kulturkarussell.ch/,
/venues/3516164,Cavallo Infernale - Rössli Stäfa,Stäfa,8712,Bahnhofstrasse 1,Switzerland,47.23949,8.71878,https://www.roesslistaefa.ch/aktuelles-programm/year.listevents/2018/01/18/-,
/venues/4169079,Kulturkarussel,Stäfa,8712,Bahnhofstrasse 1,Switzerland,47.23949,8.71878,http://www.kulturkarussel.ch,
/venues/1649043,Das Zelt,Zürich,8810,Chilbiplatz,Switzerland,47.24784,8.60533,,
/venues/2801873,Chilbiplatz,Zürich,8810,Im Schnegg 1,Switzerland,47.24784,8.60533,,
/venues/4333814,Froburg,Bern,4537,Hafnerweg 5,Switzerland,47.25084,7.6416,,X
/venues/4233314,Saalbau Froburg,Bern,4537,Hafnerweg 5,Switzerland,47.25084,7.6416,,/venues/4333814
/venues/4221109,40ème anniversaire du Canton du Jura,Biel,2350,Marché-Concours 14,Switzerland,47.25454,6.99807,https://www.jura.ch/fr/Autorites/40e-anniversaire-du-Jura/Le-Jura-a-40-ans/Festivites-du-40e-du-canton-le-voile-est-leve.html,X
/venues/4196689,40è Jura,Biel,2350,Marché-Concours 14,Switzerland,47.25454,6.99807,https://www.jura.ch/fr/Autorites/40e-anniversaire-du-Jura/Le-Jura-a-40-ans/Festivites-du-40e-du-canton-le-voile-est-leve.html,/venues/4221109
/venues/3057484,Music Am Pflegidach,Zürich,,,Switzerland,47.2719,8.34177,,
/venues/2805318,Saal Hotel Ochsen,Zürich,,,Switzerland,47.2719,8.34177,,
/venues/3434754,Musig im Pflegidach,Zürich,,,Switzerland,47.27358,8.34156,http://www.murikultur.ch/musik/musig-im-pflegidach/,
/venues/3191889,Tannentalart,Zürich,,,Switzerland,47.27358,8.34156,,
/venues/1969909,Ampere,Affoltern am Albis,,,Switzerland,47.27951,8.45401,,
/venues/3108039,Event Hall,Affoltern am Albis,,,Switzerland,47.27951,8.45401,,
/venues/3190884,OXIL,Zofingen,4800,Obere Brühlstrasse 6,Switzerland,47.28494,7.94405,http://www.oxil.ch,
/venues/684761,OX Kultur,Zofingen,4800,Obere Brühlstrasse 6,Switzerland,47.28494,7.94405,http://www.oxx.ch,
/venues/2323864,Areal der Kapelle St. Peter,Basel,4703,St. Peterstrasse,Switzerland,47.28503,7.75155,https://sunsetevents.ch,
/venues/2124644,St. Peter at Sunset Festival,Basel,4703,St. Peter Straße,Switzerland,47.28503,7.75155,http://sunsetevents.ch/,
/venues/2777043,Heitere-platz,Zofingen,4800,,Switzerland,47.28589,7.95523,http://www.magic-night.ch/,
/venues/4394250,Volks Schlager Open Air,Zofingen,4800,,Switzerland,47.28589,7.95523,,
/venues/4329324,Heiternplatz,Zofingen,4800,,Switzerland,47.28589,7.95523,,
/venues/2870043,Gemeindeschulhaus,Zofingen,4800,,Switzerland,47.28589,7.95523,,
/venues/3401644,Turbine Theater,Zürich,8135,Spinnereistrasse 19,Switzerland,47.28792,8.54454,http://www.turbinetheater.com/,X
/venues/4381835,Turbine Theater Langnau am Albis,Zürich,8135,Spinnereistrasse 19,Switzerland,47.28792,8.54454,https://www.turbinetheater.ch,/venues/3401644
/venues/2829398,Rock the Ring Festival,Hinwil,8340,Affeltrangerstrasse 10,Switzerland,47.28834,8.81781,http://www.rockthering.ch,
/venues/4390318,Autokino Hinwil,Hinwil,8340,Affeltrangerstrasse 10,Switzerland,47.28834,8.81781,https://www.driveinmovies.ch/,
/venues/4308694,Tcs Vsz Betzholz,Hinwil,8340,Affeltrangerstrasse 10,Switzerland,47.28834,8.81781,,
/venues/4338699,Lager-Lounge,Basel,4710,Postackerstrasse 1,Switzerland,47.31332,7.69558,,/venues/4260764
/venues/4260764,Lager Lounge,Basel,4717,Postackerstrasse 1,Switzerland,47.31332,7.69558,https://www.facebook.com/Lager-Lounge-1476307852642255/,X
/venues/3726724,Atlantis Club,Egerkingen,4624,Altgraben 29,Switzerland,47.31659,7.81155,,/venues/3723899
/venues/3901994,Club Atlantis,Olten,4624,"Altgraben 29, Härkingen",Switzerland,47.31659,7.81155,,/venues/3723899
/venues/3723899,Disco Atlantis,Egerkingen,4624,Altgraben 29,Switzerland,47.31659,7.81155,http://www.discoatlantis.ch,X
/venues/2632973,Altstadt,Lichtensteig,9620,,Switzerland,47.32485,9.0876,,
/venues/418376,Jazztage Lichtensteig,Lichtensteig,9620,.,Switzerland,47.32485,9.0876,,
/venues/1527948,Kulturfabrik (Kulti),Wetzikon,8620,Zürcherstrasse 40/42,Switzerland,47.32496,8.78654,http://www.kulturfabrik.ch/,/venues/3552054
/venues/3552054,Kulturfabrik,Zürich,8620,Zürcherstrasse 40/42,Switzerland,47.32496,8.78654,http://www.kulturfabrik.ch/,X
/venues/348941,Kulturfabrik Nikolaus,Wetzikon,8620,Zürcherstrasse 40,Switzerland,47.32496,8.78654,http://www.kulturfabrik.ch,/venues/3552054
/venues/3452144,RAUm132,Wetzikon,8620,Bahnhofstrasse 132,Switzerland,47.32506,8.79869,,
/venues/2159774,The Classroom,Wetzikon,8620,Bahnhofstrasse 132,Switzerland,47.32506,8.79869,,
/venues/78549,"Wetzikon, Switzerland",Wetzikon,,,Switzerland,47.32706,8.80136,,
/venues/3671234,Molly Malone,Wetzikon,,,Switzerland,47.32706,8.80136,,
/venues/2134144,Ice Cube,Wetzikon,,,Switzerland,47.32706,8.80136,,
/venues/3404559,Private Event,Wetzikon,,,Switzerland,47.32706,8.80136,,
/venues/3977114,Tropicana Beach Contest,Basel,2854,Bassecourt,Switzerland,47.33338,7.24085,http://www.beachcontest.ch,
/venues/4385862,"Bassecourt, France",Basel,2854,,Switzerland,47.33338,7.24085,,
/venues/3129954,Schlossli,Appenzell,,,Switzerland,47.33493,9.40659,,
/venues/4152319,Kronengartenplatz,Appenzell,9080,,Switzerland,47.33493,9.40659,,
/venues/2173104,3 Eidgenossen,Appenzell,9050,,Switzerland,47.33493,9.40659,,
/venues/3388859,Teufen Gassenfest,Appenzell,,,Switzerland,47.33493,9.40659,,
/venues/3958534,lethargy,Zürich,8038 Zurich,Seestrasse 395,Switzerland,47.34356,8.53583,http://www.lethargy.ch/2018/,
/venues/4233299,"Rote Fabrik, Sommerbühne",Zürich,8038,Seestrasse 395,Switzerland,47.34356,8.53583,,/venues/30935
/venues/3454569,Rote Fabrik Ziegel oh Lac,Zürich,8038,Seestrasse 395,Switzerland,47.34359,8.53583,,/venues/30935
/venues/1287556,Riot Factory,Zürich,8005,Seestraße 395,Switzerland,47.34359,8.53583,,
/venues/3649524,Kulturhaus Central,Uster,8610,Brauereistrasse 2,Switzerland,47.34643,8.71777,,
/venues/3936894,Kulturgemeinschaft Uster,Uster,8610,Brauereistrasse 2,Switzerland,47.34643,8.71777,,
/venues/3072254,Landiwiese Süd,Zürich,8038,Mythenquai,Switzerland,47.34746,8.53436,,/venues/3345669
/venues/3345669,Landiwiese Saal,Zürich,8038,Mythenquai,Switzerland,47.34746,8.53436,,X
/venues/3345674,Landiwiese Seebühne,Zürich,8038,Mythenquai,Switzerland,47.34746,8.53436,,/venues/3345669
/venues/1350371,Moortal,Granichen,5722,,Switzerland,47.34872,8.11132,,
/venues/4316779,Sandsteinhöhlen Liebegg,Granichen,5722,,Switzerland,47.34872,8.11132,,
/venues/4347850,Terrassenkonzert,Olten,,Aarauerstrasse 55,Switzerland,47.34877,7.91088,,X
/venues/4347848,Terassenkonzert,Olten,,Aarauerstrasse 55,Switzerland,47.34877,7.91088,,/venues/4347850
/venues/2732448,Schützenmatte,Olten,4600,,Switzerland,47.34996,7.9037,,
/venues/4219979,Kulturzentrum Schützi,Olten,4603,,Switzerland,47.34996,7.9037,,
/venues/3570929,Wohnzimmerkonzert,Olten,,,Switzerland,47.34996,7.9037,,
/venues/3332774,Zeit Für Neue Helden,Olten,,,Switzerland,47.34996,7.9037,,
/venues/3412014,JURA Tag der offenen Tür (Niederbuchsiten),Olten,,,Switzerland,47.34996,7.9037,,
/venues/4267344,Sommerbar Wohlen,Wohlen,5610,Wohlen Mitte,Switzerland,47.35088,8.28705,,
/venues/51489,Sound Arena,Wohlen,5610,,Switzerland,47.35088,8.28705,,
/venues/4353079,Katholische Kirche Wohlen,Wohlen,5610,,Switzerland,47.35088,8.28705,,
/venues/927441,Miller's Studio,Zürich,8008,Seefeldstrasse 225,Switzerland,47.35172,8.56133,,X
/venues/3893199,Miller's,Zürich,8008,Seefeldstrasse 225,Switzerland,47.35172,8.56133,,/venues/927441
/venues/58780,Schützenhaus Albisgütli,Zürich,8045,Uetlibergstrasse 341,Switzerland,47.35217,8.50824,,
/venues/1614643,Albigustli,Zürich,,Uetlibergstrasse 341,Switzerland,47.35217,8.50824,,
/venues/3039484,Plattform,Wohlen,5610,Kapellstrasse 4,Switzerland,47.35253,8.27784,http://www.plattform-wohlen.ch/,
/venues/946806,Kulturbeiz Chappelehof,Wohlen,,Kapellstrasse 4,Switzerland,47.35253,8.27784,,
/venues/1466598,Neumünster,Zürich,8008,,Switzerland,47.35908,8.55292,,
/venues/982911,Chinagarten Zürich (bei Blatterwiese),Zürich,8008,,Switzerland,47.35908,8.55292,,
/venues/3104454,Kirchgemeindehaus Neumünster,Zürich,8008,Seefeldstrasse 91,Switzerland,47.3597,8.55378,,
/venues/3670419,Theater Im Seefeld,Zürich,8008,Seefeldstrasse 91,Switzerland,47.3597,8.55378,,
/venues/2366264,Quai 61,Zürich,8002,,Switzerland,47.36014,8.52933,,
/venues/2359724,"Rentenwiese, Voliere Mythenquai",Zürich,8002,Enge,Switzerland,47.36014,8.52933,,
/venues/116012,Opernhaus Zürich,Zürich,8008,Falkenstrasse 1,Switzerland,47.36464,8.54648,,
/venues/1261011,Bernhard Theater,Zürich,8008,Falkenstrasse 1,Switzerland,47.36464,8.54648,,
/venues/1810358,Station Club,Zürich,,Gutenbergstrasse 1,Switzerland,47.36499,8.53065,,
/venues/3140844,Gutenberg Club,Zürich,8002,Gutenbergstrasse 1,Switzerland,47.36499,8.53065,,
/venues/2192009,Sas Delemont,Basel,,Rue du 23-Juin,Switzerland,47.36505,7.34331,,
/venues/2216034,Halle Du Château,Basel,2800,Rue du 23 Juin 25,Switzerland,47.36505,7.34331,,
/venues/114785,Kongresshaus Zürich,Zürich,8022,Gotthardstrasse 5,Switzerland,47.36599,8.53725,,
/venues/3194979,Adagio,Zürich,8002,Gotthardstrasse 5,Switzerland,47.36599,8.53725,,
/venues/2732373,Tonhalle Zürich - Grosser Saal,Zürich,8002,Claridenstrasse 7,Switzerland,47.36609,8.53797,,/venues/52876
/venues/2750658,Tonhalle Zürich - Kleiner Saal,Zürich,8002,Claridenstrasse 7,Switzerland,47.36609,8.53797,,/venues/52876
/venues/1570488,Forum St-Georges,Basel,2800,Route de Bâle 5,Switzerland,47.36629,7.34553,http://www.ccrd.ch,
/venues/2162439,Centre culturel régional,Basel,,"Forum Saint Georges  Route de Bâle 5, 2800",Switzerland,47.36629,7.34553,,
/venues/2170304,Halles Des Expositions,Basel,2800,,Switzerland,47.36689,7.33247,,
/venues/2835753,La Croisee Des Loisirs,Basel,2800,,Switzerland,47.36689,7.33247,,
/venues/4413224,"Sas, Cour Du Château",Basel,2800,,Switzerland,47.36689,7.33247,,
/venues/2446814,Temple,Basel,2800,Rue du Temple 9,Switzerland,47.36719,7.34573,,
/venues/4344281,Centre Réformé,Basel,2800,Rue du Temple 9,Switzerland,47.36719,7.34573,,
/venues/2929708,Kauz,Zürich,,,Switzerland,47.36865,8.53918,,
/venues/148593,Open Air,Zürich,,,Switzerland,47.36865,8.53918,,
/venues/2569944,Kulturkeller Höngg,Zürich,,,Switzerland,47.36865,8.53918,,
/venues/2513104,Cafe Gold,Zürich,,,Switzerland,47.36865,8.53918,,
/venues/3060699,Private Event,Zürich,,,Switzerland,47.36865,8.53918,,
/venues/2104529,25Hours Hotel,Zürich,,,Switzerland,47.36865,8.53918,,
/venues/117521,Bogen 13,Zürich,,,Switzerland,47.36865,8.53918,,
/venues/2867263,Jazz Im Seefeld,Zürich,,,Switzerland,47.36865,8.53918,,
/venues/2770523,Hotel Uto Kulm,Zürich,,,Switzerland,47.36865,8.53918,,
/venues/2551049,Kino Roland,Zürich,,,Switzerland,47.36865,8.53918,,
/venues/2694178,Villa Schneckenmann,Zürich,,,Switzerland,47.36865,8.53918,,
/venues/2089729,Sunday Breakfast Club,Zürich,,,Switzerland,47.36865,8.53918,,
/venues/2694173,Lebewohlfabrik,Zürich,,,Switzerland,47.36865,8.53918,,
/venues/2644718,ewz stattkino,Zürich,,,Switzerland,47.36865,8.53918,http://ewz.stattkino.com/2014/,
/venues/2862438,Blaues Haus,Zürich,,,Switzerland,47.36865,8.53918,,
/venues/2444929,renaissance zurich tower hotel,Zürich,,,Switzerland,47.36865,8.53918,http://www.marriott.com/hotels/travel/zrhbr-renaissance-zurich-tower-hotel/,
/venues/3037949,Rundfunk,Zürich,,,Switzerland,47.36865,8.53918,,
/venues/2597588,Zeughaus,Zürich,,,Switzerland,47.36865,8.53918,,
/venues/2722298,Cha Cha Cha Dihei,Zürich,,,Switzerland,47.36865,8.53918,,
/venues/2544354,Openair Im Amphitheater,Zürich,,,Switzerland,47.36865,8.53918,,
/venues/3073979,Musig Im Pflegidach,Zürich,,,Switzerland,47.36865,8.53918,,
/venues/2806488,Zerstorbar,Zürich,,,Switzerland,47.36865,8.53918,,
/venues/2768498,well,Zürich,,,Switzerland,47.36865,8.53918,,
/venues/3087009,Beaumonde,Zürich,,,Switzerland,47.36865,8.53918,,
/venues/2845123,Digital Maag,Zürich,,,Switzerland,47.36865,8.53918,,
/venues/2683908,Pop Up,Zürich,,,Switzerland,47.36865,8.53918,,
/venues/2944788,Bonstetten Dorfplatz,Zürich,,,Switzerland,47.36865,8.53918,,
/venues/2619388,Juice Market,Zürich,,,Switzerland,47.36865,8.53918,http://www.juice-market.ch/,
/venues/2871178,Café Derby,Zürich,,,Switzerland,47.36865,8.53918,,
/venues/2832573,Bang Bang Club,Zürich,,,Switzerland,47.36865,8.53918,,
/venues/2854018,Wybergli Rüti ZH,Zürich,,,Switzerland,47.36865,8.53918,http://www.wybergli.ch,
/venues/3069064,Inmuve Club House,Zürich,,,Switzerland,47.36865,8.53918,,
/venues/2985788,Thek/Grubenstrasse 15,Zürich,,,Switzerland,47.36865,8.53918,,
/venues/2468049,X-mas Metal Meeting,Zürich,,,Switzerland,47.36865,8.53918,,
/venues/2939578,St Andrew's Anglican Church,Zürich,,,Switzerland,47.36865,8.53918,,
/venues/2830878,Dörflifäscht,Zürich,,,Switzerland,47.36865,8.53918,,
/venues/2863353,Sporthalle,Zürich,,,Switzerland,47.36865,8.53918,,
/venues/2886638,Troyaner,Zürich,,,Switzerland,47.36865,8.53918,,
/venues/2886683,Humbug,Zürich,,,Switzerland,47.36865,8.53918,,
/venues/583406,Alte Börse,Zürich,8001,Bleicherweg 5,Switzerland,47.36872,8.53785,,
/venues/2597858,Aura,Zürich,8001,Bleicherweg 5,Switzerland,47.36872,8.53785,,
/venues/2078839,Jugendtreff Altstätten,Altstätten,9450,,Switzerland,47.37008,9.55499,,
/venues/3753554,Tschätteri,Altstätten,9450,,Switzerland,47.37008,9.55499,http://www.altstaetten.ch/de/freizeitutourismus/freizeit/fasnachtfs/,
/venues/1310826,Devi's Pearl Bar,Zürich,8003,Birmensdorferstrasse 83,Switzerland,47.37078,8.52391,,
/venues/3671359,La Bohème Bar,Zürich,8003,Birmensdorferstrasse 83,Switzerland,47.37078,8.52391,,
/venues/3754699,Mcgees Irish Pub,Zürich,8003,Birmensdorferstrasse 83,Switzerland,47.37078,8.52391,,
/venues/4389577,Im Lehmloch,Altstätten,9450,Im Lehmloch,Switzerland,47.37158,9.57952,,
/venues/4417205,Vally Vibes Festival,Altstätten,,"Im Lehmloch, Altstätten",Switzerland,47.37158,9.57952,,
/venues/2470719,Kaufleuten Festsaal,Zürich,8001,Pelikanstrasse 18,Switzerland,47.37176,8.53639,http://www.kaufleuten.ch,
/venues/4368669,Kaufleuten Club,Zürich,8001,Pelikanstrasse 18,Switzerland,47.37176,8.53639,,
/venues/418821,Zentrum Bärenmatte,Suhr,5034,Turnhalleweg 1,Switzerland,47.37213,8.07976,,
/venues/1808493,Bärenmattsaal,Suhr,5034,Turnhalleweg 1,Switzerland,47.37213,8.07976,,
/venues/3577749,das Institut - Misterioso Jazz Club,Zürich,8004,Elisabethenstrasse 14A,Switzerland,47.37316,8.52299,http://theinstitute.ch/,
/venues/1229506,Mirko,Zürich,,Elisabethenstrasse 14 A,Switzerland,47.37316,8.52299,,
/venues/3344829,KULTURFOLGER,Zürich,8003,Idastrasse46,Switzerland,47.37355,8.51507,https://www.kulturfolger.ch/,
/venues/3263569,Uhl & Olf,Zürich,8003 Zurich,Idastrasse 46,Switzerland,47.37355,8.51507,http://uhlundolf.ch/,
/venues/2957943,Zkb Club Im Theater Der Künste,Zürich,8001,Gessnerallee 9-13,Switzerland,47.37416,8.53336,,
/venues/2788443,"Club Der Zürcher Kantonalbank, Theater Der Künste",Zürich,8001,Gessnerallee9,Switzerland,47.37416,8.53336,,
/venues/621591,Ewz-unterwerk Selnau,Zürich,8001,,Switzerland,47.37416,8.53963,,
/venues/124330,ZURICH JAZZNOJAZZ FESTIVAL,Zürich,8001,,Switzerland,47.37416,8.53963,http://www.jazznojazz.ch,
/venues/3267109,Wasserkirche,Zürich,8001,,Switzerland,47.37416,8.53963,,
/venues/4393534,St. Peterhofstatt,Zürich,8001,,Switzerland,47.37416,8.53963,,
/venues/1442978,Abfahrt Bürkliplatz,Zürich,8001,,Switzerland,47.37416,8.53963,,
/venues/2960448,Fraumünster Kirche,Zürich,8001,Am Münsterhofplatz,Switzerland,47.37416,8.53963,,
/venues/4397950,Stream Aus Der Sternwarte Urania,Zürich,8001,,Switzerland,47.37416,8.53963,,
/venues/3522774,Vorstadtsounds,Zürich,8047 Zürich,Fellenbergstrasse 231,Switzerland,47.37418,8.49604,,
/venues/3496904,Pfarreizentrum St. Konrad,Zürich,8047,Fellenbergstrasse 231,Switzerland,47.37418,8.49604,http://www.st-konrad.ch,
/venues/34157,Stall 6,Zürich,8001,Gessnerallee 8,Switzerland,47.37476,8.53471,http://www.stall6.ch/,
/venues/34655,Theaterhaus Gessnerallee,Zürich,Ch-8001,Gessnerallee 8,Switzerland,47.37476,8.53471,,
/venues/3924174,Gessnerallee,Zürich,8001,Gessnerallee 8,Switzerland,47.37476,8.53471,http://www.gessnerallee.ch,X
/venues/2936213,"Gessnerallee Zürich, Nordflügel",Zürich,8001,Gessnerallee 8,Switzerland,47.37476,8.53471,,/venues/3924174
/venues/29644,Volkshaus,Zürich,8004,Stauffacherstrasse 60,Switzerland,47.37546,8.52722,http://www.volkshaus.ch/,X
/venues/2760958,"Volkshaus, Weisser Saal",Zürich,8004,Stauffacherstrasse 60,Switzerland,47.37546,8.52722,,/venues/29644
/venues/1680458,"Volkshaus, Blauer Saal",Zürich,8004,Stauffacherstrasse 60,Switzerland,47.37546,8.52722,,/venues/29644
/venues/3276149,Lauter Festival,Zürich,8001,Gessnerallee,Switzerland,47.37553,8.53507,http://www.lauter.ch/,
/venues/3191379,Friction,Zürich,,Gessnerallee,Switzerland,47.37553,8.53507,https://www.friction.ch/,
/venues/2121814,Ebrietas,Zürich,8001,Zähringerstrasse 39,Switzerland,47.37589,8.5445,http://www.ebrietas.ch,
/venues/1161276,Superzero,Zürich,8001,Zähringerstrasse 39,Switzerland,47.37589,8.5445,,
/venues/3503329,Kasheme,Zürich,,,Switzerland,47.37689,8.54169,,
/venues/1036831,Züri Fäscht,Zürich,,,Switzerland,47.37689,8.54169,https://zuerifaescht.ch/,
/venues/3300509,Lexy Club,Zürich,,,Switzerland,47.37689,8.54169,,
/venues/3703339,Park Platz,Zürich,,,Switzerland,47.37689,8.54169,https://www.park-platz.org/,
/venues/3484424,GDS.FM,Zürich,,,Switzerland,47.37689,8.54169,http://gds.fm,
/venues/3624624,Musikwelle Guggach,Zürich,,,Switzerland,47.37689,8.54169,,
/venues/3184624,Jenseits im Viadukt,Zürich,,,Switzerland,47.37689,8.54169,,
/venues/3732664,Minirock,Zürich,,,Switzerland,47.37689,8.54169,,
/venues/3323179,GDS.fm Elisaburg,Zürich,,,Switzerland,47.37689,8.54169,,
/venues/3632904,Streetparade,Zürich,,,Switzerland,47.37689,8.54169,http://www.streetparade.com/,
/venues/3689544,Wunderkammer,Zürich,,,Switzerland,47.37689,8.54169,,
/venues/3155254,Die Katakombe,Zürich,,,Switzerland,47.37689,8.54169,,
/venues/3395299,Auer & Co,Zürich,,,Switzerland,47.37689,8.54169,,
/venues/3427959,Filmpodium,Zürich,,,Switzerland,47.37689,8.54169,,
/venues/3255259,Manifesta Art Fair,Zürich,,,Switzerland,47.37689,8.54169,,
/venues/3669689,Private Concert Schwamendingen,Zürich,,,Switzerland,47.37689,8.54169,,
/venues/3574184,Viadukt - Bogen F.,Zürich,,,Switzerland,47.37689,8.54169,,/venues/1313491
/venues/3719029,Theatersaal 4 Stock,Zürich,,,Switzerland,47.37689,8.54169,,
/venues/180713,Street Parade,Zürich,,,Switzerland,47.37689,8.54169,,
/venues/3502084,Raumbau,Zürich,,,Switzerland,47.37689,8.54169,,
/venues/3501509,Sportbar,Zürich,,,Switzerland,47.37689,8.54169,,
/venues/3328974,Soundabout,Zürich,,,Switzerland,47.37689,8.54169,,
/venues/4006309,Mehrzweckhalle Eichhölzli,Zürich,8192,Sportweg 4,Switzerland,47.37689,8.54169,,
/venues/3347874,City Hochhaus,Zürich,,,Switzerland,47.37689,8.54169,,
/venues/1918364,Zurich Openair Festival,Zürich,,,Switzerland,47.37689,8.54169,,
/venues/3499814,Ignite Show,Zürich,,,Switzerland,47.37689,8.54169,,
/venues/3638519,Krokodil Provisorium,Zürich,,,Switzerland,47.37689,8.54169,,
/venues/3121014,CENTO PASSI,Zürich,,,Switzerland,47.37689,8.54169,,
/venues/3350929,Sound & Fun,Zürich,,Annual RSI/RETE3 disco-train moving from Ticino (CH) to Street Parade (Zürich/CH),Switzerland,47.37689,8.54169,http://www.rsi.ch/rete-tre/speciali/Sound-and-Fun-e-Street-Parade-2015-guarda-i-video-reportage-5895352.html,
/venues/3575179,Private Concert,Zürich,,,Switzerland,47.37689,8.54169,,
/venues/3251484,Fashion Hotel,Zürich,,,Switzerland,47.37689,8.54169,,
/venues/3324784,Molly Malone,Zürich,,,Switzerland,47.37689,8.54169,,
/venues/3412754,Comedy Haus,Zürich,,,Switzerland,47.37689,8.54169,,
/venues/3563849,le salon,Zürich,8044,"gockhausen, meisenrain",Switzerland,47.37689,8.54169,http://www.a2w.ch/index.php?id=21,
/venues/3669504,Made in Portugal,Zürich,,,Switzerland,47.37689,8.54169,,
/venues/3328984,Mais Oui Festival,Zürich,,,Switzerland,47.37689,8.54169,,
/venues/3537139,Park im Grüene,Zürich,,,Switzerland,47.37689,8.54169,,
/venues/3344834,Transaction Manifesta 11,Zürich,,,Switzerland,47.37689,8.54169,http://www.manifesta11.uzh.ch/de/about.html,
/venues/3408624,The Barn Sessions,Zürich,,,Switzerland,47.37689,8.54169,,
/venues/3209603,Stubenkonzert chez Florian,Zürich,,,Switzerland,47.37689,8.54169,,
/venues/3458894,lion club lounge,Zürich,,,Switzerland,47.37689,8.54169,http://www.lionclubluzern.ch/,
/venues/2093604,Rock Woche Festival,Zürich,,,Switzerland,47.37689,8.54169,,
/venues/3205023,"Theater Der Künste, Bühne A",Zürich,,,Switzerland,47.37689,8.54169,,
/venues/3533779,MindThing pres. TAKE OFF at Rote Fabrik,Zürich,,,Switzerland,47.37689,8.54169,,
/venues/3721889,Nachtseminar,Zürich,,,Switzerland,47.37689,8.54169,,
/venues/3649529,Earshakerday,Zürich,,,Switzerland,47.37689,8.54169,,
/venues/3154754,Palace Theater,Zürich,,,Switzerland,47.37689,8.54169,,
/venues/3427449,Orgelsurium,Zürich,,,Switzerland,47.37689,8.54169,,
/venues/2772278,Schweizerhof Bar,Zürich,8001,Bahnhofplatz 7,Switzerland,47.37693,8.5394,,
/venues/2264819,Hotel Schweizerhof,Zürich,8001,Bahnhofplatz 7,Switzerland,47.37693,8.5394,,
/venues/1129916,Alte Kaserne,Zürich,8001,Kanonengasse 20,Switzerland,47.37789,8.53007,,
/venues/708816,Kunstraum Walcheturm,Zürich,8004,kanonengasse 20,Switzerland,47.37789,8.53007,http://www.walcheturm.com,
/venues/4008184,Cafe Breite,Altstätten,9450,Breite 29,Switzerland,47.37838,9.53712,,X
/venues/3715094,Bar Breite,Altstätten,9450,Breite 29,Switzerland,47.37838,9.53712,,/venues/4008184
/venues/4390668,Variété,Zürich,8004,Militärstrasse 84,Switzerland,47.3788,8.52978,https://clubvariete.ch/,
/venues/4377549,Klub Vieri,Zürich,8004,Militärstrasse 84,Switzerland,47.3788,8.52978,,
/venues/2123529,Kinski,Zürich,8004,Langstrasse 112,Switzerland,47.3789,8.52729,http://www.kinski-klub.ch/,
/venues/3259734,Haus von Klaus,Zürich,8004,Langstrasse 112,Switzerland,47.3789,8.52729,,
/venues/87519,Landesmuseum,Zürich,8001,Museumstrasse 2,Switzerland,47.37902,8.54101,,
/venues/3507099,Lakritz,Zürich,8001,Museumstrasse 2,Switzerland,47.37902,8.54101,http://www.lakritz.landesmuseum.ch/,
/venues/1502028,Gonzo,Zürich,8004,Langstrasse 135,Switzerland,47.38007,8.5277,http://Gonzoclub.ch,
/venues/4369776,Fat Tony,Zürich,8004 Zürich,Langstrasse 135,Switzerland,47.38007,8.5277,,
/venues/4395105,Kino Kosmos 6,Zürich,8004,Lagerstrasse 104,Switzerland,47.38009,8.52892,,X
/venues/4233284,Kosmos Forum,Zürich,8004,Lagerstrasse 104,Switzerland,47.38009,8.52892,,/venues/4395105
/venues/2367854,OG9,Zürich,8004,Lagerstrasse 98,Switzerland,47.3802,8.52937,,
/venues/2298224,Dienstgebäude 9,Zürich,Zürich,Lagerstrasse 98,Switzerland,47.3802,8.52937,,
/venues/3769414,RADAR - Festival For New Music,Zürich,8004,,Switzerland,47.38076,8.51729,,
/venues/4008079,Bullingerplatz Fest,Zürich,8004,,Switzerland,47.38076,8.51729,,
/venues/4396641,Innenhof Landesmuseum,Zürich,8000,,Switzerland,47.38181,8.53533,,
/venues/1774358,Hotelbars Zürich,Zürich,8000,,Switzerland,47.38181,8.53533,,
/venues/1567418,Restaurant Pier 7 - Frauenbad Stadthausquai,Zürich,8000,,Switzerland,47.38181,8.53533,,
/venues/69432,Dynamo,Zürich,8006,Wasserwerkstrasse 21,Switzerland,47.3834,8.53938,http://www.dynamo.ch/,X
/venues/846531,"Großer Saal, Dynamo",Zürich,8006,Wasserwerkstrasse 21,Switzerland,47.3834,8.53938,,/venues/69432
/venues/121167,Werk21,Zürich,8006,Wasserwerkstrasse 21,Switzerland,47.3834,8.53938,https://www.dynamo.ch/,
/venues/1489298,Wunderbar,Zürich,8005,Sihlquai 115,Switzerland,47.38444,8.53452,,
/venues/2946158,Quartierhaus Kreis 5,Zürich,,Sihlquai 115,Switzerland,47.38444,8.53452,,
/venues/3127604,Casino Herisau,Herisau,9100,,Switzerland,47.3857,9.27985,,
/venues/3649034,Altes Zeughaus,Herisau,,,Switzerland,47.3857,9.27985,,
/venues/391996,Härterei,Zürich,8005,Hardstrasse 219,Switzerland,47.38572,8.51685,http://www.haertereiclub.ch,
/venues/834556,MAAG Halle,Zürich,8005,Hardstrasse 219,Switzerland,47.38572,8.51685,http://www.bymaag.ch,
/venues/924806,Helsinki,Zürich,8005,Geroldstrasse 35,Switzerland,47.38582,8.51819,http://helsinkiklub.ch/,X
/venues/3457779,Helsinki Klub,Zürich,8005,Geroldstrasse 35,Switzerland,47.38582,8.51819,http://helsinkiklub.ch,/venues/924806
/venues/4133584,Helsinki Club,Zürich,,Geroldstrasse 35,Switzerland,47.38582,8.51819,,/venues/924806
/venues/3350839,zum Gaul,Zürich,8005,Geroldstrasse 35,Switzerland,47.38582,8.51819,http://www.zumgaul.ch,
/venues/3316519,Barrio5,Zürich,,Limmatstrasse 195,Switzerland,47.38658,8.52874,http://barrio5.ch/,
/venues/2631398,Mambo Café,Zürich,8005,Limmatstrasse 195,Switzerland,47.38658,8.52874,,
/venues/3764314,Härterei Club,Zürich,8005,Hardstrasse 219,Switzerland,47.38676,8.51667,,
/venues/4358877,MÄX,Zürich,8005,Hardstrasse 219,Switzerland,47.38676,8.51667,,
/venues/2539429,Griechisch-Orthodoxe Kirche Agios Dimitrios,Zürich,8037,Rousseaustrasse 17,Switzerland,47.38698,8.53459,,
/venues/2895683,Club Saal,Zürich,8037,Rousseaustrasse 17,Switzerland,47.38698,8.53459,,
/venues/1129971,Komplex 457,Zürich,8048,Hohlstrasse 457,Switzerland,47.38732,8.49986,,
/venues/3816524,IF Performance Hall,Zürich,8048,Hohlstrasse 457,Switzerland,47.38732,8.49986,,
/venues/4055604,Klub Komplex,Zürich,8048,Hohlstrasse 457,Switzerland,47.38732,8.49986,,/venues/2148724
/venues/2148724,Komplex Klub,Zürich,8048,Hohlstrasse 457,Switzerland,47.38732,8.49986,http://www.komplex457.ch/klub/klub/,X
/venues/585256,Neues Theater Spirgarten,Zürich,8048,Lindenplatz 5,Switzerland,47.38739,8.48542,,X
/venues/1030406,Seminarhotel Spirgarten,Zürich,8048,Lindenplatz 5,Switzerland,47.38739,8.48542,,/venues/585256
/venues/619071,Kongresszentrum Spirgarten,Zürich,8048,Lindenplatz 5,Switzerland,47.38739,8.48542,,/venues/585256
/venues/420031,Boschbar,Zürich,8005,Sihlquai 240,Switzerland,47.38766,8.52994,,
/venues/1145821,Provitreff,Zürich,8005,Sihlquai 240,Switzerland,47.38766,8.52994,http://www.provitreff.ch/,
/venues/4398265,"Kiff, Fabrikpalast",Aarau,5000,,Switzerland,47.38796,8.04414,,
/venues/2843663,Schachen,Aarau,5000,,Switzerland,47.38796,8.04414,,
/venues/4338927,Bahnhof Aarau,Aarau,5000,,Switzerland,47.38796,8.04414,https://www.sbb.ch/,
/venues/2902498,Ama Aargauer Messe Aarau,Aarau,5000,Schwimmbadstrasse Reithalle,Switzerland,47.38796,8.04414,,
/venues/898166,Loop 38,Zürich,8048 Zü,Albulastrasse 38,Switzerland,47.38821,8.49401,http://www.loop38.ch/,
/venues/1485653,Tonight Club,Zürich,,Albulastr. 38 - 40,Switzerland,47.38821,8.49401,,
/venues/1552938,Blok,Zürich,8005,Schiffbaustrasse 3,Switzerland,47.3885,8.51893,,
/venues/3388189,Moodslabor,Zürich,8005,Schiffbaustrasse 3,Switzerland,47.3885,8.51893,,
/venues/127427,Labor5,Zürich,8005,Schiffbaustrasse 3,Switzerland,47.3885,8.51893,http://www.labor5.ch/,
/venues/37717,Moods,Zürich,8005,Schiffbaustrasse 6,Switzerland,47.38865,8.5187,http://www.moods.ch,
/venues/1597298,Schiffbau & Moods & Exil,Zürich,8005,Schiffbaustrasse 6,Switzerland,47.38865,8.5187,,
/venues/3760149,SpaceMonki,Zürich,8005,Limmatstr. 275,Switzerland,47.38877,8.52507,http://www.spacemonki.ch,X
/venues/4380441,Space Monki,Zürich,8005,Limmatstrasse 275,Switzerland,47.38877,8.52507,,/venues/3760149
/venues/3434949,Club Elite,Zürich,8048,Hohlstrasse 452,Switzerland,47.38906,8.49598,,
/venues/1171921,Club Oh,Zürich,8048,Hohlstrasse 452,Switzerland,47.38906,8.49598,,
/venues/1416553,Club Liv,Zürich,8048,Hohlstrasse 452,Switzerland,47.38906,8.49598,,
/venues/1722838,Space 9,Zürich,CH-8048,Hohlstrasse 452,Switzerland,47.38908,8.49605,,
/venues/3601409,Lions Club,Zürich,8048,Hohlstrasse 452,Switzerland,47.38908,8.49605,,
/venues/1628333,Planet 5,Zürich,8005,,Switzerland,47.38932,8.51316,,
/venues/829671,m4music Festival,Zürich,8005,Various Venues,Switzerland,47.38932,8.51316,,
/venues/3834364,Urban Bike Festival,Zürich,8005,,Switzerland,47.38932,8.51316,http://urbanbikefestival.ch/,
/venues/3951844,Kulturpark,Zürich,8005,,Switzerland,47.38932,8.51316,,
/venues/2944803,Pfingstweidpark,Zürich,8005,,Switzerland,47.38932,8.51316,,
/venues/3187709,Tea Time Swing,Zürich,8005,,Switzerland,47.38932,8.51316,,
/venues/4240664,Alte Reithalle Aarau,Aarau,5000,,Switzerland,47.39043,8.0457,,
/venues/3303524,Le Kiff,Aarau,,,Switzerland,47.39043,8.0457,,
/venues/4359233,Kirche Wölflinswil,Aarau,5063,Dorfplatz 345,Switzerland,47.39043,8.0457,http://www.woelflinswil.ch/de/portrait/kirche/roemischkatholisch/,
/venues/3549924,Metal Mayhem,Aarau,,,Switzerland,47.39043,8.0457,,
/venues/4153249,Riders Pub Densbüren,Aarau,5026,Hauptstrasse 8,Switzerland,47.39043,8.0457,,
/venues/3665669,Private Concert at 'Choschthuus',Aarau,,,Switzerland,47.39043,8.0457,,
/venues/4240669,Theater Tuchlaube,Aarau,5000,,Switzerland,47.39043,8.0457,,
/venues/1791258,Schloss Lenzburg,Zürich,5600,,Switzerland,47.39044,8.17215,,
/venues/3547889,RBL-Bar,Zürich,5600,,Switzerland,47.39044,8.17215,,
/venues/3547894,Metschgplatsch Festival,Zürich,5600,,Switzerland,47.39044,8.17215,,
/venues/1579828,Bleifrei,Aarau,5000,Buchserstrasse 19,Switzerland,47.39119,8.05939,http://www.bleifrei.ch,
/venues/1505428,Atelier Bleifrei,Aarau,5000,Buchserstrasse 19,Switzerland,47.39119,8.05939,,
/venues/1576113,Mehrspur,Zürich,8005,Förrlibuckstrasse 109,Switzerland,47.39137,8.51252,https://www.mehrspur.ch/,
/venues/35053,Rohstofflager,Zürich,8005,Förrlibuckstrasse 109,Switzerland,47.39137,8.51252,http://www.rohstofflager.ch/default.aspx,
/venues/3895664,Street Food Festival Zürich,Zürich,8048,Hardturmstrasse,Switzerland,47.39247,8.51366,http://street-food-festival.ch/,
/venues/2350514,Bernoullihäuser,Zürich,,Hardturmstrasse,Switzerland,47.39247,8.51366,,
/venues/1473213,Tuchlaube Cafe/ Bar,Aarau,,,Switzerland,47.3934,8.04312,,
/venues/2927823,Schlaflos Club,Aarau,,,Switzerland,47.3934,8.04312,,
/venues/2514484,House Concert,Aarau,,,Switzerland,47.3934,8.04312,,
/venues/2682838,Jubilair,Aarau,,,Switzerland,47.3934,8.04312,http://www.jubilair.ch/,
/venues/3032129,Makrokosmos,Aarau,,,Switzerland,47.3934,8.04312,,
/venues/2271764,Kuk,Aarau,5000,Schlossplatz 9,Switzerland,47.39387,8.04491,,/venues/1278031
/venues/1278031,Kultur- und Kongresshaus,Aarau,5000,Schlossplatz 9,Switzerland,47.39387,8.04491,,X
/venues/613876,Flösserplatz,Aarau,5000,Flösserstrasse 7,Switzerland,47.39438,8.04138,,/venues/3858089
/venues/3858089,Floesserplatz,Aarau,5000,Flösserstrasse 7,Switzerland,47.39438,8.04138,http://www.floesserplatz.ch,X
/venues/556646,Openair Wipkingen,Zürich,,Wipkingen,Switzerland,47.39442,8.52536,,
/venues/3881084,Schalter,Zürich,,Wipkingen,Switzerland,47.39442,8.52536,,
/venues/33267,KiFF,Aarau,5000,Tellistrasse 118,Switzerland,47.39869,8.0637,http://www.kiff.ch,X
/venues/2783883,"Kiff, Foyer",Aarau,5001,Tellistrasse 118,Switzerland,47.39869,8.0637,,/venues/33267
/venues/3657174,Ev. Kirche,St. Gallen,,,Switzerland,47.40788,9.46471,,
/venues/3108954,Höhenrausch,St. Gallen,,,Switzerland,47.40788,9.46471,,
/venues/4062604,Alumni Quattro Lounge,Zürich,8093,Stefano-Franscini-Platz 5,Switzerland,47.40856,8.50718,http://www.alumnilounge.ch/,X
/venues/3409754,Alumni Lounge / ETH Hönggerberg,Zürich,8093,Stefano-Franscini-Platz 5,Switzerland,47.40856,8.50718,,/venues/4062604
/venues/3339974,BalconyTV Zurich,Zürich,8050,Affolternstrasse 52,Switzerland,47.41074,8.54083,http://www.balconytv.com,
/venues/3094484,Gleis 9,Zürich,8050,Affolternstrasse 52,Switzerland,47.41074,8.54083,,X
/venues/3090564,Restaurant - Bar Perron 9,Zürich,8050,"MFO-Gebäude, Affolternstrasse 52",Switzerland,47.41074,8.54083,,/venues/3094484
/venues/3907809,Newborn Club,Zürich,8050,Siewerdtstrasse 71,Switzerland,47.41247,8.55438,,X
/venues/4359604,Porto,Zürich,8050,Siewerdtstrasse 71,Switzerland,47.41247,8.55438,,
/venues/4035169,Newborn Club Zürich,Zürich,8050,Siewerdtstrasse 71,Switzerland,47.41247,8.55438,,/venues/3907809
/venues/2362314,Kulturpunkt Flawil,Flawil,9230,St. Gallerstrasse 13,Switzerland,47.41291,9.18798,,/venues/4165424
/venues/4165424,KulturPunkt,Flawil,9230,St. Gallerstrasse 13,Switzerland,47.41291,9.18798,https://www.kulturpunkt-flawil.ch/,X
/venues/1760963,Tankstell Bar,St. Gallen,,.,Switzerland,47.41793,9.3644,,
/venues/2509004,Bierhalle,St. Gallen,,,Switzerland,47.41793,9.3644,,
/venues/2509009,Balgach,St. Gallen,,,Switzerland,47.41793,9.3644,,
/venues/3042374,Millionaires Club,St. Gallen,,,Switzerland,47.41793,9.3644,,
/venues/2962218,Lowen Bar,St. Gallen,,,Switzerland,47.41793,9.3644,,
/venues/2454469,Private Concert,St. Gallen,,,Switzerland,47.41793,9.3644,,
/venues/2496494,"Shopgig, Musik Hug",St. Gallen,,,Switzerland,47.41793,9.3644,,
/venues/2960563,C'est la vie,St. Gallen,,,Switzerland,47.41793,9.3644,,
/venues/3816529,Hotel Kronenhof,Zürich,8046,Wehntalerstrasse 551,Switzerland,47.41925,8.50521,,X
/venues/3852474,Kronensaal Hotel Kronenhof,Zürich,8046,Wehntalerstrasse 551,Switzerland,47.41925,8.50521,,/venues/3816529
/venues/4101459,Sankt Galler Eiszauber,St. Gallen,9000,Bogenstrasse 10,Switzerland,47.41964,9.36147,https://www.eiszauber.ch/,
/venues/4125934,DAS ZELT Bogenstrasse,St. Gallen,9000,Bogenstrasse 10,Switzerland,47.41964,9.36147,,
/venues/1764108,Lokremise,St. Gallen,9000,Grünbergstrasse 7,Switzerland,47.42129,9.36611,http://www.lokremise.ch,
/venues/2543079,Kinok,St. Gallen,9000,Grünbergstrasse 7,Switzerland,47.42129,9.36611,http://www.kinok.ch,
/venues/1901538,Einstein,St. Gallen,9000,Berneggstrasse 2,Switzerland,47.4214,9.37537,,
/venues/3732574,Honky Tonk (Hotel Einstein),St. Gallen,9000,Berneggstrasse 2,Switzerland,47.4214,9.37537,https://www.einstein.ch/home.html,
/venues/4368473,Ancien Aérodrome,Porrentruy,2900,,Switzerland,47.42255,7.07388,,
/venues/4347336,Hotel De Ville,Porrentruy,2900,,Switzerland,47.42255,7.07388,,
/venues/1676168,Backstage,St. Gallen,,,Switzerland,47.42448,9.37672,,
/venues/883191,Gambrinus Jazz Club,St. Gallen,,,Switzerland,47.42448,9.37672,,
/venues/3336029,Militärkantine,St. Gallen,,,Switzerland,47.42448,9.37672,http://www.militaerkantine.ch/,
/venues/3660654,Tankstelle,St. Gallen,,,Switzerland,47.42448,9.37672,,
/venues/3575729,Rumpletum,St. Gallen,,,Switzerland,47.42448,9.37672,,
/venues/3776434,"Oberriet, Motor Rumble",St. Gallen,,,Switzerland,47.42448,9.37672,,
/venues/3584534,Parkplatzfest,St. Gallen,,,Switzerland,47.42448,9.37672,,
/venues/3191454,Klub Villa,St. Gallen,,,Switzerland,47.42448,9.37672,,
/venues/3590199,Bangalow Family,St. Gallen,,,Switzerland,47.42448,9.37672,,
/venues/3279154,House Party,St. Gallen,,,Switzerland,47.42448,9.37672,,
/venues/99611,Sittertobel,St. Gallen,9000,,Switzerland,47.42456,9.3749,,
/venues/3880354,Aufgetischt St. Gallen,St. Gallen,9000,,Switzerland,47.42456,9.3749,,
/venues/2298874,Frauenbad Dreilinden,St. Gallen,9000,,Switzerland,47.42456,9.3749,,
/venues/4335050,JungKult Festival,St. Gallen,9000,,Switzerland,47.42456,9.3749,http://www.jungkult.ch,
/venues/2057329,Concerto,St. Gallen,9000,,Switzerland,47.42456,9.3749,,
/venues/1004201,"Innenhof, Historisches und Völkerkundemuseum",St. Gallen,9000,Museumsstrasse 50,Switzerland,47.4286,9.38296,,
/venues/1014316,Kulturfestival,St. Gallen,,Museum Street 50,Switzerland,47.4286,9.38296,,
/venues/151903,Olma Messen Halle,St. Gallen,9008,Splugenstrasse 12,Switzerland,47.43357,9.38586,https://www.olma-messen.ch/,
/venues/2732503,Messe - Halle 9.1,St. Gallen,9008,Splüngenstraße 12,Switzerland,47.43357,9.38586,,
/venues/3281484,Chapiteau Salto Natale,Kloten,8302,Parkplatz Holberg,Switzerland,47.44951,8.58216,,
/venues/3734999,Snus Bar,Kloten,,,Switzerland,47.44951,8.58216,,
/venues/82074,Eishalle,Kloten,,,Switzerland,47.44951,8.58216,,
/venues/4395065,High Five,Kloten,8302,,Switzerland,47.45265,8.57858,,
/venues/4026769,Reformierte Kirche Kloten,Kloten,8302,,Switzerland,47.45265,8.57858,,
/venues/4026774,Evang.-ref. Kirchgemeindehaus,Kloten,8302,,Switzerland,47.45265,8.57858,,
/venues/4026764,Büecheler-hus,Kloten,8302,,Switzerland,47.45265,8.57858,,
/venues/418986,Sportzentrum Tägerhard,Wettingen,5430,Tägerhardstrasse 112,Switzerland,47.45664,8.33324,,
/venues/2042734,Tägerhard Halle,Wettingen,5430,Tägerhardstrasse 112,Switzerland,47.45664,8.33324,,
/venues/2934693,Wettinger Sommerkonzerte,Wettingen,5430,Klosterstrasse 11,Switzerland,47.4569,8.31583,http://www.wettingersommerkonzerte.ch,
/venues/4362570,"Kantonsschule Wettingen, Aula",Wettingen,5430,Klosterstrasse 11,Switzerland,47.4569,8.31583,,
/venues/4411228,"Restaurant Müli, Mülligen",Aargau,5243,Mülirain 1,Switzerland,47.45911,8.24001,,
/venues/4419882,Strand Mülligen AG,Aargau,5243,Mülirain 1,Switzerland,47.45911,8.24001,,
/venues/3307124,L'Étage Sky Club,Wil,,,Switzerland,47.46356,9.04791,,
/venues/4342914,La Moka,Wil,9500,Dreilindenstrasse 50,Switzerland,47.46356,9.04791,http://la-moka.ch/,
/venues/3392889,Provi Buerglen,Wil,,,Switzerland,47.46356,9.04791,,
/venues/4344920,Open Klösti,Wil,9500,,Switzerland,47.46356,9.04791,,
/venues/3341069,World Food Festival,Wil,,,Switzerland,47.46356,9.04791,https://worldfoodfestival.ch/de,
/venues/4394262,Hinter dem alten Feuerwehrdepot,Wil,,Tonhallenstr. 23,Switzerland,47.46356,9.04791,,
/venues/3284969,"Wil, St. Gallen",Wil,,,Switzerland,47.46356,9.04791,,
/venues/2524099,Linde Pub,Wil,,,Switzerland,47.4665,9.04566,,
/venues/2550594,Red Lounge,Wil,9500,Tonhallenstrasse 24,Switzerland,47.4665,9.04566,,
/venues/1267706,Div. Beizen,Baden,5400,,Switzerland,47.46851,8.29722,,
/venues/2460804,"Stanzerei, Royal, Merkker, U.a",Baden,5400,,Switzerland,47.46851,8.29722,,
/venues/1615363,"Royal, Merkker Und Nordportal",Baden,5400,,Switzerland,47.46851,8.29722,,
/venues/4233294,Bäderquartier,Baden,5400,,Switzerland,47.46851,8.29722,,
/venues/4160204,The Bluus Club,Baden,Aargau 5400,,Switzerland,47.46851,8.29722,,
/venues/2400984,Cava Bar,Baden,5400,Untere Halde 9,Switzerland,47.47234,8.30993,http://www.cavabar.ch,
/venues/1471893,Cafe Cava,Baden,5400,Untere Halde 9,Switzerland,47.47234,8.30993,http://www.cafecava.ch/,
/venues/3573144,Badenfahrt,Baden,,,Switzerland,47.47288,8.30809,,
/venues/3432569,Tradinoi Mellingen,Baden,,,Switzerland,47.47288,8.30809,http://tradinoi.ch/,
/venues/962451,Blues Festival Baden Festival Grounds,Baden,,,Switzerland,47.47288,8.30809,,
/venues/3620934,Ocean Club - Badenfahrt 2017,Baden,,,Switzerland,47.47288,8.30809,,
/venues/3369264,Trudelhaus,Baden,,,Switzerland,47.47288,8.30809,http://www.visarte-aargau.ch/ausstellungsraum/index.html,
/venues/3591549,Stadtbibliothek Baden,Baden,,,Switzerland,47.47288,8.30809,,
/venues/1643153,One of a Million Music Festival,Baden,,,Switzerland,47.47377,8.30647,,
/venues/3090044,Primavista,Baden,,,Switzerland,47.47377,8.30647,http://primavista-music.ch,
/venues/2712558,Laden 5,Baden,,,Switzerland,47.47377,8.30647,,
/venues/2865288,House Show,Baden,,,Switzerland,47.47377,8.30647,,
/venues/3215473,Provisorium Baden,Baden,5400,Stadtturmstr. 1,Switzerland,47.47394,8.30679,,
/venues/3883989,Löschwasserbecken Lwb,Baden,5400,Stadtturmstrasse 1,Switzerland,47.47394,8.30679,,
/venues/2189939,Aktionshalle Stanzerei,Baden,5400,Bruggerstrasse 37,Switzerland,47.47573,8.30397,http://www.jazzgehtbaden.ch/gallery2009/stanzerei/index.html,
/venues/2760653,Merkker Kulturlokal,Baden,5400,Bruggerstrasse 37,Switzerland,47.47573,8.30397,,/venues/848676
/venues/848676,Merkker,Baden,5400,Bruggerstrasse 37,Switzerland,47.47591,8.30448,,X
/venues/946411,Stanzerei,Baden,5400,Bruggerstrasse 37,Switzerland,47.47591,8.30448,,
/venues/1926069,Stadtfest,Baden,5400,Bruggerstrasse 37,Switzerland,47.47591,8.30448,,
/venues/1509938,Royal,Baden,5400,Bahnhofstrasse 39,Switzerland,47.47625,8.30818,,
/venues/2760648,Kulturbetrieb Royal,Baden,5400,Bahnhofstrasse 39,Switzerland,47.47625,8.30818,,
/venues/4366906,Amphitheater Vindonissa,Zürich,5210,Amphirain 2,Switzerland,47.4769,8.21389,,
/venues/4380397,Das Zelt Windisch,Aargau,5210,Amphirain 2,Switzerland,47.4769,8.21389,,
/venues/984076,Kultur- und Kongresszentrum Trafo,Baden,5400,Brown Boveri Platz 1,Switzerland,47.47824,8.30507,,
/venues/1779818,Trafoplatz,Baden,5400,Brown Boveri Platz 1,Switzerland,47.47824,8.30507,,
/venues/1671073,Odeon,Zürich,,Bahnhofplatz 11,Switzerland,47.48148,8.20866,,
/venues/1881968,Kulturhaus Odeon,Zürich,5200,Bahnhofplatz 11,Switzerland,47.48148,8.20866,,
/venues/457221,Afro Pfingsten,Winterthur,8400,,Switzerland,47.48569,8.72929,https://www.afro-pfingsten.ch/,
/venues/2801868,Wiesendangen,Winterthur,8400,,Switzerland,47.48569,8.72929,,
/venues/3295499,Laura's Pub,Zürich,,,Switzerland,47.48674,8.21091,https://www.facebook.com/Lauras-Pub-144348125643768/,
/venues/3584489,Openair Lauschallee,Zürich,,,Switzerland,47.48674,8.21091,,
/venues/3668739,Winzerfest Döttingen,Zürich,,,Switzerland,47.48674,8.21091,,
/venues/3537259,Argovia Fäscht,Zürich,,,Switzerland,47.48674,8.21091,,
/venues/579441,Kraftfeld,Winterthur,8400,Lagerplatz 18,Switzerland,47.49483,8.71811,http://www.kraftfeld.ch/,X
/venues/1615623,Verein Kraftfeld,Winterthur,,Lagerplatz 18,Switzerland,47.49483,8.71811,,/venues/579441
/venues/2838453,Halle 53,Winterthur,8400,Katharina Sulzer-Platz,Switzerland,47.49614,8.71866,,X
/venues/3275469,"Halle 53, Sulzer Areal",Winterthur,8400,Katharina Sulzer Platz,Switzerland,47.49614,8.71866,,/venues/2838453
/venues/1485613,Trinity Bar,Basel,,,Switzerland,47.49645,7.59426,,
/venues/639881,Restaurant La Merveille,Basel,,,Switzerland,47.49645,7.59426,,
/venues/639826,Havanna Bar,Basel,,,Switzerland,47.49645,7.59426,,
/venues/1251111,Palais Noir,Basel,,,Switzerland,47.49645,7.59426,,
/venues/418591,X Club,Basel,,,Switzerland,47.49645,7.59426,,
/venues/2114929,Café Noire,Basel,,,Switzerland,47.49645,7.59426,,
/venues/4417442,Lokal,Winterthur,8400,Zürcherstrasse 41,Switzerland,47.49674,8.71604,https://www.facebook.com/lokal.winterthur/?ref=page_internal,X
/venues/4294499,Lokstadt / Halle Draisine,Winterthur,8400,Zürcherstrasse 41,Switzerland,47.49674,8.71604,,/venues/4417442
/venues/505121,Winterthurer Musikfestwochen,Winterthur,8400,Steinberggasse,Switzerland,47.49833,8.72866,http://www.musikfestwochen.ch/,
/venues/354756,Steinberggasse,Winterthur,8400,Steinberggasse,Switzerland,47.49833,8.72866,,
/venues/3654179,Kulturkoller,Winterthur,,,Switzerland,47.49882,8.72369,,
/venues/3366179,Zeughaus,Winterthur,,,Switzerland,47.49882,8.72369,,
/venues/3397159,Bolero,Winterthur,,,Switzerland,47.49882,8.72369,,
/venues/3191894,Kulturklub Tösstal,Winterthur,,,Switzerland,47.49882,8.72369,,
/venues/3291914,Andelfingen an der Thur,Winterthur,,,Switzerland,47.49882,8.72369,,
/venues/3345604,Wohnzimmerkonzert,Winterthur,,,Switzerland,47.49882,8.72369,,
/venues/3502089,Skulpturen Biennale,Winterthur,,,Switzerland,47.49882,8.72369,,
/venues/3261854,Schloss Hegi,Winterthur,,,Switzerland,47.49882,8.72369,,
/venues/3509114,The Blackhouse,Winterthur,,,Switzerland,47.49882,8.72369,,
/venues/3572539,Salzhaus Sommerbar,Winterthur,,,Switzerland,47.49882,8.72369,,
/venues/3467994,Hörbar im bloom,Winterthur,,,Switzerland,47.49882,8.72369,,
/venues/3592774,Dinhard WG Hausfest,Winterthur,,,Switzerland,47.49882,8.72369,,
/venues/3470634,Rotary Club,Winterthur,,,Switzerland,47.49882,8.72369,,
/venues/4392176,Kulturclub Tösstal Rebel Dia,Winterthur,8488,Käppelistrasse 14,Switzerland,47.49882,8.72369,,
/venues/2846208,Casinotheater Theatersaal,Winterthur,8400,Stadthausstrasse 119,Switzerland,47.49974,8.72661,,
/venues/2865058,Casinotheater Festsaal,Winterthur,8400,Stadthausstrasse 119,Switzerland,47.49974,8.72661,,
/venues/2469554,Villa K.,Winterthur,,,Switzerland,47.49995,8.73756,,
/venues/2830813,Güterschuppen Bahnhof Töss,Winterthur,,,Switzerland,47.49995,8.73756,,
/venues/2726283,Villa Kunterbunt,Winterthur,,,Switzerland,47.49995,8.73756,,
/venues/2865273,Meh Suff! Winter Festival,Winterthur,,,Switzerland,47.49995,8.73756,,
/venues/3046319,Schlosshof Kyburg,Winterthur,,Museum Schloss Kyburg 8314 Kyburg,Switzerland,47.49995,8.73756,,
/venues/2767808,Theater Winterthur Im Foyer,Winterthur,8400,Theaterstrasse 4,Switzerland,47.5018,8.72711,,
/venues/2767793,Theater Winterthur Studio,Winterthur,8400,Theaterstrasse 4,Switzerland,47.5018,8.72711,,
/venues/2450339,Kongress Und Kgh,Winterthur,8400,Liebestrasse 3,Switzerland,47.50214,8.72959,,/venues/2788493
/venues/2788493,Kongress- Und Kirchgemeindehaus,Winterthur,8400,Liebestrasse 3,Switzerland,47.50214,8.72959,,X
/venues/2764428,Kongresszentrum Parkarena,Winterthur,8404,Barbara Reinhartstr. 24,Switzerland,47.50316,8.76173,,
/venues/936296,Parkarena B. Reinhardt Str.,Winterthur,8400,Barbara Reinhart Strasse 24,Switzerland,47.50316,8.76173,,
/venues/4201719,Gate27 Auditorium,Winterthur,8400,Theaterstrasse 27,Switzerland,47.50389,8.72846,,X
/venues/3088769,"Gate 27, Theaterstr. 27",Winterthur,8400,Theaterstrasse 27,Switzerland,47.50389,8.72846,,/venues/4201719
/venues/3568464,Sicht Feld Openair,Basel,,,Switzerland,47.50852,8.01867,http://www.sichtfeld-openair.ch/,
/venues/3528909,Kino Monti,Basel,,,Switzerland,47.50852,8.01867,,
/venues/3709874,Living Room Show,Bulach,,,Switzerland,47.51607,8.54196,https://www.morganfinlay.com/home,
/venues/3548364,Altstadt Pub,Bulach,,,Switzerland,47.51607,8.54196,,
/venues/1487043,Sonne 56,Basel,,Pratteln,Switzerland,47.51832,7.69199,,
/venues/3505764,Mini 27,Basel,,,Switzerland,47.51832,7.69199,,
/venues/3307239,Masters of Symphonic Metal,Basel,,,Switzerland,47.51832,7.69199,,
/venues/3688679,Up in Smoke Vol. 5,Basel,,,Switzerland,47.51832,7.69199,,
/venues/1766678,Extremefest,Basel,,,Switzerland,47.52114,7.69167,,
/venues/2640148,Up in Smoke,Basel,,,Switzerland,47.52114,7.69167,,
/venues/260596,Metal Dayz,Basel,,,Switzerland,47.52114,7.69167,,
/venues/2930563,Hatefest,Basel,,,Switzerland,47.52114,7.69167,,
/venues/127855,Backstage,Basel,,,Switzerland,47.52114,7.69167,,
/venues/1538108,Guss39,Bulach,8180,Schaffhauserstrasse 102,Switzerland,47.52487,8.53685,,
/venues/936421,Guss 81-80,Bulach,8180,Schaffhauserstrasse 102,Switzerland,47.52487,8.53685,,
/venues/514666,Z7 Konzertfabrik,Basel,4133,KRAFTWERKSTRASSE 7,Switzerland,47.52729,7.69406,http://www.z-7.ch/,X
/venues/4233329,Z7 Summer Nights Open Air,Basel,4133,Kraftwerkstrasse 7,Switzerland,47.52729,7.69406,,/venues/514666
/venues/3517869,Jugendfest Rheinfelden,Basel,4310,Z7 Konzertfabrik Kraftwerkstrasse 7,Switzerland,47.52729,7.69406,http://www.z-7.ch/about.php?locationid=19,
/venues/4373910,Restaurant Traube Neukirch,St. Gallen,CH-9315,Amriswilerstrasse 2,Switzerland,47.52897,9.36993,http://traube-neukirch.ch,/venues/4373838
/venues/4373838,Restaurant Traube,St. Gallen,CH - 9315 Neukirch,Amriswilerstrasse 2,Switzerland,47.52897,9.36993,http://traube-neukirch.ch,X
/venues/3613384,Das Viertel Club,Basel,4052,St. Jakobstrasse 400,Switzerland,47.53967,7.62062,,
/venues/3613379,Gartenbad St. Jakob & Das Viertel Club,Basel,4052,St. Jakobstrasse 400,Switzerland,47.53967,7.62062,,
/venues/628886,St. Jakobshalle,Basel,4052,"Brüglingerstrasse, 21",Switzerland,47.5399,7.61826,http://www.stjakobshalle.ch/,X
/venues/3057224,"St. Jakobshalle, Grosse Halle",Basel,4028,Brüglingerstr. 21,Switzerland,47.5399,7.61826,,/venues/628886
/venues/1560703,St. Jacobshalle,Basel,4052,Brüglingerstr. 19-21,Switzerland,47.5399,7.61826,,/venues/628886
/venues/3010349,Openair St. Jakob + Garage,Basel,4052,Brüglingerstrasse 19-21,Switzerland,47.5399,7.61826,,/venues/628886
/venues/3010339,Openair Areal St. Jakob + Hinterhof Bar,Basel,4052,Brüglingerstrasse 19-21,Switzerland,47.5399,7.61826,,/venues/628886
/venues/3033044,Openair Areal St. Jakob,Basel,CH-4052,Brüglingerstr. 19-21,Switzerland,47.5399,7.61826,,/venues/628886
/venues/3010334,Openair St. Jakob,Basel,4052,Brüglingerstrasse 19-21,Switzerland,47.5399,7.61826,,/venues/628886
/venues/3010344,Openair St. Jakob + Nordstern,Basel,4052,Brüglingerstrasse 19-21,Switzerland,47.5399,7.61826,,/venues/628886
/venues/3033059,Openair Areal St. Jakob + Club Nordstern,Basel,CH-4052,Brüglingerstr. 19-21,Switzerland,47.5399,7.61826,,/venues/628886
/venues/1227956,Hinterhof Bar,Basel,4062,"Münchensteinerstrasse, 81",Switzerland,47.53992,7.60672,http://hinterhof.ch/,
/venues/3737064,Viertel Klub,Basel,4052,Münchensteinerstrasse 81,Switzerland,47.53992,7.60672,,
/venues/3584484,Viertel Dach,Basel,4052,Münchensteinerstrasse 81,Switzerland,47.53992,7.60672,,
/venues/3084344,Hinterhof Dachterrasse,Basel,CH-4052,Munchensteinerstrasse 81,Switzerland,47.53992,7.60672,http://hinterhof.ch/dachterrasse/,
/venues/418151,C4,Winterthur,,,Switzerland,47.54001,8.85172,,
/venues/418141,Tonbombe,Winterthur,,,Switzerland,47.54001,8.85172,,
/venues/1251076,Purple Park,Basel,4000,Meret Oppenheim-strasse 80,Switzerland,47.54551,7.59006,http://www.purplepark.ch/,
/venues/851231,Meret Oppenheimstrasse 80,Basel,4000,Meret Oppenheimstrasse 80,Switzerland,47.54551,7.59006,http://www.purplepark.ch/,
/venues/121743,Sommercasino,Basel,4052,Münchensteinstrasse 1,Switzerland,47.5474,7.59857,,X
/venues/1409428,Sommercasino Basel,Basel,,Münchensteinerstrasse 1,Switzerland,47.5474,7.59857,,/venues/121743
/venues/82750,Sommer Casino,Basel,,Münchensteinerstrasse  1,Switzerland,47.5474,7.59857,,/venues/121743
/venues/1410133,"Tresor Club, Summer Casino Basel",Basel,4052,Münchensteinerstrasse 1,Switzerland,47.5474,7.59857,,/venues/121743
/venues/960976,Sommerkasino,Basel,4052,Muchensteinerstrasse 1,Switzerland,47.5474,7.59857,,/venues/121743
/venues/851651,Somercasino,Basel,4052,Münchensteinerstrasse 1,Switzerland,47.5474,7.59857,,/venues/121743
/venues/560016,Bluegrass In Basel,Basel,,Peter Merian-Strasse 30,Switzerland,47.54822,7.59548,,
/venues/2476354,Jufa,Basel,4002,Peter Merian-Strasse 30,Switzerland,47.54822,7.59548,,
/venues/2663728,St. Jakobsareal,Basel,4052,Jakobsareal,Switzerland,47.54842,7.61017,,/venues/628886
/venues/3354509,St. Jakob Areal & Club Cafe Singer,Basel,4052,,Switzerland,47.54842,7.61017,,/venues/628886
/venues/4233219,"Ubs Schalterhalle , Aeschenvorstadt",Basel,4052,,Switzerland,47.54842,7.61017,,
/venues/3807974,Festhalle Rüegerholz,Winterthur,8500,Festhüttenstrasse 21,Switzerland,47.54942,8.89995,,/venues/84566
/venues/84566,Festhalle Rügerholz,Winterthur,8500,Festhuettenstrasse 21,Switzerland,47.54942,8.89995,,X
/venues/4161184,Blues Fest,Winterthur,,Festhüttenstrasse 1,Switzerland,47.54942,8.89995,,
/venues/58811,Atlantis,Basel,4051,Klosterberg 13,Switzerland,47.552,7.59057,,
/venues/4364160,Groove Now,Basel,4051,Klosterberg 13,Switzerland,47.552,7.59057,https://www.groovenow.ch/en/home,
/venues/4411229,Hotel Schützen,Basel,4310,Bahnhofstrasse 19,Switzerland,47.5531,7.79232,,
/venues/4391506,Restaurant Schützen,Basel,4310,Bahnhofstrasse 19,Switzerland,47.5531,7.79232,,
/venues/3249669,Theater Basel - Grosse Bühne,Basel,4051,Theaterstrasse 7,Switzerland,47.55357,7.5904,,
/venues/1629603,Theater - Foyer,Basel,4051,Theaterstrasse 7,Switzerland,47.55357,7.5904,,
/venues/2527519,Kult Kino,Basel,4051,Theaterstrasse 7,Switzerland,47.55357,7.5904,http://www.kultkino.ch/,
/venues/628996,Münsterplatz,Basel,4051,,Switzerland,47.55372,7.58607,,
/venues/3412624,Schifflände,Basel,4051,,Switzerland,47.55372,7.58607,,
/venues/2732288,Stadt-casino - Musiksaal,Basel,4000,Steinenberg 14,Switzerland,47.55425,7.58936,,X
/venues/2732583,Stadt-casino - Hans Huber Saal,Basel,4000,Steinenberg 14,Switzerland,47.55425,7.58936,,/venues/2732288
/venues/3449069,Tibidabo,Winterthur,8500,Altweg 5,Switzerland,47.55425,8.89415,http://www.tibidabo.ch,X
/venues/3182309,Tibi Dabo,Winterthur,8500,Altweg 5,Switzerland,47.55425,8.89415,,/venues/3449069
/venues/4363045,Kunstmuseum Basel - Innenhof ('jazz&art'),Basel,4051,St. Alban-Graben 16,Switzerland,47.55429,7.59403,,
/venues/4343560,"Kunstmuseum Basel, Hauptbau Innenhof",Basel,4051,St. Alban-Graben 16,Switzerland,47.55429,7.59403,,
/venues/1641558,"Festsaal, Stadtcasino Basel",Basel,4051,Steinenberg 14,Switzerland,47.5543,7.58954,,/venues/88834
/venues/1200066,"Hans Huber-Saal, Stadtcasino Basel",Basel,4051,Steinenberg 14,Switzerland,47.5543,7.58954,,/venues/88834
/venues/88834,Casino,Basel,4000,Steinenberg 14,Switzerland,47.5543,7.58954,,X
/venues/1741798,"Musikaal, Stadt-Casino",Basel,4051,Steinenberg 14,Switzerland,47.5543,7.58954,,/venues/88834
/venues/80955,Stadtcasino Basel,Basel,4005,"Steinenberg 14, Barfüsserplatz",Switzerland,47.55431,7.58946,,/venues/88834
/venues/4407762,Kunsthalle - Innenhof,Basel,4051,Steinenberg 12,Switzerland,47.55431,7.58946,,
/venues/4418868,Barock,Basel,4001,Freie Strasse 52,Switzerland,47.55571,7.59019,https://www.barock-club.ch/,X
/venues/4393608,Barrock,Basel,4001,Freie Strasse 52,Switzerland,47.55571,7.59019,https://www.barock-club.ch/?fbclid=IwAR3LRZgdQR-sGpXbrroENKO4aQ-JhdM-nc42ZSPfDfpL8EyOafQrqzMkH98,/venues/4418868
/venues/4411715,Ginial-Bar,St. Gallen,8590,Industriestrasse 6,Switzerland,47.55697,9.36788,https://www.facebook.com/fishgroup.ch,
/venues/4398148,Die Gin-Bar,St. Gallen,8590,Industriestrasse 6,Switzerland,47.55697,9.36788,https://fishgroup.ch/,
/venues/83393,Openair Frauenfeld,Winterthur,8500,Grosse Allmend,Switzerland,47.5573,8.89941,http://new.openair-frauenfeld.ch,X
/venues/2842773,Ölfleck,Winterthur,,,Switzerland,47.5573,8.89941,,
/venues/2104189,Dreiegg,Winterthur,,,Switzerland,47.5573,8.89941,http://www.kellerschuran.ch/,
/venues/474781,Frauendweld Open Air,Winterthur,,,Switzerland,47.5573,8.89941,,/venues/83393
/venues/125515,Racetrack,Winterthur,,,Switzerland,47.5573,8.89941,,
/venues/123515,Eishalle Deutweg,Winterthur,,,Switzerland,47.5573,8.89941,,
/venues/474811,Ministry Of Rock,Winterthur,,,Switzerland,47.5573,8.89941,,
/venues/115992,This Is A Hoax,Winterthur,,,Switzerland,47.5573,8.89941,,
/venues/2626963,"Theater Gleis 5, Forum Für Andere Musik",Winterthur,,,Switzerland,47.5573,8.89941,,
/venues/2853448,Brothers of Music,Winterthur,,,Switzerland,47.5573,8.89941,,
/venues/4366601,"Theater Fauteuil, Tabourettli",Basel,4051,Spalenberg 12,Switzerland,47.55735,7.58641,,X
/venues/4390325,Theater Fauteuil - Kaisersaal,Basel,4051,Spalenberg 12,Switzerland,47.55735,7.58641,,/venues/4366601
/venues/2504514,Bscene Festival,Basel,,,Switzerland,47.55742,7.59257,,
/venues/2077634,Musik-akademie,Basel,,,Switzerland,47.55742,7.59257,,
/venues/2446114,Stube,Basel,,,Switzerland,47.55742,7.59257,,
/venues/2453049,Velvet Club,Basel,,,Switzerland,47.55742,7.59257,,
/venues/2540609,VISK,Basel,,,Switzerland,47.55742,7.59257,,
/venues/1566783,Sud Basel,Basel,4058,Burgweg 15,Switzerland,47.55794,7.60127,,
/venues/2812388,Kulturbeiz 113,Basel,,"Burgweg 15, 4058 Klein-Basel",Switzerland,47.55794,7.60127,http://kulturbeiz113.ch/,
/venues/3023514,milk and Wodka,Basel,4058,Burgweg 15,Switzerland,47.55794,7.60127,http://www.milkandwodka.net/Newspage.html,
/venues/4370722,Offene Bühne Nadelberg,Basel,4051,Nadelberg 4,Switzerland,47.5587,7.58536,,
/venues/4376292,Offene Bühne Basel,Basel,,nadelberg 4,Switzerland,47.5587,7.58536,,
/venues/36157,Hirscheneck,Basel,4058,Lindenberg 23,Switzerland,47.5596,7.58858,http://www.hirscheneck.ch/,
/venues/3184134,"ARK, Ausstellungsraum Klingental",Basel,,,Switzerland,47.5596,7.58858,http://www.ausstellungsraum.ch,
/venues/3220139,Podium,Basel,,,Switzerland,47.5596,7.58858,,
/venues/3405414,Baloise Session,Basel,,,Switzerland,47.5596,7.58858,,
/venues/3654174,Alte Markthalle,Basel,,,Switzerland,47.5596,7.58858,,
/venues/3184859,Milchhüsli,Basel,,,Switzerland,47.5596,7.58858,,
/venues/3306264,Tension Festival,Basel,,Sankt Jakob Sportanlagen,Switzerland,47.5596,7.58858,http://www.tension-festival.ch/,
/venues/3556724,Beyeler Museum,Basel,,,Switzerland,47.5596,7.58858,,
/venues/3570934,Leimentaler Openair,Basel,,,Switzerland,47.5596,7.58858,,
/venues/3482869,Terrorsamba,Basel,,,Switzerland,47.5596,7.58858,,
/venues/3409154,Wohnzimmerkonzert,Basel,,,Switzerland,47.5596,7.58858,,
/venues/3287669,Hillchill Open Air,Basel,,,Switzerland,47.5596,7.58858,,
/venues/3307454,Patschifik,Basel,,,Switzerland,47.5596,7.58858,,
/venues/3574479,Aktienmühle,Basel,,,Switzerland,47.5596,7.58858,,
/venues/3126174,Doors Club,Basel,,,Switzerland,47.5596,7.58858,,
/venues/3341064,Giardino Unplugged,Basel,,,Switzerland,47.5596,7.58858,,
/venues/3130619,Messe Basel Hall,Basel,,,Switzerland,47.5596,7.58858,,
/venues/3639239,Veranda Pelicanò,Basel,,,Switzerland,47.5596,7.58858,,
/venues/3612019,Mitten in der Woche,Basel,,,Switzerland,47.5596,7.58858,,
/venues/3731204,The Looking Glass,Basel,,,Switzerland,47.5596,7.58858,,
/venues/3518864,Atelier Alemannengasse 44,Basel,,,Switzerland,47.5596,7.58858,,
/venues/3645229,Stone Room House Concerts,Basel,,,Switzerland,47.5596,7.58858,,
/venues/3639229,Veranda Pellicanò,Basel,,,Switzerland,47.5596,7.58858,,
/venues/3467544,Derrière La Gare Sbb,Basel,,,Switzerland,47.5596,7.58858,,
/venues/3739739,Baltazar Bar,Basel,,,Switzerland,47.5596,7.58858,,
/venues/3626369,Restaurant Sonne,Basel,,,Switzerland,47.5596,7.58858,,
/venues/3108539,Jazzcampus Basel,Basel,4058,Utengasse 15,Switzerland,47.56018,7.59322,,X
/venues/4402017,Jazz Campus Club,Basel,4058,Utengasse 15,Switzerland,47.56018,7.59322,,/venues/3108539
/venues/3133229,8 Bar,Basel,4058,Rheingasse 8,Switzerland,47.56036,7.59149,http://www.8-bar.eu/,
/venues/4016489,Look Inn bar & club,Basel,4058,8 Rhingasse,Switzerland,47.56036,7.59149,https://www.facebook.com/pg/lookinnbar/posts/,
/venues/3057249,Hotel Les Trois Rois - Salle Belle Epoque,Basel,4051,Blumenrain 8,Switzerland,47.56044,7.58767,,/venues/2761958
/venues/2761958,Hotel Drei Könige,Basel,4001,Blumenrain 8,Switzerland,47.56044,7.58767,,X
/venues/1986144,Grenzwert,Basel,,Rheingasse 3,Switzerland,47.56075,7.59146,,X
/venues/2283264,Grenzwert Bar,Basel,,Rheingasse 3,Switzerland,47.56075,7.59146,,/venues/1986144
/venues/83369,Eisenwerk,Winterthur,8500,Industriestrasse 23,Switzerland,47.56107,8.89393,http://www.eisenwerk.ch/eisenwerk/kultur/jazznow/,X
/venues/4233249,Eisenwerk Saal,Winterthur,8500,Industriestrasse 23,Switzerland,47.56107,8.89393,,/venues/83369
/venues/4033899,Genossenschaft Eisenwerk,Winterthur,8500,Industriestr. 23,Switzerland,47.56107,8.89393,,/venues/83369
/venues/2732368,Saal San Francisco Congress Center Basel,Basel,4058,Messeplatz 21,Switzerland,47.56274,7.59939,,
/venues/3366019,Congress Center - Eventhalle,Basel,4005,Messeplatz 21,Switzerland,47.56274,7.59939,,
/venues/2939923,"Romanshorn, Sommernachtsfest",St. Gallen,,,Switzerland,47.56373,9.37015,,
/venues/2996908,Raiffeisenbühne - Gelände Alter Fährehafen,St. Gallen,8590,,Switzerland,47.56373,9.37015,,
/venues/52979,Messe Basel,Basel,4058,Messeplatz,Switzerland,47.56378,7.60079,,X
/venues/2780428,Messe Eventhalle,Basel,4058,Messeplatz,Switzerland,47.56378,7.60079,,/venues/52979
/venues/2380664,Event Halle Basel,Basel,4058,Messeplatz,Switzerland,47.56378,7.60079,,/venues/52979
/venues/34315,Avo Session,Basel,4058 Bas,Messeplatz,Switzerland,47.56378,7.60079,http://www.avo.ch,
/venues/2433674,Event Halle,Basel,4058,Messeplatz,Switzerland,47.56378,7.60079,,/venues/52979
/venues/3652789,Messe Event Halle,Basel,4058,Messeplatz,Switzerland,47.56378,7.60079,,/venues/52979
/venues/1160906,Winterzauber,Basel,,Messeplatz,Switzerland,47.56378,7.60079,,
/venues/4364754,Messeplatz,Basel,4058,Messeplatz,Switzerland,47.56378,7.60079,,/venues/52979
/venues/3184189,"Swissbau, MCH",Basel,,Messeplatz,Switzerland,47.56378,7.60079,http://swissbau.ch,
/venues/3089844,"Messe Basel, Grosser Festsaal",Basel,4021,Messeplatz,Switzerland,47.56378,7.60079,,/venues/52979
/venues/69494,Reithalle,Basel,4057,"Klybeckstrasse, 1b",Switzerland,47.56381,7.59113,,/venues/814881
/venues/1625668,Kultur Parterre,Basel,CH-4057,Klybeckstr. 1b,Switzerland,47.56381,7.59113,http://www.parterre.net/,/venues/4126719
/venues/4126719,Parterre One,Basel,4057,Klybeckstrasse 1b,Switzerland,47.56381,7.59113,http://www.parterre-one.ch,X
/venues/4388987,Reithalle & Rossstall I,Basel,4058,Klybeckstrasse 1b,Switzerland,47.56381,7.59113,,/venues/814881
/venues/3155789,Parterre One Kultur,Basel,4058,Klybeckstrasse 1,Switzerland,47.56381,7.59129,,/venues/4126719
/venues/1487513,Parterre Eg Lounge,Basel,4000,Klybeckstrasse 1,Switzerland,47.56381,7.59129,,/venues/4126719
/venues/2186789,Reithalle & Rossställe,Basel,4058,Klybeckstrasse 1b,Switzerland,47.56381,7.59129,,/venues/814881
/venues/2760658,Kaserne (rossstall 1 & 2) + Reithalle,Basel,4057,Klybeckstr. 1b,Switzerland,47.56384,7.59128,,/venues/814881
/venues/2787218,Kaserne Basel - Reithalle,Basel,4057,Klybeckstrasse 1B,Switzerland,47.56384,7.59128,,/venues/814881
/venues/2621578,Open Air Basel,Basel,,"Klybeckstrasse 1b, 4057",Switzerland,47.56384,7.59128,http://www.openairbs.ch/,
/venues/2836478,Kaserne (rossstall 1),Basel,4057,Klybeckstrasse 1b,Switzerland,47.56384,7.59128,,/venues/814881
/venues/3172314,Musical-hall Basel,Basel,4058,,Switzerland,47.5656,7.61177,,
/venues/2831723,Pumpwerk,Basel,4058,,Switzerland,47.5656,7.61177,,
/venues/2425829,Cafe Salon,Basel,,Sperrstrasse 94,Switzerland,47.56565,7.59646,,/venues/2263329
/venues/3380419,Nebel,Basel,4057,Sperrstrasse 94,Switzerland,47.56565,7.59646,http://nebel.cloud,
/venues/2263329,Cafébar Salon,Basel,,Sperrstrasse 94,Switzerland,47.56565,7.59646,http://cafesalon.ch/basel/index.html,X
/venues/3877199,Festwiese Am See,St. Gallen,8590,,Switzerland,47.56571,9.3772,,
/venues/3949324,Alte Kirche,St. Gallen,8590,,Switzerland,47.56571,9.3772,http://kirchen-online.org/kirchen--kapellen-rund-um-den-bodensee-d-a-ch/romanshorn---alte-kirche.php,
/venues/3615854,Loewen Arena,St. Gallen,,,Switzerland,47.56571,9.3772,,
/venues/3317094,Alter Fährplatz,St. Gallen,8590,,Switzerland,47.56571,9.3772,,
/venues/4084374,Alpenblick,Basel,,Klybeckstrasse 29,Switzerland,47.56593,7.59093,,
/venues/3003324,Dock,Basel,,Klybeckstrasse 29,Switzerland,47.56593,7.59093,http://www.dock-basel.ch,
/venues/4365236,ROUINE,Basel,4057,Feldbergstrasse 71,Switzerland,47.56667,7.59242,https://www.rouine.ch/,
/venues/3481634,Terror Samba,Basel,4057,Feldbergstrasse 71,Switzerland,47.56667,7.59242,,
/venues/59804,"Gare du Nord, Bahnhof für Neue Musik",Basel,4058,Schwarzwaldallee 200,Switzerland,47.56739,7.60714,,/venues/2088739
/venues/2088739,Gare Du Nord - Theatersaal,Basel,4058,Schwarzwaldallee 200,Switzerland,47.56739,7.60714,,X
/venues/96548,Parterre One Music,Basel,4057,Klybeckstr. 1b,Switzerland,47.56744,7.59755,,/venues/4126719
/venues/2592758,Archiv,Basel,,,Switzerland,47.56744,7.59755,,
/venues/2814158,Ladybar,Basel,,,Switzerland,47.56744,7.59755,,
/venues/2575463,Singerhaus,Basel,,,Switzerland,47.56744,7.59755,http://www.singerhaus.ch/,
/venues/2644738,Art Basel,Basel,,,Switzerland,47.56744,7.59755,https://www.artbasel.com/en/Basel,
/venues/3024114,Comedy Club Balz,Basel,,,Switzerland,47.56744,7.59755,,
/venues/2992588,Landestelle,Basel,,,Switzerland,47.56744,7.59755,,
/venues/3083204,Silofest,Basel,,,Switzerland,47.56744,7.59755,http://www.erlenmatt-ost.ch/Erlenmatt-Ost/Silofest.html,
/venues/2953823,Imfluss Festival,Basel,,,Switzerland,47.56744,7.59755,,
/venues/2702943,Offbar,Basel,,,Switzerland,47.56744,7.59755,,
/venues/2891333,Kulturvilla,Basel,,,Switzerland,47.56744,7.59755,,
/venues/2640578,Fame Club,Basel,,,Switzerland,47.56744,7.59755,,
/venues/2610448,Basel City Studios,Basel,,,Switzerland,47.56744,7.59755,,
/venues/2650938,Gallery Art & Context,Basel,,,Switzerland,47.56744,7.59755,,
/venues/2854768,From The Amber Room,Basel,,,Switzerland,47.56744,7.59755,,
/venues/4228794,Rathaus Weinfelden,Weinfelden,8570 Weinfelden,Rathausstrasse 2,Switzerland,47.56861,9.10961,,
/venues/1636388,Rathaussaal Weinfelden,Weinfelden,8570,Rathausstrasse 2,Switzerland,47.56861,9.10961,,
/venues/2978988,"Konzertsaal, Union",Basel,4057,Klybeckstrasse 95,Switzerland,47.56891,7.59018,,/venues/3157199
/venues/3157199,Union,Basel,4057,Klybeckstraße 95,Switzerland,47.56891,7.59018,,X
/venues/2345409,Union Restaurant,Basel,4057,Klybeckstrasse 95,Switzerland,47.56891,7.59018,http://union-restaurant.com/,/venues/3157199
/venues/2597853,Union Kultur- Und Begegnungszentrum,Basel,4057,Klybeckstrasse 95,Switzerland,47.56891,7.59018,,/venues/3157199
/venues/1749958,Off Bar,Basel,4057,Offenburgerstrasse 59,Switzerland,47.56938,7.58999,,/venues/1378336
/venues/1378336,Off,Basel,,Offenburgerstrasse 59,Switzerland,47.56938,7.58999,,X
/venues/3084699,Rhypark,Basel,4056,Mühlhauserstrasse 17,Switzerland,47.56989,7.58305,,X
/venues/1218421,Saalbau Rhypark,Basel,4056,Mülhauserstrasse 17,Switzerland,47.56989,7.58305,,/venues/3084699
/venues/1049506,Rhyparkhalle,Basel,4056,Mülhauserstrasse 17,Switzerland,47.56989,7.58305,,/venues/3119174
/venues/3119174,Rhypark Halle,Basel,4056,Mülhauserstrasse 17,Switzerland,47.56989,7.58305,,X
/venues/593641,Rhypark - Voltahalle,Basel,,17 Muhlhausstrasse,Switzerland,47.56989,7.58305,,/venues/3119174
/venues/3480039,Freizeitzentrum Landauer,Basel,4125,Bluttrainweg 12,Switzerland,47.57001,7.63603,,
/venues/4390933,Kulturtreppe,Basel,4215,Bluttrainweg 12,Switzerland,47.57001,7.63603,https://www.kulturbuero-riehen.ch/Kulturtreppe,
/venues/3234314,Stellwerk Basel,Basel,,Vogesenplatz 1,Switzerland,47.57032,7.57263,,
/venues/2574389,Buffet,Basel,4056,Vogesenplatz 1,Switzerland,47.57032,7.57263,,
/venues/934791,Nordstern,Basel,4056,"Voltastrasse, 30",Switzerland,47.57106,7.58002,,
/venues/3758964,Volta Bräu,Basel,4056,Voltastrasse 30,Switzerland,47.57106,7.58002,https://www.voltabraeu.ch/,
/venues/938331,Borderline Club,Basel,4056,Hagenaustrasse 29,Switzerland,47.57402,7.56876,,X
/venues/1781228,Borderline 2.0,Basel,4056,Hagenaustrasse 29,Switzerland,47.57402,7.56876,,/venues/938331
/venues/509511,Grand Casino,Basel,4005,Flughafenstrasse 225,Switzerland,47.57421,7.56311,,X
/venues/1683403,Metro Club by Grand Casino,Basel,4012,Flughafenstrasse 225,Switzerland,47.57421,7.56311,,/venues/509511
/venues/794141,The Flower - Grand Casino Basel,Basel,4056,Flughafenstrasse 225,Switzerland,47.57421,7.56311,,/venues/509511
/venues/1924419,Basel Casino,Basel,,Flughafenstrasse 225,Switzerland,47.57421,7.56311,,/venues/509511
/venues/1416133,The Flower,Basel,4056,Flughafenstrasse 225,Switzerland,47.57421,7.56311,,
/venues/418596,Wenkenpark,Basel,4125,"Bettingerstrasse, 121",Switzerland,47.57496,7.65291,,X
/venues/2764448,Villa Wenkenhof,Basel,4125,Bettingerstrasse 121,Switzerland,47.57496,7.65291,,/venues/418596
/venues/2435949,Atelier Genossenschaft Grenze,Basel,4056,Elsässerstrasse 248,Switzerland,47.57641,7.57313,,
/venues/2338184,ELSÄSSERSTRASSE 248,Basel,,ELSÄSSERSTRASSE 248,Switzerland,47.57641,7.57313,,
/venues/2636388,Sommer Residenz,Basel,,Uferstrasse 40,Switzerland,47.5766,7.58679,http://www.sommerresidenz.ch/,
/venues/3108104,Hafenpavillon,Basel,4057,Uferstrasse 40,Switzerland,47.5766,7.58679,,
/venues/3879939,Hafechäs,Basel,4057,Uferstrasse 40,Switzerland,47.5766,7.58679,http://www.xn--hafechs-bxa.ch/,
/venues/4284259,Hafenscharte,Basel,4057,Uferstrasse 40,Switzerland,47.5778,7.58682,,
/venues/4420302,Gannet,Basel,4057,Uferstrasse 40,Switzerland,47.5778,7.58682,,
/venues/3536594,Marina,Basel,4057,Uferstrasse 80,Switzerland,47.58033,7.58647,,
/venues/3535974,L'Unique Foodtruck,Basel,,Uferstrasse 80,Switzerland,47.58033,7.58647,https://www.facebook.com/LUNIQUE-FOOD-TRUCK-1730610810512725/,
/venues/71667,Das Schiff,Basel,4057,Westquaistrasse 19,Switzerland,47.58373,7.58677,,X
/venues/1417803,Das Schiff & Borderline Club,Basel,4057,Westquaistrasse 19,Switzerland,47.58373,7.58677,,/venues/71667
/venues/1960029,Das Schiff & Club Borderline & Club Cirquit,Basel,4057,Westquaistrasse 19,Switzerland,47.58373,7.58677,,/venues/71667
/venues/3344549,Hill Chill Festival,Basel,,,Switzerland,47.58483,7.64991,http://www.hillchill.ch/,
/venues/3722799,Kornfeldkirche,Basel,,,Switzerland,47.58483,7.64991,https://www.erk-bs.ch/kg/riehen-bettingen/kornfeld-andreas,
/venues/4418301,Hotel Golf Panorama,Kreuzlingen,8564,Golfpanorama 6 Wäldi,Switzerland,47.62174,9.05828,http://www.golfpanorama.ch,X
/venues/4418309,Hotel Golf Panorama,Kreuzlingen,8564,Golfpanorama 6,Switzerland,47.62174,9.05828,http://www.golfpanorama.ch,/venues/4418301
/venues/3170229,Out Of Bounds,Kreuzlingen,,,Switzerland,47.64474,9.17079,http://www.outofbounds.eu/,
/venues/3599909,"VW-Luftgekühlten-Treffen, Altnau TG",Kreuzlingen,,,Switzerland,47.64474,9.17079,http://www.vw-bustreffen.ch/,
/venues/3321219,Hafenareal,Kreuzlingen,8280,,Switzerland,47.64474,9.17079,,
/venues/1949009,Herrenacker,Schaffhausen,8200,Herrenacker,Switzerland,47.69567,8.63352,,X
/venues/2225504,Altstadt Schaffhausen,Schaffhausen,8200,Herrenacker,Switzerland,47.69567,8.63352,,/venues/1949009
/venues/1292431,Festivalgelande Herrenacker,Schaffhausen,8200,Herrenacker,Switzerland,47.69567,8.63352,,/venues/1949009
/venues/3599914,Stars In Town,Schaffhausen,,,Switzerland,47.69589,8.63805,http://www.starsintown.ch/,
/venues/3650009,Kultur im Kammgarn (KiK),Schaffhausen,,,Switzerland,47.69589,8.63805,,
/venues/3170984,Schaffhauser Jazzfestival,Schaffhausen,,,Switzerland,47.69589,8.63805,http://www.jazzfestival.ch,
/venues/3707799,Pfarreizentrum St.Maria,Schaffhausen,,,Switzerland,47.69589,8.63805,,
/venues/3532824,Haberhaus Bühne,Schaffhausen,,,Switzerland,47.69589,8.63805,,
/venues/3656984,SVC Schaffhausen,Schaffhausen,,,Switzerland,47.69589,8.63805,,
/venues/2286379,Kammgarn/haberhaus/taptab,Schaffhausen,8200,,Switzerland,47.71142,8.62654,,
/venues/3555684,Mosergarten,Schaffhausen,8200,,Switzerland,47.71142,8.62654,,
