,venue,locality,postal_code,street,country,latitude,longitude,venue_website
/venues/1943879,"Sargans, Switzerland",Mels,8887,,Switzerland,47.0438,9.424,
/venues/2958443,"Kiental, Switzerland",Frutigen,3723,,Switzerland,46.5431,7.75573,http://naturalsound.ch
/venues/78549,"Wetzikon, Switzerland",Wetzikon,,,Switzerland,47.32706,8.80136,
/venues/29550,Hallenstadion,Zürich,8050,Wallisellenstrasse 45,Switzerland,47.41161,8.55166,http://www.hallenstadion.ch/
/venues/32239,Hive,Zürich,8005,Geroldstrasse 5,Switzerland,47.38537,8.52047,http://www.hiveclub.ch/
/venues/29644,Volkshaus,Zürich,8004,Stauffacherstrasse 60,Switzerland,47.37546,8.52722,http://www.volkshaus.ch/
/venues/33266,Schüür,Luzern,6005,Tribschenstrasse 1,Switzerland,47.04458,8.31125,http://www.schuur.ch
/venues/417561,Ebullition,Bulle,1630,rue de Vevey 34,Switzerland,46.61616,7.05432,http://www.ebull.ch
/venues/37717,Moods,Zürich,8005,Schiffbaustrasse 6,Switzerland,47.38865,8.5187,http://www.moods.ch
/venues/35057,Volkshaus,Basel,4058,"Rebgasse, 12",Switzerland,47.56118,7.59367,http://www.volkshaus-basel.ch/
/venues/804281,Gare de Lion,Wil,9500,"Silostrasse, 10",Switzerland,47.46128,9.03267,http://www.garedelion.ch
/venues/33267,KiFF,Aarau,5000,Tellistrasse 118,Switzerland,47.39869,8.0637,http://www.kiff.ch
/venues/618641,Exil,Zürich,8005,Hardstrasse 245,Switzerland,47.38821,8.51987,http://www.exil.cl
/venues/31724,Kaufleuten,Zürich,8001,Pelikanplatz,Switzerland,47.37106,8.53572,http://www.kaufleuten.ch
/venues/69432,Dynamo,Zürich,8006,Wasserwerkstrasse 21,Switzerland,47.3834,8.53938,http://www.dynamo.ch/
/venues/814881,Kaserne Basel,Basel,4057,Klybeckstrasse 1b,Switzerland,47.56452,7.5913,http://www.kaserne-basel.ch
/venues/184783,Kulturfabrik Kofmehl,Solothurn,4503,Kofmehlweg 1,Switzerland,47.20063,7.5283,
/venues/4176519,"Sobrio, Switzerland",Locarno,,,Switzerland,,,
/venues/78082,Bierhübeli,Bern,3012,Neubrückstrasse 43,Switzerland,46.95634,7.43789,http://www.bierhuebeli.ch/
/venues/514666,Z7 Konzertfabrik,Basel,4133,KRAFTWERKSTRASSE 7,Switzerland,47.52729,7.69406,http://www.z-7.ch/
/venues/35054,Les Docks,Lausanne,1004,34 rue Sévelin,Switzerland,46.52241,6.61925,http://www.lesdocks.ch/
/venues/30935,Rote Fabrik,Zürich,8038,"Seestrasse 395, Wollishofen",Switzerland,47.34337,8.5357,http://www.rotefabrik.ch
/venues/628886,St. Jakobshalle,Basel,4052,"Brüglingerstrasse, 21",Switzerland,47.5399,7.61826,http://www.stjakobshalle.ch/
/venues/58381,Salzhaus,Winterthur,8400,Untere Vogelsangstrasse 6,Switzerland,47.49759,8.72265,http://www.salzhaus.ch
/venues/32834,Mascotte,Zürich,8001 Zü,Theaterstrasse 10,Switzerland,47.36635,8.54669,http://www.mascotte.ch
/venues/58814,Mühle Hunziken,Bern,CH-3113,Hunziken,Switzerland,46.89116,7.54161,http://www.muehlehunziken.ch/
/venues/86235,El Lokal,Zürich,8001,Gessner Allee 11,Switzerland,47.37492,8.53418,http://www.ellokal.ch
/venues/130024,D Club,Lausanne,1000,Place Centrale 1,Switzerland,46.52067,6.63155,
/venues/33498,Fri-Son,Fribourg,CH-1700,Route de la Fonderie 13,Switzerland,46.7949,7.1519,http://www.fri-son.ch/
/venues/31959,Bad Bonn,Dudingen,3186,BONN 2,Switzerland,46.86157,7.18018,http://badbonn.ch/
/venues/388116,Kulturfabrik (KUFA) Lyss,Lyss,3250,Werdtstrasse 17,Switzerland,47.08065,7.29443,
/venues/49813,X-TRA,Zürich,8031,Limmatstrasse 118,Switzerland,47.38417,8.533,http://www.x-tra.ch/
/venues/836756,Marian's Jazzroom,Bern,3012,Hotel Innere Enge Engestrasse 54,Switzerland,46.96103,7.43941,
/venues/341441,La Parenthèse,Nyon,1260,Grand-rue 22bis,Switzerland,46.38327,6.23479,http://www.bar-laparenthese.ch
/venues/2837343,Le Romandie,Lausanne,1003,Place de l'Europe 1a,Switzerland,46.52012,6.63141,https://www.leromandie.ch/
/venues/1138086,Plaza,Zürich,8004,Badenerstrasse 109,Switzerland,47.37412,8.52462,
/venues/60548,Gaswerk Kulturzentrum,Winterthur,8406,Untere Schoentalstrasse 19,Switzerland,47.49455,8.70776,http://www.gaswerk.ch
/venues/32250,Abart,Zürich,8045,Manessestrasse 170,Switzerland,47.36167,8.52243,http://www.abart.ch/
/venues/1313491,Bogen F,Zürich,8005,Viaduktstrasse 97,Switzerland,47.38477,8.52086,http://www.bogenf.ch
/venues/45690,L'Usine,Geneva,1211,"4, Place Des Volontaires",Switzerland,46.204,6.13628,http://usine.ch
/venues/33304,KKL Luzern,Luzern,6005,Europaplatz 1,Switzerland,47.05032,8.31183,http://www.kkl-luzern.ch
/venues/393041,Papiersaal,Zürich,8045,Kalanderplatz 1,Switzerland,47.35803,8.52327,
/venues/59035,Kulturzentrum Kammgarn,Schaffhausen,8200,Baumgartenstrasse 19,Switzerland,47.69448,8.63673,
/venues/567551,Konzerthaus Schüür,Luzern,6005,Tribschenstrasse 1,Switzerland,47.04458,8.31125,http://www.schuur.ch
/venues/2998139,Sedel,Luzern,CH-6020 Emmenbrücke,Sedelhof 2,Switzerland,47.06626,8.29811,http://sedel.ch/
/venues/1129971,Komplex 457,Zürich,8048,Hohlstrasse 457,Switzerland,47.38732,8.49986,
/venues/121743,Sommercasino,Basel,4052,Münchensteinstrasse 1,Switzerland,47.5474,7.59857,
/venues/292466,Chollerhalle,Zug,6300,Chamerstrasse 177,Switzerland,47.18153,8.48366,
/venues/48460,Arena de Genève,Geneva,1218,"Route des Batailleux, 3",Switzerland,46.23333,6.11266,
/venues/559691,Galvanik,Zug,6300,Chamerstrasse 173,Switzerland,47.18133,8.48393,http://www.galvanik-zug.ch/
/venues/73461,Zukunft,Zürich,8004,Dienerstrasse 33,Switzerland,47.37824,8.52753,http://www.zukunft.cl
/venues/36158,Grabenhalle,St. Gallen,9000,Unterer Graben 17,Switzerland,47.42732,9.37416,http://www.grabenhalle.ch/
/venues/79392,Hafenkneipe,Zürich,8004,Militärstrasse 12,Switzerland,47.37634,8.53328,http://www.hafenkneipe-zh.ch/start.php
/venues/2742588,Musigburg,Aarburg,4663,Bahnhofstraße 50,Switzerland,47.3202,7.90717,https://musigburg.ch
/venues/101173,Dachstock,Bern,3001,Neubrückstrasse 8,Switzerland,46.95305,7.44016,http://www.dachstock.ch/
/venues/936361,Turnhalle im PROGR,Bern,3011,Speichergasse 4,Switzerland,46.95022,7.44299,
/venues/53101,Palace,St. Gallen,9004,Zwinglistr. 3,Switzerland,47.42662,9.37317,http://www.palace.sg
/venues/34157,Stall 6,Zürich,8001,Gessnerallee 8,Switzerland,47.37476,8.53471,http://www.stall6.ch/
/venues/357736,La Spirale,Fribourg,1700,Place du Petit-Saint-Jean 39,Switzerland,46.80391,7.16862,http://www.laspirale.ch
/venues/121833,Südpol,Luzern,6010,Arsenalstrasse 28,Switzerland,47.03806,8.29921,
/venues/33026,Dampfzentrale,Bern,3005,Marzilistrasse 47,Switzerland,46.94076,7.4442,http://www.dampfzentrale.ch/
/venues/71759,Treibhaus,Luzern,6005,Spelteriniweg 4,Switzerland,47.04249,8.31922,
/venues/58811,Atlantis,Basel,4051,Klosterberg 13,Switzerland,47.552,7.59057,
/venues/841911,Nordportal,Baden,5400,Schmiedestrasse 12/14,Switzerland,47.48129,8.30029,
/venues/766616,ISC Club,Bern,3012,Neubrückstrasse 10,Switzerland,46.95349,7.43981,http://www.isc-club.ch/programm
/venues/827531,Musigbistrot,Bern,3007,Mühlemattstrasse 48,Switzerland,46.94251,7.43351,http://www.musigbistrot.ch
/venues/114785,Kongresshaus Zürich,Zürich,8022,Gotthardstrasse 5,Switzerland,47.36599,8.53725,
/venues/59279,Scala,Wetzikon,8623,Tösstalstrasse 163,Switzerland,47.32739,8.82954,
/venues/302541,Café Kairo,Bern,3013,Dammweg 43,Switzerland,46.95884,7.44642,http://www.cafe-kairo.ch
/venues/36157,Hirscheneck,Basel,4058,Lindenberg 23,Switzerland,47.5596,7.58858,http://www.hirscheneck.ch/
/venues/53804,Albani,Winterthur,8400,Steinberggasse 16,Switzerland,47.49848,8.72917,http://www.albani.ch/
/venues/584981,Theater 11,Zürich,8050,Thurgauerstrasse 7,Switzerland,47.41068,8.54969,
/venues/71747,Cave12,Geneva,1202,Rue de la Prairie 4,Switzerland,46.20931,6.13531,http://cave12.org
/venues/93725,Jugend- & Kulturzentrum Gaskessel,Bern,3007,Sandrainstrasse 25,Switzerland,46.93835,7.4424,http://gaskessel.ch.vasco.sui-inter.net/
/venues/391996,Härterei,Zürich,8005,Hardstrasse 219,Switzerland,47.38572,8.51685,http://www.haertereiclub.ch
/venues/3673864,Le Nouveau Monde,Fribourg,1701,Esplanade de l'Ancienne-Gare 3,Switzerland,46.80202,7.1503,http://www.nouveaumonde.ch
/venues/934791,Nordstern,Basel,4056,"Voltastrasse, 30",Switzerland,47.57106,7.58002,
/venues/1161281,Alhambra,Geneva,1204,Rue de la Rotisserie 10,Switzerland,46.2026,6.14665,http://www.alhambra-geneve.ch/
/venues/98757,Théâtre du Léman,Geneva,1201,"19, Quai du Mont Blanc",Switzerland,46.21018,6.15088,
/venues/924806,Helsinki,Zürich,8005,Geroldstrasse 35,Switzerland,47.38582,8.51819,http://helsinkiklub.ch/
/venues/771656,Selig,Chur,7000,Welschdörfli 15,Switzerland,46.84764,9.52795,http://www.seligchur.ch
/venues/843506,"Nordportal Fjord, Baden",Baden,5400,Schmiedestrasse 12/14,Switzerland,47.48132,8.30027,
/venues/1509938,Royal,Baden,5400,Bahnhofstrasse 39,Switzerland,47.47625,8.30818,
/venues/419106,Amalgame Club,Yverdon-Les-Bains,1400,"AVENUE DES SPORTS, 5",Switzerland,46.7822,6.64921,http://www.amalgameclub.ch/
/venues/1129916,Alte Kaserne,Zürich,8001,Kanonengasse 20,Switzerland,47.37789,8.53007,
/venues/52528,Rocking Chair,Montreux,1800,Avenue Gilamont 60,Switzerland,46.472,6.85223,
/venues/1695338,La Gravière,Geneva,1227,9 Chemin de la Gravière,Switzerland,46.19741,6.13007,
/venues/96586,Le Bourg,Lausanne,1002,Rue de Bourg 51,Switzerland,46.52013,6.63663,http://www.le-bourg.ch/
/venues/64260,Auditorium Stravinski,Montreux,1820,Grand-Rue 95,Switzerland,46.43931,6.90471,
/venues/33300,Victoria Hall,Geneva,1204,"14, Rue Général-Dufour",Switzerland,46.2014,6.14106,
/venues/125908,Werkstatt Chur,Chur,7000,Untere Gasse 9,Switzerland,46.84873,9.53064,http://www.werkstattchur.ch
/venues/1267811,Coq D'or,Olten,4600,Tannwaldstrasse 48,Switzerland,47.35159,7.90864,
/venues/2503484,Treppenhaus,Rorschach,,Kirchstrasse 3,Switzerland,47.47755,9.49539,
/venues/1644218,Eldorado,Zürich,8005,Limmatstrasse 109,Switzerland,47.38373,8.53265,
/venues/67423,Le Mad,Lausanne,1003,Rue de Geneve 23,Switzerland,46.52187,6.62717,
/venues/2783883,"Kiff, Foyer",Aarau,5001,Tellistrasse 118,Switzerland,47.39869,8.0637,
/venues/3236954,Samsung Hall Zürich,Dubendorf,8600,Hoffnigstrasse 1,Switzerland,47.39574,8.59802,https://www.samsunghall.ch/
/venues/4238264,Falken Pub Hotel Frauenfeld Switzerland,Winterthur,,,Switzerland,,,https://www.motelfalken.ch/
/venues/125906,"Dachstock, Reitschule",Bern,3001,Schützenmatte,Switzerland,47.03436,7.31387,http://www.reitschule.ch
/venues/548756,Kugl,St. Gallen,9000,Güterbahnhofstr. 4,Switzerland,47.41878,9.36465,
/venues/196788,Altes Spital,Solothurn,4500,Oberer Winkel 2,Switzerland,47.20489,7.53553,
/venues/33268,La Case à Chocs,Neuchatel,2000,Quai Philippe Godet 20,Switzerland,46.98923,6.9218,http://www.case-a-chocs.ch
/venues/1502028,Gonzo,Zürich,8004,Langstrasse 135,Switzerland,47.38007,8.5277,http://Gonzoclub.ch
/venues/96548,Parterre One Music,Basel,4057,Klybeckstr. 1b,Switzerland,47.56744,7.59755,
/venues/58780,Schützenhaus Albisgütli,Zürich,8045,Uetlibergstrasse 341,Switzerland,47.35217,8.50824,
/venues/896376,Chäslager,Stans,6370,Alter Postplatz 3,Switzerland,46.95784,8.36548,
/venues/903721,Piazza Grande Di Locarno,Locarno,6601,Piazza Grande,Switzerland,46.16977,8.79623,
/venues/80955,Stadtcasino Basel,Basel,4005,"Steinenberg 14, Barfüsserplatz",Switzerland,47.55431,7.58946,
/venues/2121814,Ebrietas,Zürich,8001,Zähringerstrasse 39,Switzerland,47.37589,8.5445,http://www.ebrietas.ch
/venues/1209316,Frieda's Büxe,Zürich,8003,Friedaustr. 23,Switzerland,47.37739,8.5109,
/venues/32891,Le Zoo,Geneva,1204,4 Pl. des Volontaires,Switzerland,46.20397,6.13589,http://www.lezoo.ch/
/venues/76850,Musical Theatre,Basel,CH - 405,Erlenstrasse 1,Switzerland,47.56916,7.59817,
/venues/1576113,Mehrspur,Zürich,8005,Förrlibuckstrasse 109,Switzerland,47.39137,8.51252,https://www.mehrspur.ch/
/venues/2123529,Kinski,Zürich,8004,Langstrasse 112,Switzerland,47.3789,8.52729,http://www.kinski-klub.ch/
/venues/3116444,Werkk Kulturlokal,Baden,5400,Schmiedstrasse 1,Switzerland,47.36783,8.37961,
/venues/898101,Kuppel,Basel,4051,Biningerstrasse 14,Switzerland,47.54995,7.58486,
/venues/201723,Galery Music Bar,Basel,4133,Rütiweg 9,Switzerland,47.52391,7.70807,http://galery.ch/start.php
/venues/479686,Salle Métropole,Lausanne,1003,Rue de Genève 12,Switzerland,46.52207,6.62815,https://www.sallemetropole.ch
/venues/3324239,Halle 622,Zürich,8050,Therese-Giehse-Strasse 10,Switzerland,47.41333,8.5424,http://halle622.ch/
/venues/834556,MAAG Halle,Zürich,8005,Hardstrasse 219,Switzerland,47.38572,8.51685,http://www.bymaag.ch
/venues/1575583,Ono,Bern,CH-3011,Kramgasse 6,Switzerland,46.94815,7.45196,http://www.onobern.ch
/venues/96464,Usine à Gaz,Nyon,1260,"1, rue César Soulié",Switzerland,46.3838,6.24393,
/venues/77146,Stadthalle Sursee,Sursee,6210,Sankt-Urban-Strasse,Switzerland,47.17407,8.10793,http://www.stadthalle-sursee.ch/
/venues/2040279,Club Baronessa,Zürich,5600,Sägestrasse 44,Switzerland,47.39313,8.17792,
/venues/2929128,Le Singe,Biel,2502,Untergasse 21,Switzerland,47.1417,7.24703,https://www.lesinge.ch
/venues/120770,Mad Club,Lausanne,1003,Rue de Genève 23,Switzerland,46.52205,6.62724,http://www.madclub.ch
/venues/451801,Supermarket,Zürich,8005,Geroldstrasse 17,Switzerland,47.38562,8.51966,
/venues/613876,Flösserplatz,Aarau,5000,Flösserstrasse 7,Switzerland,47.39438,8.04138,
/venues/45346,St. Jakob-Park,Basel,4052,Sankt Jakobs-Strasse 397,Switzerland,47.5407,7.6208,http://www.baselunited.ch/default.aspx?group=sjp&code=00
/venues/417666,Chat Noir,Geneva,1227,Rue Vautier 13,Switzerland,46.18504,6.14242,
/venues/879931,Widder Bar,Zürich,8001,Rennweg 7 8001,Switzerland,47.37253,8.53985,
/venues/58729,Casino,Herisau,9100,Poststrasse 9,Switzerland,47.38463,9.2779,
/venues/420031,Boschbar,Zürich,8005,Sihlquai 240,Switzerland,47.38766,8.52994,
/venues/418426,Pont Rouge,Monthey,1870,Avenue de Plantaud 122,Switzerland,46.25056,6.96431,http://www.pontrouge.ch
/venues/48388,Stadion Wankdorf,Bern,3000,Papiermühlestrasse 71,Switzerland,46.96315,7.46504,http://www.stadedesuisse.ch/
/venues/4017674,"Heaven Music Club, Balterswil",Winterthur,8362,Hauptstrasse 35,Switzerland,47.57882,8.9409,
/venues/579441,Kraftfeld,Winterthur,8400,Lagerplatz 18,Switzerland,47.49483,8.71811,http://www.kraftfeld.ch/
/venues/129304,Moonwalker Music Club,Aarburg,4663,Bahnhofstrasse 50,Switzerland,47.32023,7.90724,
/venues/853821,Cabaret,Zürich,8005,Geroldstrasse 15,Switzerland,47.38552,8.51987,
/venues/846531,"Großer Saal, Dynamo",Zürich,8006,Wasserwerkstrasse 21,Switzerland,47.3834,8.53938,
/venues/2901428,Horst Klub,Kreuzlingen,,,Switzerland,47.6442,9.18026,http://www.horstklub.ch/
/venues/3063514,Musical Theater Basel,Basel,4058,Feldbergstr. 151,Switzerland,47.56755,7.59815,
/venues/1227956,Hinterhof Bar,Basel,4062,"Münchensteinerstrasse, 81",Switzerland,47.53992,7.60672,http://hinterhof.ch/
/venues/2125964,Rössli Bar,Bern,5053,Reitschule Bern  Neubrückstr. 8,Switzerland,46.95296,7.44066,
/venues/417541,Krempel,Buchs,9470,"Zentrum Neuhof, Wiedenstrasse 48",Switzerland,47.1664,9.46883,
/venues/3962434,OldCapitol,Langenthal,4900,Spitalgasse 6,Switzerland,47.21104,7.78967,
/venues/2919713,Le Port Franc,Sion,1950,Route de Riddes 87,Switzerland,46.22175,7.36869,http://leportfranc.ch
/venues/822036,Club Bonsoir,Bern,3011,Aarbergergasse 33-35,Switzerland,46.9495,7.44263,http://www.bonsoir.ch
/venues/196798,Mokka,Bern,3600,Allmendstrasse 14,Switzerland,46.75977,7.62386,
/venues/245568,Bleu Lézard,Lausanne,1003,Rue Enning 10,Switzerland,46.52017,6.63766,
/venues/122961,Tap Tab,Schaffhausen,8200,Baumgarten Strasse 19  Postfach 1583,Switzerland,,,
/venues/3500544,Tonhalle Maag,Zürich,8005,Zahnradstrasse 22,Switzerland,47.38653,8.51656,
/venues/1803858,Basel Switzerland,Basel,,,Switzerland,,,
/venues/3072259,Gaswerk Eventbar,Basel,6423 Seewen,Bahnhofstrasse 180b,Switzerland,47.02978,8.6291,
/venues/419406,Stadthalle Bülach,Bulach,8180,Allmendstrasse 8,Switzerland,47.51574,8.53642,http://www.stadthalle-buelach.ch/
/venues/35053,Rohstofflager,Zürich,8005,Förrlibuckstrasse 109,Switzerland,47.39137,8.51252,http://www.rohstofflager.ch/default.aspx
/venues/1305711,La Cave Du Bleu Lézard,Lausanne,1003,Enning 10,Switzerland,46.52007,6.63772,http://www.bleu-lezard.ch/index.php
/venues/4390478,"Grimentz, Switzerland",Sierre,3961,"Ìlot Bosquet, Grimentz",Switzerland,46.17031,7.56906,
/venues/4390481,"Evolène, Switzerland",Sierre,1983,,Switzerland,46.29413,7.53354,
/venues/1897328,Switzerland Concert,Bern,,sollbis@bluewin.ch,Switzerland,,,
/venues/4418082,"Effingen, Switzerland",Zürich,,,Switzerland,,,
/venues/842001,L'Ecurie,Geneva,1201,Rue de Montbrillant 14,Switzerland,46.2118,6.14177,
/venues/59184,Stadtkeller,Luzern,6004,Sternenplatz 3,Switzerland,47.05305,8.30717,
/venues/2462799,Post Tenebras Rock (PTR) - L'Usine,Geneva,1204,Place des Volontaires 4,Switzerland,46.204,6.13628,http://ptrnet.ch
/venues/65323,Palladium,Geneva,1204,Rue du Stand 3,Switzerland,46.20325,6.13487,
/venues/3541979,Sender (GDS.FM),Zürich,8004,Kurzgasse 4,Switzerland,47.37726,8.52758,http://www.gds.fm
/venues/143748,Kulturwerk 118,Sursee,CH-6210,Postfach,Switzerland,47.17272,8.10457,http://www.kulturwerk118.ch/
/venues/71667,Das Schiff,Basel,4057,Westquaistrasse 19,Switzerland,47.58373,7.58677,
/venues/447936,Salzhaus,Zürich,5200,Schulthessallee,Switzerland,47.48477,8.20794,
/venues/2184499,Amboss Rampe,Zürich,8005,Zollstrasse 80,Switzerland,47.38127,8.5314,http://www.ambossrampe.ch
/venues/938331,Borderline Club,Basel,4056,Hagenaustrasse 29,Switzerland,47.57402,7.56876,
/venues/2955063,"Sala Teatro, LAC",Lugano,6900,Piazza Bernardino Luini 6,Switzerland,46.00006,8.9484,
/venues/418431,Théâtre de Beausobre,Morges,11100,Av. de Vertou 2,Switzerland,46.51657,6.49984,http://www.beausobre.ch/
/venues/83369,Eisenwerk,Winterthur,8500,Industriestrasse 23,Switzerland,47.56107,8.89393,http://www.eisenwerk.ch/eisenwerk/kultur/jazznow/
/venues/130232,Industrie 45 (I45),Zug,6302,Industriestrasse 45,Switzerland,47.18222,8.52076,
/venues/1518363,Hotel Murten,Bern,3280,Bernstrasse 7,Switzerland,46.92975,7.12088,
/venues/2407879,Neubad,Luzern,6002,Bireggstrasse 36,Switzerland,47.04152,8.30658,https://neubad.org
/venues/2161894,Paraiba Bar & Club,Olten,4600,Muehlegasse 12,Switzerland,47.34933,7.90249,http://www.paraiba.ch
/venues/684791,SAS,Basel,CH-2800,"Delémont, rue du 23 juin",Switzerland,47.36509,7.3433,http://www.sasdelemont.ch
/venues/950941,Bar 59,Luzern,6000,Industriestrasse 5,Switzerland,47.04142,8.31132,
/venues/1318116,Sud,Basel,4058,Burgweg 7,Switzerland,47.55814,7.60118,http://www.sud.ch/
/venues/1897333,Switzerland Concert,Geneva,,sollbis@bluewin.ch,Switzerland,,,
/venues/662361,Stadthalle Dietikon,Dietikon,8953,Fondlistrasse 15,Switzerland,47.40704,8.38693,http://www.stadthalle-dietikon.ch/
/venues/1188696,Martinskirche,Basel,4051,Martinskirchplatz 4,Switzerland,47.55886,7.58853,
/venues/4390495,"Delemont, Switzerland",Basel,,,Switzerland,,,
/venues/928041,MàD,Geneva,1204,20 bis rue du Stand,Switzerland,46.20303,6.13489,
/venues/54131,Elisabethenkirche,Basel,4051,Elisabethenstrasse 10,Switzerland,47.55326,7.59155,
/venues/827386,La Catrina,Zürich,8004,Brauerstrasse 15,Switzerland,47.37731,8.5279,
/venues/37718,Schützi,Olten,4600,Schützenmattweg 15,Switzerland,47.34823,7.90301,http://cy4u.wordpress.com
/venues/418386,Les Caves du Manoir,Martigny,CH-1920,"Place du Manoir 1, CP 240",Switzerland,46.1024,7.07226,http://www.cavesdumanoir.ch/caves/
/venues/1209741,Pfingstweide,Zürich,8005,Pfingstweidstrasse 12,Switzerland,47.38751,8.51818,
/venues/34277,Salles des Fêtes de Thônex,Geneva,1226 Thônex,Avenue Tronchet 16,Switzerland,46.19419,6.20467,http://thonexlive.ch/
/venues/850431,Zermatt Unplugged Festival,Zermatt,,,Switzerland,,,http://www.zermatt-unplugged.ch
/venues/3607324,Dynamo Werk 21,Zürich,8006,Wasserwerkstrasse 21,Switzerland,47.3833,8.53931,https://www.dynamo.ch/
/venues/1393868,Bar3000,Zürich,8004,Dienerstrasse 33,Switzerland,47.37812,8.52743,http://bar3000.ch
/venues/418471,Bar King,Neuchatel,2000,Rue du Seyon 38,Switzerland,46.99352,6.92777,http://barking.ch/
/venues/1808203,KKL Luzernersaal,Luzern,6005,Europa Platz 1,Switzerland,47.05032,8.31183,http://www.kkl-luzern.ch
/venues/603186,Bee-Flat im Progr,Bern,3001,"Atelier 155, Waisenhausplatz 30",Switzerland,46.95016,7.44387,http://www.bee-flat.ch
/venues/2489629,Miniz7,Basel,4133,Kraftwerkstrasse 4,Switzerland,47.52672,7.69418,
/venues/3190884,OXIL,Zofingen,4800,Obere Brühlstrasse 6,Switzerland,47.28494,7.94405,http://www.oxil.ch
/venues/1605014,Bar Rossi,Zürich,8004,Sihlhallenstrasse 3,Switzerland,47.37947,8.5272,http://www.bar-rossi.ch/
/venues/1491008,Met-bar,Zürich,5600,Niederlenzerstrasse 29,Switzerland,47.39115,8.18034,
/venues/895931,Dolder Eisbahn,Zürich,8044,Adlisbergstrasse 36,Switzerland,47.37561,8.57674,
/venues/384866,Bikini Test,La Chaux De Fonds,2300,La Joux-Perret 3,Switzerland,47.11301,6.84564,http://www.bikinitest.ch/
/venues/82459,Tonhalle,St. Gallen,9000,Museumstrasse 25,Switzerland,47.42755,9.38015,
/venues/418871,Café Bar Mokka,Bern,3600,Allmendstrasse 14,Switzerland,46.75977,7.62386,http://www.mokka.ch/
/venues/52979,Messe Basel,Basel,4058,Messeplatz,Switzerland,47.56378,7.60079,
/venues/684776,Jazzkantine,Luzern,6004,Grabenstrasse 8,Switzerland,47.05327,8.30579,http://www.jazzkantine.com/
/venues/420066,Sektor11,Zürich,8050,Andreasstrasse 70,Switzerland,47.41304,8.55846,
/venues/105196,Coupole,Biel,2503,Neumarktstrasse 35,Switzerland,47.13672,7.25201,
/venues/108189,Montreux Jazz Festival,Montreux,,,Switzerland,46.43122,6.91068,
/venues/2773373,Stadthaus Winterthur Konzertsaal,Winterthur,8400,Stadthausstrasse 4a,Switzerland,47.50102,8.73138,
/venues/59278,Palazzo Chur,Chur,7000,Seilerbahnweg 9,Switzerland,46.84694,9.52747,http://www.palazzochur.ch
/venues/509511,Grand Casino,Basel,4005,Flughafenstrasse 225,Switzerland,47.57421,7.56311,
/venues/950646,Rössli,Bern,3001,Neubrückstrasse 8,Switzerland,46.95305,7.44016,http://www.roessli.be/
/venues/3661314,Presswerk,Arbon,9320,Hamelstrasse,Switzerland,47.51052,9.43183,
/venues/474766,Theater Casino Zug,Zug,6300,Artherstrasse 2-4,Switzerland,47.16458,8.5139,http://www.theatercasino.ch
/venues/418501,Boröm Pöm Pöm,Oberentfelden,5036,Köllikerstrasse 32,Switzerland,47.35331,8.04301,
/venues/2894903,Studio Foce,Lugano,6900,Foce 1,Switzerland,46.00562,8.9613,http://www.foce.ch
/venues/921086,Sunset,Martigny,1920,Pl. de Rome,Switzerland,46.10454,7.0748,
/venues/2470719,Kaufleuten Festsaal,Zürich,8001,Pelikanstrasse 18,Switzerland,47.37176,8.53639,http://www.kaufleuten.ch
/venues/898621,The Bird's Eye Jazz Club,Basel,4051,Kohlenberg 20,Switzerland,47.55503,7.58755,http://www.birdseye.ch/
/venues/697821,Escherwyss,Zürich,8005,Hardstrasse 305,Switzerland,47.38998,8.52128,
/venues/52876,Tonhalle Zürich,Zürich,8002,Claridenstrasse 7,Switzerland,47.36618,8.53823,
/venues/79030,Ziegel Oh Lac,Zürich,8038,Seestrasse 407,Switzerland,47.34312,8.53604,http://www.ziegelohlac.ch/
/venues/3667439,Casinotheater Winterthur,Winterthur,8400,Stadthausstrasse 119,Switzerland,47.49974,8.72662,
/venues/43173,Paleo Festival,Nyon,,Paléo Festival Nyon Rte de St-Cergue 312 CP 1320 CH - 1260 NYON 1,Switzerland,46.40236,6.21161,
/venues/2767098,Fmr Bar,Geneva,1204,Rue du Stand 9,Switzerland,46.2034,6.13573,http://www.fmrbar.ch
/venues/583406,Alte Börse,Zürich,8001,Bleicherweg 5,Switzerland,47.36872,8.53785,
/venues/418421,Undertown,Geneva,,Place des Cinq-Continents 1,Switzerland,46.23231,6.08107,
/venues/2834658,Venue Tba – bern (hotel Innere Enge Or Marians Jazzroom),Bern,3012,Engestrasse 54,Switzerland,46.96103,7.43941,
/venues/3660454,Audio,Geneva,,,Switzerland,46.20439,6.14316,
/venues/3737064,Viertel Klub,Basel,4052,Münchensteinerstrasse 81,Switzerland,47.53992,7.60672,
/venues/1343711,Portier,Winterthur,8400,Lagerplatz 3,Switzerland,47.4958,8.7188,
/venues/50662,Rock City,Uster,8610,Aathalstr. 74,Switzerland,47.34584,8.73934,
/venues/1153811,"Musiksaal, Stadtcasino Basel",Basel,4051,"Steinenberg 14, Barfüsserplatz",Switzerland,47.55421,7.58949,
/venues/51503,Reithalle,Bern,3001,P.O. Box 5053,Switzerland,46.94763,7.44043,
/venues/1527358,Kiste,Baden,5400,Zürcherstr. 1,Switzerland,47.47117,8.30628,http://www.kiste-baden.ch
/venues/417496,Kuzeb,Bremgarten,5620,Zürcherstrasse 2,Switzerland,47.35077,8.3445,
/venues/462496,La Cappella,Bern,3014,Allmendstrasse 24 3014 Bern,Switzerland,46.95947,7.45184,https://www.la-cappella.ch/de/
/venues/2413654,Nebia poche,Biel,2502,Rue Haute 1,Switzerland,47.14215,7.24635,http://www.nebia.ch
/venues/926036,Plaine de l'Asse,Nyon,CP 1320,Rte De St-cergue 312,Switzerland,,,
/venues/2654753,LA MAKHNO,Geneva,1205,4 place des Volontaires,Switzerland,46.204,6.13628,http://www.facebook.com/lamakhno
/venues/1483203,Schadausaal (kkthun),Bern,3504,Seestrasse 68,Switzerland,46.74324,7.62953,
/venues/1379846,Gewerbehalle,Luzern,,,Switzerland,,,
/venues/3370389,Casino Bad Ragaz,Chur,,,Switzerland,47.00341,9.50111,http://www.casinoragaz.ch/events/live-musik.html
/venues/265516,Satellite,Lausanne,1015,"Ecole Polytechnique Federale de Lausanne, Avenue Picard",Switzerland,46.51906,6.56676,https://www.satellite.bar/
/venues/121167,Werk21,Zürich,8006,Wasserwerkstrasse 21,Switzerland,47.3834,8.53938,https://www.dynamo.ch/
/venues/3172319,Kaschemme,Basel,4052,Lehenmattstrasse 356,Switzerland,47.54356,7.62032,
/venues/34655,Theaterhaus Gessnerallee,Zürich,Ch-8001,Gessnerallee 8,Switzerland,47.37476,8.53471,
/venues/1657148,The Bruch Brothers,Luzern,LU 6003,Baslerstrasse 7,Switzerland,47.05164,8.29938,
/venues/1573508,KAPITEL Bollwerk,Bern,3011,Bollwerk 41,Switzerland,46.95165,7.44173,http://www.kapitel.ch/
/venues/51173,Miles Davis Hall,Montreux,1820,Grande Rue 95,Switzerland,46.43752,6.90755,
/venues/4031764,Kater,Zürich,8004,Kanonengasse 33,Switzerland,47.37818,8.53003,
/venues/575161,AMR,Geneva,1201,10 Rue des Alpes,Switzerland,46.20973,6.14583,https://www.amr-geneve.ch/
/venues/1230741,Mundwerk,Bern,3600,Obere Hauptgasse 49,Switzerland,46.75866,7.6303,
/venues/53932,BOA,Luzern,6005,Geissensteinring 41,Switzerland,47.04125,8.31381,
/venues/2208879,Klubi,Zürich,8037,Wasserwerkstrasse 89a,Switzerland,47.38658,8.53443,http://klubi.ch/
/venues/188313,Queen Kong Club,Neuchatel,2000,Quai Philippe Godet 20,Switzerland,46.98923,6.9218,
/venues/2625643,XoXo Club,Lausanne,1003,Côtes-de-Montbenon 20,Switzerland,46.52111,6.6269,http://www.xoxoclub.ch/
/venues/2929708,Kauz,Zürich,,,Switzerland,47.36865,8.53918,
/venues/418166,Restaurant Eintracht,Kirchberg,9533,Neudorfstrasse 5,Switzerland,47.41217,9.04048,
/venues/3744039,Läbesruum,Winterthur,8400,Pflanzschulstrasse 17,Switzerland,47.49541,8.74069,
/venues/1749958,Off Bar,Basel,4057,Offenburgerstrasse 59,Switzerland,47.56938,7.58999,
/venues/606526,Bejazz,Bern,,Könizstrasse 161,Switzerland,46.93556,7.41679,
/venues/617176,Longstreet Bar,Zürich,8004,Langstrasse 92,Switzerland,47.37804,8.52685,
/venues/3621989,kulturfabrikbigla,Bern,3507 Biglen,Syrengasse 2,Switzerland,46.92404,7.62957,
/venues/1109886,Rok,Luzern,6003,Seidenhofstrasse 5,Switzerland,47.05006,8.30762,
/venues/505121,Winterthurer Musikfestwochen,Winterthur,8400,Steinberggasse,Switzerland,47.49833,8.72866,http://www.musikfestwochen.ch/
/venues/2346244,Kirche Neumünster,Zürich,8008,Neumünsterallee 21,Switzerland,47.36118,8.55816,
/venues/849546,Palazzo Dei Congressi,Lugano,6900,Piazza Indipendenza 4,Switzerland,46.00506,8.95644,
/venues/354756,Steinberggasse,Winterthur,8400,Steinberggasse,Switzerland,47.49833,8.72866,
/venues/1552938,Blok,Zürich,8005,Schiffbaustrasse 3,Switzerland,47.3885,8.51893,
/venues/4176679,Humbug,Basel,4057,Klybeckstrasse 241,Switzerland,47.57593,7.58856,https://www.humbug.club
/venues/3402319,U-Bar,Lausanne,1003,Rue de la Vigie 5,Switzerland,46.5218,6.62479,
/venues/585256,Neues Theater Spirgarten,Zürich,8048,Lindenplatz 5,Switzerland,47.38739,8.48542,
/venues/4413713,"St. Aubin, Switzerland",Neuchatel,,,Switzerland,,,
/venues/1552753,Mundwerk,Zürich,8050,Dörflistrasse 76,Switzerland,47.40894,8.55059,http://mw-club.ch
/venues/1004876,Obere Mühle,Dubendorf,8600,Oberdorfstrasse 15,Switzerland,47.39533,8.62396,https://www.oberemuehle.ch/
/venues/45352,Letzigrund Stadion,Zürich,8048,Badenerstrasse 500,Switzerland,47.38267,8.5038,
/venues/3760149,SpaceMonki,Zürich,8005,Limmatstr. 275,Switzerland,47.38877,8.52507,http://www.spacemonki.ch
/venues/898156,La Ruche,Lausanne,,,Switzerland,,,
/venues/637256,Rümpeltum,St. Gallen,9000,Haldenstrasse 23,Switzerland,47.41974,9.37127,
/venues/34278,Eulachhalle,Winterthur,8400,Wartstrasse 73,Switzerland,47.50321,8.71229,http://www.eulachhallen.ch
/venues/1091171,Kafi fürDich,Zürich,8004,Stauffacherstrasse 141,Switzerland,47.37726,8.52299,http://fuerdich.ch/
/venues/2226354,Star Club,Uster,CH-8610,Aathalstrasse 76,Switzerland,47.34554,8.73944,http://www.starclub-uster.ch/
/venues/3626914,Old Capitol,Langenthal,4900,Spitalgasse 6,Switzerland,47.21108,7.78992,https://oldcapitol.ch/
/venues/418581,Théâtre de l'Octogone,Lausanne,1099,Avenue de Lavaux 41,Switzerland,46.51211,6.66076,https://theatre-octogone.ch/
/venues/1394158,Langstars,Zürich,,Langstrasse 120,Switzerland,47.37927,8.52757,http://www.langstars.com/web/
/venues/4412885,The Mall of Switzerland,Luzern,,,Switzerland,,,
/venues/45125,Festhalle,Bern,3014,Mingerstrasse 6,Switzerland,46.95928,7.46381,
/venues/196793,Taptab,Schaffhausen,8200,Baumgartenstrasse,Switzerland,47.69467,8.6368,
/venues/1683403,Metro Club by Grand Casino,Basel,4012,Flughafenstrasse 225,Switzerland,47.57421,7.56311,
/venues/2265329,TANK,Zürich,8001,Stüssihofstatt 15 (im Niederdorf),Switzerland,47.3746,8.54384,http://www.restaurant-tank.ch
/venues/2550429,Hotel Wetterhorn,Bern,6083 Hasliberg,Hohfluh,Switzerland,46.75188,8.17321,http://www.wetterhorn-hasliberg.ch
/venues/492161,Cully Jazz Festival,Lausanne,,Place de l'Hôtel-de-Ville 2  Case postale 138,Switzerland,46.4885,6.73071,
/venues/581561,Kursaal Arena,Bern,3013,Kornhausstrasse 3,Switzerland,46.9531,7.44938,
/venues/418251,Kraftwerk,Krummenau,9643,Im Trempel,Switzerland,47.24873,9.16517,http://www.kraftwerk-club.ch/
/venues/1661543,Stadtsaal,Wil,9500,Bahnhofstrasse 6,Switzerland,47.46316,9.04167,
/venues/2114774,Flon,St. Gallen,9000,Davidstrasse 42,Switzerland,47.41992,9.36764,
/venues/1021236,"Barfussbar, Frauenbadi",Zürich,8001,Stadthausquai 12,Switzerland,47.36847,8.54202,http://www.barfussbar.ch
/venues/75654,Live at Sunset/Dolder,Zürich,8044,Adlisbergstrasse 35,Switzerland,47.37612,8.57785,http://www.liveatsunset.ch
/venues/3520584,Phrontistery,Luzern,,,Switzerland,47.05017,8.30931,
/venues/54921,Théâtre de Beaulieu,Lausanne,1004,Avenue Bergières 10,Switzerland,46.52943,6.6229,
/venues/130108,Weetamix,Geneva,,,Switzerland,,,
/venues/907436,Duo Club,Biel,2500,Zentralstrasse 54,Switzerland,47.13577,7.24763,
/venues/2041619,Audioasyl.net,Zürich,,,Switzerland,,,
/venues/2408139,Kulturclub Maison Pierre,Burgdorf,3400,Scheunenstrasse 3,Switzerland,47.05376,7.62243,http://www.kultur-club.ch
/venues/116012,Opernhaus Zürich,Zürich,8008,Falkenstrasse 1,Switzerland,47.36464,8.54648,
/venues/418771,Kulturkarussell Rössli,Stäfa,8712,Bahnhofstrasse 1,Switzerland,47.23949,8.71878,http://kulturkarussell.ch/
/venues/1409428,Sommercasino Basel,Basel,,Münchensteinerstrasse 1,Switzerland,47.5474,7.59857,
/venues/101332,Ned Music Club,Montreux,1820,Rue du Marché 19,Switzerland,46.43391,6.91234,
/venues/275196,Cafe Mokka,Bern,3600,Allmendstrasse 14,Switzerland,46.75977,7.62386,
/venues/616116,Event Stage,Zizers,7201,Rheinrutenen 5,Switzerland,46.92013,9.56099,
/venues/114659,Kanzlei Club,Zürich,8004,Kanzleistrasse 56,Switzerland,47.37552,8.52581,http://www.kanzlei.ch/
/venues/3781454,Restaurant Rechberg 1837,Zürich,8001,Chorgasse 20,Switzerland,47.37404,8.5462,
/venues/912306,Stairs Club,Zürich,,,Switzerland,,,
/venues/2167164,Kalvingrad,Geneva,1240,4 Place Des Volontaires,Switzerland,46.204,6.13628,
/venues/417751,SoundDock 14,Dietikon,8953,Limmatfeld-Strasse 14 (Rüchligstrasse 14),Switzerland,,,
/venues/3803274,Punk Bar,Lausanne,1003 Lausanne,Place de l'Europe 9,Switzerland,46.52109,6.6298,
/venues/2171889,Chapiteau,Lausanne,1096,Place d'Armes,Switzerland,46.48845,6.73283,
/venues/2732373,Tonhalle Zürich - Grosser Saal,Zürich,8002,Claridenstrasse 7,Switzerland,47.36609,8.53797,
/venues/835571,Eishalle,Wetzikon,8620,"Rapperswilerstrasse,",Switzerland,47.31361,8.80096,
/venues/92831,Scène Ella Fitzgerald,Geneva,1207,Parc La Grange,Switzerland,46.20654,6.16748,http://www.musiquesenete.ch
/venues/105150,The Living Room,Lugano,6900,Via Trevano 89/A,Switzerland,46.02054,8.95776,
/venues/2196839,ZAK,Zürich,8645,Werkstrasse 9,Switzerland,47.23204,8.83434,
/venues/1107501,Le Cabinet,Geneva,1205,Boulevard St Georges,Switzerland,46.20131,6.13503,
/venues/1467723,Mouton Noir,Fribourg,1700,Grand'Rue 36,Switzerland,46.80498,7.16507,https://www.facebook.com/lemoutonnoir.ch/
/venues/2171894,Next Step,Lausanne,1096,Place d'Armes,Switzerland,46.48845,6.73283,
/venues/2780428,Messe Eventhalle,Basel,4058,Messeplatz,Switzerland,47.56378,7.60079,
/venues/848676,Merkker,Baden,5400,Bruggerstrasse 37,Switzerland,47.47591,8.30448,
/venues/2171899,Temple de Cully,Lausanne,1096,Place du Temple 2,Switzerland,46.48876,6.72968,
/venues/1063161,Restaurant Viadukt,Zürich,8005,Viaduktstrasse 69/71,Switzerland,47.3862,8.52218,http://www.restaurant-viadukt.ch
/venues/2408529,Café Marta,Bern,3011,Kramgasse 8,Switzerland,46.94813,7.45186,http://cafemarta.ch/
/venues/3302489,Elysia,Basel,,Frankfurt Strasse 36 Basel,Switzerland,47.5318,7.60755,http://www.elysia.ch/
/venues/3938509,Konservi Seon,Zürich,5703,Seetalstrasse 2,Switzerland,47.35232,8.15947,
/venues/2660583,Tabourettli,Basel,4001,Spalenberg 12,Switzerland,47.55754,7.58676,
/venues/50991,Dolce Vita,Lausanne,,,Switzerland,,,
/venues/418351,Biomill,Laufen,4242,Delsbergstrasse 181,Switzerland,47.40996,7.49333,
/venues/459956,Musikcontainer,Uster,,,Switzerland,,,
/venues/66426,Kongresshaus Biel,Biel,2502,Zentralstrasse 60,Switzerland,47.13488,7.24856,
/venues/126333,AJZ Gaskessel,Biel,2500,Gaskessel / Coupole,Switzerland,,,
/venues/1111161,Casino De Montbenon,Lausanne,1003,Allée Ernest-ansermet 3,Switzerland,46.52038,6.62502,
/venues/105720,D! Club| Place Centrale,Lausanne,1001,Place Centrale 1,Switzerland,46.52067,6.63155,http://www.dclub.ch
/venues/2535024,AKuT,Bern,,Seestrasse 20,Switzerland,46.75053,7.63322,http://fdfthun.wordpress.com
/venues/84629,Montreaux Casino,Montreux,1820,,Switzerland,46.42761,6.95941,
/venues/835141,Stanser Musiktage,Stans,6003,Stans Dorfplatz,Switzerland,46.95719,8.36597,http://www.stansermusiktage.ch
/venues/794491,Pentorama,Amriswil,8580,Arbonerstrasse 2,Switzerland,47.54493,9.29916,
/venues/2014299,Lady Bar,Basel,4057,Feldbergstrasse 47,Switzerland,47.56642,7.59077,
/venues/96257,Le Chat Noir,Geneva,1227,13 rue Vautier,Switzerland,46.18505,6.14225,http://www.chatnoir.ch
/venues/841756,JazzAscona,Locarno,,,Switzerland,46.15732,8.77736,http://www.jazzascona.ch
/venues/363346,Mariaberg,Rorschach,9400,Hauptstrasse 45,Switzerland,47.478,9.49396,
/venues/687066,Le Bouffon de la Taverne,Geneva,,,Switzerland,,,
/venues/2170524,Die Cafete,Bern,,,Switzerland,,,
/venues/91819,KAB-Usine,Geneva,,,Switzerland,,,
/venues/291286,Zimmer31,Winterthur,,,Switzerland,,,
/venues/3868174,"Kloster Dornach, Dornach",Solothurn,4143,Amthausstrasse 7,Switzerland,47.48837,7.61027,
/venues/2307379,Salzhaus Brugg,Zürich,5200,Schulthess Avenue,Switzerland,47.4846,8.20789,
/venues/2124334,Les Amis,Bern,,,Switzerland,,,
/venues/941611,Les Citrons Masques,Yverdon-Les-Bains,1400,Rue des Pêcheurs 4,Switzerland,46.78023,6.6444,http://citronsmasques.ch
/venues/1949009,Herrenacker,Schaffhausen,8200,Herrenacker,Switzerland,47.69567,8.63352,
/venues/3202093,Neo,Zürich,8004,Europaallee 47,Switzerland,47.37889,8.53244,
/venues/1215251,Theatersaal Hotel National,Bern,3011,Hirschengraben 24,Switzerland,46.94614,7.43698,
/venues/2285989,Club Joy Grand Casino Baden,Baden,5400,Haselstr. 2,Switzerland,47.47825,8.30985,
/venues/927206,Vernissage,Zermatt,3920,Bodmenstrasse 14,Switzerland,46.02321,7.74724,
/venues/1566783,Sud Basel,Basel,4058,Burgweg 15,Switzerland,47.55794,7.60127,
/venues/56855,Patinoire de Malley,Lausanne,1008,14 Chemin du Viaduc,Switzerland,46.52878,6.60022,
/venues/4377154,"Koller Events, Luxory",Grenchen,2540,Maienstrasse 6,Switzerland,47.19048,7.40552,
/venues/344316,Hacienda,Sierre,,,Switzerland,,,
/venues/56853,Patinoire du Littoral,Neuchatel,2000,Quai Robert-Comtesse 4,Switzerland,46.99419,6.94433,
/venues/1546893,Bagatelle,Zürich,,Langstrasse 93,Switzerland,47.37817,8.52662,http://www.bagatelle93.ch
/venues/2251019,La Datcha,Lausanne,1003 Lausanne,Côtes-de-Montbenon 13,Switzerland,46.52143,6.62534,http://la-datcha.ch/
/venues/1621258,Antigel Festival,Geneva,,,Switzerland,46.20439,6.14316,http://www.antigel.ch
/venues/1486108,Vario Bar,Olten,,,Switzerland,,,
/venues/2732288,Stadt-casino - Musiksaal,Basel,4000,Steinenberg 14,Switzerland,47.55425,7.58936,
/venues/2847073,Johanneskirche,Zürich,8005,Limmatstrasse 114,Switzerland,47.38406,8.53325,
/venues/1583148,Kulturzentrum Holästei,Zürich,8750,Industrie Holenstein,Switzerland,47.03132,9.07648,
/venues/2761488,En Vogue,Geneva,1201,Quai Du Seujet 18,Switzerland,46.2053,6.13544,
/venues/1844993,Le Ciel,Bern,,,Switzerland,,,
/venues/1486103,La Madeleine,Luzern,6003,Baselstrasse 15,Switzerland,47.05175,8.29826,
/venues/117390,Kreuz Kultur,Solothurn,4500,Kreuzgasse 4,Switzerland,47.20688,7.53773,https://www.kreuzkultur.ch/
/venues/1130551,Moulin a Danses,Geneva,,20 Bis Rue Du Stand,Switzerland,46.20303,6.13489,
/venues/2362314,Kulturpunkt Flawil,Flawil,9230,St. Gallerstrasse 13,Switzerland,47.41291,9.18798,
/venues/2744828,Neubad Luzern,Luzern,3003,Bireggstrasse 36,Switzerland,47.04135,8.30684,
/venues/1596888,Mythic Club,Fribourg,,,Switzerland,,,
/venues/2943888,TapTab Musikraum,Schaffhausen,8200,Baumgartenstrasse 19,Switzerland,47.69448,8.63624,http://www.taptab.ch
/venues/75032,Eishalle Deutweg,Winterthur,8400,Grüzefeldstraße 30,Switzerland,47.49544,8.74819,
/venues/1063166,Club Cardinal,Schaffhausen,8200,Bahnhofstrasse 102,Switzerland,47.7008,8.63624,
/venues/361791,"Chessu, Coupole",Biel,,,Switzerland,,,
/venues/2760648,Kulturbetrieb Royal,Baden,5400,Bahnhofstrasse 39,Switzerland,47.47625,8.30818,
/venues/3466239,Folklor Club,Lausanne,1005,Place de la Riponne 10,Switzerland,46.52451,6.6335,http://www.folklor.club
/venues/3265249,Estivo Festival Lugano Switzerland,Lugano,,,Switzerland,46.00368,8.95105,
/venues/1764988,B-Sides Festival,Luzern,,Sonnenberg,Switzerland,47.04411,8.27345,http://b-sides.ch/
/venues/2432809,Galicia Musik Bar,Olten,4600,Unterführungsstrasse 20,Switzerland,47.34954,7.90878,
/venues/708816,Kunstraum Walcheturm,Zürich,8004,kanonengasse 20,Switzerland,47.37789,8.53007,http://www.walcheturm.com
/venues/2305504,Kulturhof (pfrundschüür),Bern,3098,Muhlernstrasse 11,Switzerland,46.9207,7.41421,
/venues/1579063,Das Zelt,Luzern,6005,Alpenquai,Switzerland,47.04516,8.31994,
/venues/1863163,Volière,Luzern,6000,Inseliquai,Switzerland,47.04871,8.31417,http://3fach.ch
/venues/854636,Lorzensaal,Cham,6330,Dorfplatz 3,Switzerland,47.18074,8.45944,
/venues/3434204,Le Salopard,Biel,2502,Rue Centrale 48,Switzerland,47.13601,7.24731,https://www.facebook.com/lesalopard/
/venues/2879913,Point 11,Sion,,rue du Grand Pont 11,Switzerland,46.23382,7.36037,https://www.facebook.com/pages/Point-11
/venues/1092946,Taco's Bar Sarl - Switzerland,Lausanne,,,Switzerland,,,
/venues/4413702,"Croix-de-Rozon, Switzerland",Geneva,1257,,Switzerland,46.20439,6.14316,
/venues/969011,Schwarzer Engel,St. Gallen,,,Switzerland,,,
/venues/1072606,Theater am Gleis,Winterthur,8400,Untere Vogelsangstrasse 3,Switzerland,47.49844,8.72334,http://www.theater-am-gleis.ch
/venues/3303529,Manoir Pub,Lausanne,1890,Grand Rue 84,Switzerland,46.22049,7.00479,http://www.manoirpub.ch
/venues/491561,Casino Théâtre,Geneva,1205,Rue de Carouge 42,Switzerland,46.19461,6.1433,http://www.ville-ge.ch/culture/casinotheatre/
/venues/3236984,Renée Bar,Basel,,Klingental 18,Switzerland,47.56257,7.59147,http://www.renee.ch
/venues/733641,Peter Pan,Locarno,6500,"Via Murate, 2",Switzerland,46.19334,9.01744,
/venues/492141,Salle Communale,Geneva,1213,"131, route de Chancy",Switzerland,46.1831,6.10054,http://www.spectaclesonesiens.ch/fr/
/venues/944331,Le Bout Du Monde,Montreux,,"Rue d'Italie, 24",Switzerland,46.45824,6.85097,
/venues/1173106,Moa Club,Geneva,,,Switzerland,,,
/venues/4002689,Kulturhalle Sägegasse,Burgdorf,3400,Sägegasse 17,Switzerland,47.05497,7.63019,https://saegegasse.ch/
/venues/1551503,Jade,Zürich,,,Switzerland,,,
/venues/87519,Landesmuseum,Zürich,8001,Museumstrasse 2,Switzerland,47.37902,8.54101,
/venues/1630563,Konzepthalle6,Bern,3600,Scheibenstrasse 6,Switzerland,46.76079,7.624,
/venues/981046,Binz Squat,Zürich,,Uetlibergstrasse 111/111a,Switzerland,47.36106,8.51716,http://www.binzbleibtbinz.ch/binz_en.php
/venues/2146259,Senkel,Stans,6370,Schwibogen 4,Switzerland,46.96776,8.36792,
/venues/3375729,Heimat,Basel,4058,Erlenstrasse 59,Switzerland,47.56901,7.60164,http://heimatbasel.ch
/venues/1004201,"Innenhof, Historisches und Völkerkundemuseum",St. Gallen,9000,Museumsstrasse 50,Switzerland,47.4286,9.38296,
/venues/3620169,Mauz,Einsiedeln,8840,Zürichstrasse 38,Switzerland,47.13128,8.74523,
/venues/79430,Heitere Open Air,Zofingen,4800,Open Air Gelände,Switzerland,,,http://www.heitere.ch/
/venues/1473213,Tuchlaube Cafe/ Bar,Aarau,,,Switzerland,47.3934,8.04312,
/venues/935256,Théâtre de l'Echandole,Yverdon-Les-Bains,,,Switzerland,,,
/venues/1145821,Provitreff,Zürich,8005,Sihlquai 240,Switzerland,47.38766,8.52994,http://www.provitreff.ch/
/venues/895936,Ziegelei,Einsiedeln,8840,Zürichstrasse 40,Switzerland,47.13195,8.74454,
/venues/3964199,Casino Bern,Bern,3011,Casinoplatz 1,Switzerland,46.94692,7.44801,https://www.casinobern.ch/
/venues/4099259,Penthouse,Luzern,,,Switzerland,,,
/venues/1620403,Garage,Basel,,,Switzerland,,,
/venues/871496,Kulturm,Solothurn,,,Switzerland,,,
/venues/1487668,Le Lido Comedy & Club,Lausanne,,Rue De Bourg 17,Switzerland,46.52021,6.63475,
/venues/1554528,Ug Bülach,Zürich,,,Switzerland,,,
/venues/1581498,"Rössli, Reitschule",Bern,,,Switzerland,,,http://www.reitschule.ch/
/venues/3671509,Monomontag - PORTIER,Winterthur,,"Lagerpl. 3, 8400",Switzerland,47.4958,8.71882,http://www.lagerplatz.ch/portier/monomontag.htm
/venues/953671,Esse Musicbar,Winterthur,8400,Zeughausstrasse 52,Switzerland,47.4943,8.73429,http://www.esse-musicbar.ch
/venues/2124704,Stadtsaal,Zofingen,4800,Weiherstrasse 2,Switzerland,47.29084,7.94751,
/venues/4239164,Konzerthalle Andermatt,Luzern,6490,Bärengasse 1,Switzerland,46.63991,8.59131,
/venues/3638184,Champmeslé,Geneva,1227,"Rue Jacques Dalphin 53, 1227 Carouge, 1227 Genève",Switzerland,46.18089,6.1403,
/venues/1590378,Raumstation,St. Gallen,9000,Lerchentalstrasse,Switzerland,47.44363,9.41665,http://www.raumstation-club.ch/home/
/venues/492171,Caribana Festival,Nyon,1299,Crans sur Nyon,Switzerland,46.35985,6.20646,
/venues/542011,Theater National,Bern,3011,Hirschengraben 24,Switzerland,46.94614,7.43698,
/venues/639851,Paddy Reilly’s Irish Pub,Basel,,,Switzerland,,,
/venues/2461099,Halle W,Geneva,,,Switzerland,46.19839,6.1423,
/venues/2311624,Montreux Jazz Club,Montreux,1829,Avenue Claude Nobs 2,Switzerland,46.43861,6.9068,http://www.montreuxjazz.com
/venues/33283,Schiffbau,Zürich,8005,Schiffbaustrasse 4-6,Switzerland,47.3887,8.51912,http://www.moods.ch
/venues/2770123,Kaschemme Klub,Basel,4052,Lehenmattstrasse 353,Switzerland,47.54347,7.62081,http://www.kaschemme.ch
/venues/46372,Festi'neuch,Neuchatel,2000,Jeunes Rives,Switzerland,46.99264,6.94149,
/venues/2485669,Stiefelchnächt,Bremgarten,5620,Marktgasse 1,Switzerland,47.3513,8.3413,
/venues/915246,Kleintheater,Luzern,,,Switzerland,,,
/venues/861766,Kaff,Winterthur,8500,Zürcherstrasse 185,Switzerland,47.55753,8.89878,
/venues/936321,Grosser Konzertsaal,Solothurn,4500,Untere Steingrubenstrasse 1,Switzerland,47.20985,7.53624,
/venues/3421929,Village du Soir,Geneva,1227,Route des Jeunes 24,Switzerland,46.17661,6.12796,
/venues/2684063,Kulturarbeit für Frauenfeld (KAFF),Winterthur,8500,Grabenstrasse 57,Switzerland,47.5584,8.89967,http://www.kaff.ch/
/venues/1383476,Ggs 31,Winterthur,,,Switzerland,,,
/venues/1570488,Forum St-Georges,Basel,2800,Route de Bâle 5,Switzerland,47.36629,7.34553,http://www.ccrd.ch
/venues/372401,Kultur Kreuz Nidau+,Lyss,2560,Hauptstrasse 33,Switzerland,47.12566,7.24063,http://www.kreuz-nidau.ch/
/venues/3457779,Helsinki Klub,Zürich,8005,Geroldstrasse 35,Switzerland,47.38582,8.51819,http://helsinkiklub.ch
/venues/2486889,BL Club,Geneva,1205,Rue Henri-Dunant 9,Switzerland,46.19685,6.14219,
/venues/1378336,Off,Basel,,Offenburgerstrasse 59,Switzerland,47.56938,7.58999,
/venues/1016706,Blue Balls Festival,Luzern,,"Europaplatz 1, CH-6005",Switzerland,47.05032,8.31183,http://www.blueballs.ch
/venues/1499308,Gate 14,Weinfelden,,,Switzerland,,,
/venues/556606,Fabriggli,Buchs,,,Switzerland,,,
/venues/3454569,Rote Fabrik Ziegel oh Lac,Zürich,8038,Seestrasse 395,Switzerland,47.34359,8.53583,
/venues/1204021,Café Henrici,Zürich,8001,Niederdorfstrasse 1,Switzerland,47.37274,8.54364,
/venues/418441,Les Prisons,Moudon,1510,rue du Château 21,Switzerland,46.66945,6.79446,
/venues/1620868,Gz Buchegg,Zürich,8057,Bucheggstrasse 93,Switzerland,47.399,8.53506,
/venues/1416308,Motel Campo,Geneva,,Geneva,Switzerland,46.20439,6.14316,
/venues/48788,Flugplatz Interlaken,Bern,3800,Obere Bonigstrasse 1,Switzerland,46.68413,7.8693,http://www.greenfieldfestival.ch/index.php?id=7
/venues/4136399,Gaskessel,Bern,3007,Sandrainstrasse 25,Switzerland,46.93835,7.4424,
/venues/137743,Stadthofsaal,Uster,8610,Theaterstrasse 10,Switzerland,47.34895,8.71513,
/venues/3503329,Kasheme,Zürich,,,Switzerland,47.37689,8.54169,
/venues/715066,Café XXe,Fribourg,1700,av. de Tivoli 3,Switzerland,46.80461,7.15247,http://www.xxe.ch
/venues/83393,Openair Frauenfeld,Winterthur,8500,Grosse Allmend,Switzerland,47.5573,8.89941,http://new.openair-frauenfeld.ch
/venues/3525469,Rosey Concert Hall,Nyon,1180,Chemin des Quatres-Communes,Switzerland,46.46052,6.33082,
/venues/1582143,Tunnel Club,Luzern,6005,Inseliquai 12c,Switzerland,47.04794,8.31383,http://www.tunnelclub.ch
/venues/1810358,Station Club,Zürich,,Gutenbergstrasse 1,Switzerland,47.36499,8.53065,
/venues/361811,Espace Autogéré,Lausanne,,rue César-Roux 30,Switzerland,46.52235,6.6379,
/venues/2279994,Montreux Jazz Lab,Montreux,1820,Grand Rue 95,Switzerland,46.43762,6.90764,
/venues/1538108,Guss39,Bulach,8180,Schaffhauserstrasse 102,Switzerland,47.52487,8.53685,
/venues/3740689,Passion Club,Bern,3012,Parkterasse 16,Switzerland,46.94935,7.43791,
/venues/2206828,Kreuz,Zürich,8645,St. Gallerstrasse 30,Switzerland,47.22995,8.83687,
/venues/3688559,Grand Resort Bad Ragaz,Chur,7310,Bernhard-Simonstrasse,Switzerland,47.00045,9.50267,http://www.resortragaz.ch/
/venues/923131,Gurtenfestival,Bern,3000,Gurten,Switzerland,46.9173,7.44348,
/venues/3613384,Das Viertel Club,Basel,4052,St. Jakobstrasse 400,Switzerland,47.53967,7.62062,
/venues/2551629,Photobastei 2.0,Zürich,8005,Sihlquai 125,Switzerland,47.38473,8.53404,http://www.photobastei.ch/event/37/coldking-s-acoustic-mo-blanc.html
/venues/1017681,Festival de la Cité Lausanne,Lausanne,,,Switzerland,46.51996,6.6336,
/venues/1311656,Box Davos,Davos,CH-7260,Bahnhofstrasse 19,Switzerland,46.81178,9.84321,
/venues/32637,Wasserwerk Club,Bern,CH-3011,Wasserwerkgasse 5,Switzerland,46.94688,7.45739,http://www.wasserwerkclub.ch
/venues/979206,Theater Stok,Zürich,,,Switzerland,,,
/venues/3186994,Koch Areal,Zürich,,Rautistrasse /// Flüelastrasse /// Flurstrasse,Switzerland,47.3825,8.49288,http://www.kochareal.ch/
/venues/2499179,Klub Kegelbahn,Luzern,6003,Baselstrasse 24,Switzerland,47.05285,8.29614,
/venues/1074741,Ferme-Asile,Sion,1950,Promenade des Pêcheurs 10,Switzerland,46.22978,7.37238,
/venues/1596493,Hotel Saentispark,Abtwil,CH-9030,Wiesenbachstrasse 9,Switzerland,47.419,9.31595,http://www.saentispark.ch/
/venues/2143094,Le Black Pearl,Montreux,,,Switzerland,,,
/venues/1565073,Zélig,Lausanne,,,Switzerland,,,http://www.zelig.ch
/venues/1374286,Triebguet,Baden,,,Switzerland,,,
/venues/3386759,Spinnerei,Bern,3004,Spinnereiweg 17,Switzerland,46.96876,7.44151,http://kulturspinnerei.ch
/venues/3461749,Melserhof,Mels,8887,Bahnhofstrasse 74,Switzerland,47.05349,9.41724,http://www.musikkultur.ch
/venues/1319436,Uferlos,Luzern,6002,Giessensteinring 14,Switzerland,47.0401,8.31047,
/venues/260231,Chrämerhuus,Langenthal,,,Switzerland,,,
/venues/86894,Stadthalle Chur,Chur,7000,Weststrasse 5,Switzerland,52.34042,-8.86207,
/venues/1641558,"Festsaal, Stadtcasino Basel",Basel,4051,Steinenberg 14,Switzerland,47.5543,7.58954,
/venues/2586003,Heitere Fahne,Bern,3084,Dorfstrasse 22/24,Switzerland,46.92875,7.44664,http://www.dieheiterefahne.ch/
/venues/1628333,Planet 5,Zürich,8005,,Switzerland,47.38932,8.51316,
/venues/2087724,Club Bellevue,Zürich,8001,Rämistrasse 6,Switzerland,47.36767,8.54615,
/venues/2161874,Piccadilly,Zürich,5200,Törlirain 4,Switzerland,47.48518,8.20889,http://www.p-i-c.ch
/venues/3764314,Härterei Club,Zürich,8005,Hardstrasse 219,Switzerland,47.38676,8.51667,
/venues/148593,Open Air,Zürich,,,Switzerland,47.36865,8.53918,
/venues/4336887,"Kiff, Saal",Aarau,5000,Tellistrasse 118,Switzerland,47.39856,8.06473,
/venues/49843,Remise,Wil,,,Switzerland,,,
/venues/897901,Revier,Zürich,,Hohlstrasse 18,Switzerland,47.37708,8.52755,
/venues/69494,Reithalle,Basel,4057,"Klybeckstrasse, 1b",Switzerland,47.56381,7.59113,
/venues/1991434,Equilibre,Fribourg,1700,Place Jean Tinguely 1,Switzerland,46.58937,6.92038,
/venues/2847713,Theater Fauteuil,Basel,4051,Spalenberg 12,Switzerland,47.55734,7.5864,
/venues/127010,Bypass Club,Geneva,,,Switzerland,,,
/venues/2425439,Balz Klub,Basel,,,Switzerland,,,
/venues/1231261,Bundeshaus zu Wiedikon,Zürich,8003,Kalkbreitestrasse 33,Switzerland,47.37344,8.51965,
/venues/2026874,Kurtheater,Baden,5401,Parkstrasse 20,Switzerland,47.48069,8.31011,
/venues/2635968,Pitschna Scena,St. Moritz,,,Switzerland,46.49164,9.90374,
/venues/4027974,Duke's,Lausanne,,12 rue du Flon,Switzerland,46.52065,6.63558,
/venues/1628053,Veka,Zürich,,,Switzerland,,,
/venues/1001236,Live Vevey,Montreux,,,Switzerland,46.46273,6.84243,
/venues/1760963,Tankstell Bar,St. Gallen,,.,Switzerland,47.41793,9.3644,
/venues/248526,Riders Palace,St. Gallen,7032,Base Station,Switzerland,46.8526,9.21778,http://www.riderspalace.com/
/venues/3155789,Parterre One Kultur,Basel,4058,Klybeckstrasse 1,Switzerland,47.56381,7.59129,
/venues/3172749,Urgence Disk Records,Geneva,,,Switzerland,46.20439,6.14316,https://www.facebook.com/URGENCE-DISK-RECORDS-101329779912757/
/venues/90608,M.A.D,Lausanne,,,Switzerland,,,
/venues/621591,Ewz-unterwerk Selnau,Zürich,8001,,Switzerland,47.37416,8.53963,
/venues/62099,Open Air Gampel,Gampel,,Sankt Georgen-Strasse 3,Switzerland,,,
/venues/456746,Chorus Jazz Club,Lausanne,1003,Av. de Mon-Repos 3,Switzerland,46.5199,6.63859,
/venues/2600488,Theater St. Gallen,St. Gallen,9004,Museumstrasse 24,Switzerland,47.42693,9.38049,http://www.theatersg.ch/
/venues/2380664,Event Halle Basel,Basel,4058,Messeplatz,Switzerland,47.56378,7.60079,
/venues/618671,Seebad Enge,Zürich,,Mythenquai 9,Switzerland,47.36166,8.53667,
/venues/3067564,Palp Festival,Sierre,,,Switzerland,,,
/venues/2907873,Lion Club,Luzern,6004,Löwengraben 18,Switzerland,47.05282,8.30415,
/venues/462316,Chorus,Lausanne,,,Switzerland,,,
/venues/2907453,Festivalgelände,Aarburg,4663,Hofmattstrasse,Switzerland,47.31745,7.89842,
/venues/1276111,Auditorio Stelio Molo RSI,Lugano,6900,Via Guglielmo Canevascini 3,Switzerland,46.0087,8.93782,
/venues/2760658,Kaserne (rossstall 1 & 2) + Reithalle,Basel,4057,Klybeckstr. 1b,Switzerland,47.56384,7.59128,
/venues/1764108,Lokremise,St. Gallen,9000,Grünbergstrasse 7,Switzerland,47.42129,9.36611,http://www.lokremise.ch
/venues/3239734,Klaus,Zürich,8004,Zwinglistrasse 43,Switzerland,47.37891,8.52744,http://hausvonklaus.ch/
/venues/3388189,Moodslabor,Zürich,8005,Schiffbaustrasse 3,Switzerland,47.3885,8.51893,
/venues/981891,Casineum,Luzern,6000,Haldenstrasse 6,Switzerland,47.05504,8.31646,
/venues/3006639,Werkk,Baden,5401,Mellingerstrasse 19,Switzerland,47.47072,8.3044,
/venues/3281484,Chapiteau Salto Natale,Kloten,8302,Parkplatz Holberg,Switzerland,47.44951,8.58216,
/venues/1664873,Oya Bar Kafé,St. Gallen,9000,Schwertgasse 27,Switzerland,47.42758,9.37745,http://www.oya-bar.ch/
/venues/2767808,Theater Winterthur Im Foyer,Winterthur,8400,Theaterstrasse 4,Switzerland,47.5018,8.72711,
/venues/1901538,Einstein,St. Gallen,9000,Berneggstrasse 2,Switzerland,47.4214,9.37537,
/venues/3268619,Music Container,Uster,8610,"Asylstrasse, Im Werk",Switzerland,47.35012,8.72347,
/venues/2942188,Castelgrande,Locarno,6500,Via Salita Castelgrande,Switzerland,46.19223,9.02078,
/venues/1403163,Vinyl Club,Lausanne,1005,Place du Tunnel 9,Switzerland,46.52592,6.635,http://vinylclub-lausanne.blogspot.com/
/venues/1810228,Badhüsli,Basel,,,Switzerland,,,
/venues/96223,Theater Basel,Basel,4051,Elisabethenstr. 16,Switzerland,47.55238,7.59075,
/venues/1895523,L'entre-deux Café,La Chaux De Fonds,2300,rue Jaquet-Droz 27,Switzerland,47.10105,6.82935,
/venues/492156,Salle de la Traverse,Geneva,,rue de Berne 50,Switzerland,46.21234,6.14761,
/venues/1238491,Eventhalle,Erstfeld,6472,Breiteli 22/24,Switzerland,46.8342,8.64071,
/venues/1987464,Kufa Avec Adam Port,Lyss,3250,Werdtstrasse 17,Switzerland,47.08065,7.29443,
/venues/936356,Ventil - Cafe Bar Club,Baden,5400,Zürcherstrasse 1,Switzerland,47.47113,8.30613,
/venues/60437,Palais De Beaulieu,Lausanne,1004,AVENUE DES BERGIÈRES 10,Switzerland,46.52946,6.62282,
/venues/2201999,Theater Winterthur,Winterthur,8402,Theaterstrasse 4-6,Switzerland,47.50183,8.72708,http://theater.winterthur.ch
/venues/3615099,Bierhübeli Bern,Bern,3012,Neubrückstr. 43,Switzerland,46.95626,7.43782,
/venues/2437134,Bar-club L'abc,Lausanne,1003,Passerelle du Grand-Pont,Switzerland,46.52029,6.63059,
/venues/3032454,Théâtre du Martolet,Lausanne,1890,Rue Charles-Emmanuel de Rivaz,Switzerland,46.21775,7.00318,
/venues/4366848,Gasthaus Albisgütli,Zürich,8045,Uetlibergstrasse 341,Switzerland,47.35204,8.50842,
/venues/898166,Loop 38,Zürich,8048 Zü,Albulastrasse 38,Switzerland,47.38821,8.49401,http://www.loop38.ch/
/venues/3210543,Hombis Salon,Zürich,8050,Dialogweg 11,Switzerland,47.41416,8.55933,http://www.hombissalon.ch/
/venues/1358781,Du Theatre,Bern,3011,Hotelgasse 10,Switzerland,46.94757,7.44795,
/venues/2303074,Cinema Sil Plaz,Chur,7130,Via Centrala 2,Switzerland,46.77469,9.20487,
/venues/2697233,Five Night Club,Geneva,,,Switzerland,46.19839,6.1423,
/venues/4245059,Buvette du bord de l'eau,Sierre,3960,Lac de Géronde,Switzerland,46.28894,7.54277,http://auborddeleau.bar
/venues/4366614,Theaterplatz,Luzern,6003,,Switzerland,47.04846,8.292,
/venues/3980029,Muffis Nachtrestaurant,Luzern,6060 Sarnen,Jordanstrasse 1,Switzerland,46.89643,8.24495,http://www.muffis.ch
/venues/2823393,Piccolo Giardino,Zürich,8004,Schöneggplatz 9,Switzerland,47.38082,8.52572,
/venues/2869443,MONO Bar,Locarno,6600,"Via Ciseri, 19",Switzerland,46.1686,8.79667,http://www.monobar.ch
/venues/613866,1. Stock,Basel,,,Switzerland,,,
/venues/491421,Montreux Jazz Café,Montreux,1820,,Switzerland,46.42761,6.95941,
/venues/2050124,Perron 1,Sierre,3900,Bahnhofstrasse 1,Switzerland,46.31871,7.98862,
/venues/691456,Reaktor,Winterthur,,,Switzerland,,,
/venues/1579043,Das Zelt,Bern,3800,Höhenmatte,Switzerland,46.68648,7.85691,
/venues/4204019,Open Air Lenkerseeli,Bern,,,Switzerland,,,
/venues/4011834,Grandhotel Giessbach,Brienz,3855,,Switzerland,46.72634,8.05346,
/venues/740461,Terminus Club,Olten,4600,Froburgstrasse 7,Switzerland,47.35196,7.90373,
/venues/3519854,The Alex,Zermatt,3920,Bodmenstrasse 12,Switzerland,46.02367,7.74716,
/venues/829671,m4music Festival,Zürich,8005,Various Venues,Switzerland,47.38932,8.51316,
/venues/1380046,Décal'quai,Montreux,,,Switzerland,,,http://www.decalquai.ch/
/venues/621661,La Capella,Bern,,Allmendstrasse 24 3014 Bern,Switzerland,46.95947,7.45184,
/venues/1550723,L'Épicentre,Geneva,1245,Chemin De Mancy 61,Switzerland,46.24921,6.20348,http://www.epicentre.ch
/venues/1580123,Industriestrasse 9,Luzern,,Industriestrasse 9,Switzerland,47.04144,8.31136,
/venues/2820618,"Kreuz-saal, Restaurant Steirereck",Cham,6330,Luzernerstrasse 14,Switzerland,47.1801,8.45832,
/venues/361831,Brasserie Lorraine,Bern,,Quartiergasse 17,Switzerland,46.958,7.44571,http://www.brasserie-lorraine.ch
/venues/1680448,Stadttheater - Theatersaal,Olten,4603,Frohburgstrasse 5,Switzerland,47.35206,7.90398,
/venues/1907608,Theater Duo Fischbach,Luzern,6403,Kelmattstrasse 22,Switzerland,47.0833,8.43787,http://www.duofischbach.ch
/venues/2221379,Kellertheater im Vogelsang,Luzern,,,Switzerland,,,http://www.kiv.ch
/venues/1168481,Isebähnli,Baden,,,Switzerland,,,
/venues/2403429,Folk Café,St. Gallen,,,Switzerland,,,https://www.facebook.com/FolkCafe1
/venues/361761,Graffitti,Bern,,,Switzerland,,,
/venues/2162159,Punto,Bern,3006,Thunstrasse 104,Switzerland,46.94101,7.46346,http://www.puntobern.ch
/venues/3295009,Rychenbergpark,Winterthur,8400,Rychenbergstrasse,Switzerland,47.50646,8.7338,
/venues/1597298,Schiffbau & Moods & Exil,Zürich,8005,Schiffbaustrasse 6,Switzerland,47.38865,8.5187,
/venues/3109469,Kulturhof Schloss Köniz,Bern,3098,Muhlernstrasse 11,Switzerland,46.9207,7.41421,http://www.kulturhof.ch
/venues/587031,Bâtiment des Forces Motrices (BFM),Geneva,1204,Place Des Volontaires 2,Switzerland,46.20452,6.13727,
/venues/1649043,Das Zelt,Zürich,8810,Chilbiplatz,Switzerland,47.24784,8.60533,
/venues/936391,Garden Club,Winterthur,8400,Archstrasse 6,Switzerland,47.49822,8.7236,
/venues/418286,La Bille,La Sarraz,,,Switzerland,,,http://www.bille.ch
/venues/4242244,Loucy,Chur,7000,Seilerbahnweg 9,Switzerland,46.84694,9.52747,
/venues/3105899,Kühltür,Bern,3506,"Mühlebachweg 22, Grosshöchstetten",Switzerland,46.90026,7.63764,http://kuehltuer.ch
/venues/2630883,Marabu,Basel,4460,Schulgasse 5a,Switzerland,47.46518,7.85605,http://www.marabu-bl.ch
/venues/1492503,Chiesa del Collegio Papio,Locarno,6612,Bartolomeo Papio,Switzerland,46.15501,8.7716,
/venues/3681799,T-Room,Solothurn,4500,Patriotenweg 1,Switzerland,47.20486,7.53709,https://www.t-room.ch/
/venues/1130166,Mars Bar,Zürich,8004,Neufrankengasse 15,Switzerland,47.38052,8.52704,
/venues/1079711,Ono Bühne Galerie Bar,Bern,3011,Kramgasse 6,Switzerland,46.9481,7.45195,
/venues/2748498,Teatro Sociale,Locarno,6500,Piazza Governo 11,Switzerland,46.19093,9.02115,
/venues/1537428,Reaktor 2.0,Winterthur,,,Switzerland,,,
/venues/2545684,Theater Uri,Luzern,6460,Schützengasse 1,Switzerland,46.88165,8.64417,
/venues/2597858,Aura,Zürich,8001,Bleicherweg 5,Switzerland,47.36872,8.53785,
/venues/361756,LAKuZ,Langenthal,,,Switzerland,,,
/venues/4199954,Kings Social House Club,St. Moritz,,,Switzerland,,,
/venues/1885788,Café Du Soleil,Biel,2350,Marché-concours 14,Switzerland,47.25618,6.9964,http://www.cafe-du-soleil.ch/
/venues/684756,Kulturhaus,Chur,7000,Bienenstrasse,Switzerland,46.84773,9.52508,
/venues/2495434,Das Schwarze Schaf,Luzern,6003,Frankengasse 2,Switzerland,47.04949,8.30889,http://www.dasschwarzeschaf.ch
/venues/3398569,8304 Bar & Lounge,Zürich,8304 Wallisellen,,Switzerland,47.41562,8.58897,http://www.8304.bar/
/venues/548021,Improvisorium,Huttwil,,,Switzerland,,,
/venues/96447,Undertown,Geneva,,,Switzerland,,,
/venues/2760958,"Volkshaus, Weisser Saal",Zürich,8004,Stauffacherstrasse 60,Switzerland,47.37546,8.52722,
/venues/4233269,Le Pont Rouge,Monthey,1870,Av. de la plantaud 122,Switzerland,46.25056,6.96431,
/venues/4355545,Iena,Avenches,1580,Les Longs-Prés 1a,Switzerland,46.88362,7.01091,
/venues/2031629,Kunsthaus Zürich,Zürich,8024,Winkelwiese 4,Switzerland,47.37016,8.54666,
/venues/3610534,Festhalle Willisau,Willisau,6130,Am Viehmarkt 2,Switzerland,47.12023,7.98633,
/venues/3084699,Rhypark,Basel,4056,Mühlhauserstrasse 17,Switzerland,47.56989,7.58305,
/venues/2764628,Playground Lounge,Bern,3007,Sandrainstrasse 10,Switzerland,46.94,7.44059,https://www.facebook.com/playgroundlounge
/venues/1613623,Kingdom Club,Sion,,,Switzerland,,,
/venues/3800699,Molo Bar,Luzern,6003,Baselstrasse 42,Switzerland,47.05342,8.29497,
/venues/2837048,Altes Kino,Mels,8887,Sarganserstrasse 66,Switzerland,47.04842,9.42702,
/venues/946411,Stanzerei,Baden,5400,Bruggerstrasse 37,Switzerland,47.47591,8.30448,
/venues/1036831,Züri Fäscht,Zürich,,,Switzerland,47.37689,8.54169,https://zuerifaescht.ch/
/venues/2880683,Jeunes Rives,Neuchatel,2001,,Switzerland,46.98999,6.92927,
/venues/3146879,Neuf Cent Onze,Geneva,1204,9-11 Rue Du Prince,Switzerland,46.20254,6.15109,
/venues/1894008,Cathédrale Notre-Dame,Lausanne,,,Switzerland,,,
/venues/956001,Zentrum Paul Klee,Bern,3006,Monument im Fruchtland 3,Switzerland,46.94889,7.4741,
/venues/1178941,Théâtre Du Crochetan,Monthey,1870,Rue Du Théâtre 6,Switzerland,46.25365,6.94795,http://www.crochetan.ch
/venues/2832933,Park Im Grünen,Basel,4142,Rainstrasse 6,Switzerland,47.53091,7.61466,
/venues/3737209,Chesery Club,Martigny,,,Switzerland,46.47176,7.28657,
/venues/3714929,Riders Hotel,St. Gallen,7032,Via Murschetg,Switzerland,46.82062,9.26496,http://ridershotel.com
/venues/1730508,Galerie Du Sauvage,Porrentruy,2900,Rue de la Chaumont 3,Switzerland,47.41631,7.07345,
/venues/1129466,Mr Pickwick's Pub,Geneva,1200,"80, Rue De Lausanne",Switzerland,46.21667,6.1482,
/venues/2732483,"Aula Magna Der Universität Freiburg, Misericorde",Fribourg,1700,Avenue de l'Europe 20,Switzerland,46.80621,7.15175,
/venues/3350649,Käpt'n Holger,Bern,3550,Dorfstrasse 29,Switzerland,46.93822,7.78797,http://www.kaeptnholger.ch/
/venues/124330,ZURICH JAZZNOJAZZ FESTIVAL,Zürich,8001,,Switzerland,47.37416,8.53963,http://www.jazznojazz.ch
/venues/3433249,Café Singer,Basel,,Marktplatz 34,Switzerland,47.5587,7.58709,
/venues/1901533,Pantschau Murten,Bern,3280,Seeufer,Switzerland,,,
/venues/2842773,Ölfleck,Winterthur,,,Switzerland,47.5573,8.89941,
/venues/117260,Widder,Winterthur,,,Switzerland,,,
/venues/2509864,Hoheneck,Luzern,6390,Dorfstrasse 4,Switzerland,46.82135,8.40776,http://www.hotelhoheneck.com/%E2%80%8E
/venues/533471,Bodensee Arena,Kreuzlingen,8280,Seestrasse 11b,Switzerland,47.65449,9.18001,
/venues/2010554,Millesime Club,Montreux,,,Switzerland,,,
/venues/1189366,Piazza Bar,Bern,,"Hirschengraben 11, 3011 Bern",Switzerland,46.94647,7.43811,
/venues/3706779,UMBO,Zürich,,Wasserwerkstrasse 89a,Switzerland,47.3868,8.53378,
/venues/2398239,Espace Noir,Bern,2610,Francillon 29,Switzerland,47.15309,6.99937,http://www.espacenoir.ch
/venues/3232659,"Kalvingrad, l'Usine",Geneva,1204,Place des Volontaires 4,Switzerland,46.20398,6.13608,https://www.usine.ch/
/venues/1443033,Kultur Casino,Bern,3011,"Herrengasse 25 Bern, Switzerland",Switzerland,46.94689,7.44871,
/venues/1218421,Saalbau Rhypark,Basel,4056,Mülhauserstrasse 17,Switzerland,47.56989,7.58305,
/venues/2366414,Schrottbar,Biel,,,Switzerland,,,
/venues/1986144,Grenzwert,Basel,,Rheingasse 3,Switzerland,47.56075,7.59146,
/venues/883181,Jazzclub Rorschach,Rorschach,,Churerstrasse 28,Switzerland,47.47799,9.49895,
/venues/3591384,La Tour Vagabonde,Fribourg,,,Switzerland,46.80648,7.16197,
/venues/2846953,Hessel Espace Culturel,Lausanne,1350,Rue Davall 3,Switzerland,46.72302,6.53273,https://www.hesselespaceculturel.ch/
/venues/2289554,Sporthotel,St. Moritz,,Via Maistra 145,Switzerland,46.49213,9.90352,http://www.sporthotel.ch/
/venues/3488489,Bahnhof Bruggen,St. Gallen,,,Switzerland,,,
/venues/2504124,Salle Communale De Plainpalais,Geneva,1205,"Rue De Carouge, 52",Switzerland,46.19393,6.14343,
/venues/4112649,The Hide Hotel Flims,Chur,CH-7017 Flims,Via Nova 80,Switzerland,46.83376,9.28232,https://www.thehideflims.ch/en
/venues/2134659,Sääli zum goldenen Fass,Basel,4057,Hammerstrasse 108,Switzerland,47.56569,7.59564,http://www.goldenes-fass.ch/
/venues/162088,Centre Fries,Fribourg,,,Switzerland,,,
/venues/1508808,Schüxenhaus,Bern,,,Switzerland,,,
/venues/2042754,Talhof,St. Gallen,9000,Torstrasse 14,Switzerland,47.4273,9.3781,http://www.talhof.sg/
/venues/3488519,Sound & Sandwich,Bern,,Fabrikstrasse 2a,Switzerland,46.95236,7.42282,
/venues/3764399,Kleine Freiheit,Zürich,8006,Weinbergstrasse 30,Switzerland,47.3792,8.54469,https://kleinefreiheit.ch/
/venues/920876,Les Francomanias,Bulle,,,Switzerland,,,
/venues/127427,Labor5,Zürich,8005,Schiffbaustrasse 3,Switzerland,47.3885,8.51893,http://www.labor5.ch/
/venues/3184134,"ARK, Ausstellungsraum Klingental",Basel,,,Switzerland,47.5596,7.58858,http://www.ausstellungsraum.ch
/venues/3316519,Barrio5,Zürich,,Limmatstrasse 195,Switzerland,47.38658,8.52874,http://barrio5.ch/
/venues/1964409,JVAL Festival,Nyon,,,Switzerland,,,http://www.jvalfestival.com/
/venues/2511579,Mica Club,Lausanne,,,Switzerland,46.51996,6.6336,
/venues/3668929,Irrsinn Bar,Basel,4058,Rebgasse 43,Switzerland,47.55968,7.5959,http://www.irrsinnbar.ch/
/venues/2777043,Heitere-platz,Zofingen,4800,,Switzerland,47.28589,7.95523,http://www.magic-night.ch/
/venues/342956,Grosse Allmend,Winterthur,8500,Neuhofstrasse 22,Switzerland,47.56433,8.88701,
/venues/1048096,Montreux Music and Convention Center,Montreux,1820,Grand-Rue 95,Switzerland,46.43931,6.90471,
/venues/3088479,Stubä,Zürich,8004,Brauerstrasse 42,Switzerland,47.37792,8.52707,
/venues/556651,Challer,Schaffhausen,8200,Safrangasse 8,Switzerland,47.69738,8.63525,
/venues/1587073,Il Domani,Lugano,6900,,Switzerland,46.00937,8.95079,
/venues/417871,Transilvania,Erstfeld,6472,Breiteli 22/24,Switzerland,46.8342,8.64071,
/venues/3459129,Kursaal Arosa,Arosa,7050,Poststrasse,Switzerland,46.78286,9.68168,
/venues/4082229,Photobastei,Zürich,8005,Sihlquai 125,Switzerland,47.38464,8.5339,http://www.photobastei.ch/
/venues/1547953,Catalyse,Geneva,1208,"Rosemont 14,",Switzerland,46.20186,6.17226,http://www.catalyse.ch
/venues/3224324,Woodstock Music Pub,Locarno,6500,Vicolo Nord 2,Switzerland,46.2154,9.03995,https://www.facebook.com/musicpubwoodstock/
/venues/1112866,Formbar,Bern,3007,Sandrainstrasse 10,Switzerland,46.94,7.44059,
/venues/338901,Fasskeller,Schaffhausen,,,Switzerland,,,
/venues/848671,Rocktown,Pfaffikon,,,Switzerland,,,
/venues/2125874,Literaturcafé / Café Littéraire,Biel,2502,Obergasse 11,Switzerland,47.14237,7.24645,http://litcafe.ch/
/venues/2891793,Alpenrock,Dietikon,8953,Riedstrasse 4,Switzerland,47.41903,8.39389,
/venues/2812028,Literaturcafé,Biel,2502,Literaturcafé,Switzerland,47.14876,7.24987,
/venues/2850708,Markthalle Basel,Basel,4051,Viaduktstrasse 10,Switzerland,47.54895,7.58726,http://www.altemarkthalle.ch/
/venues/1399853,Festival Chant Du Gros,Bern,2340,Rue de la Gare 1,Switzerland,47.22363,6.95715,
/venues/2732338,La Marive,Yverdon-Les-Bains,1400,Quai de Nogent 1,Switzerland,46.78517,6.63781,
/venues/3324619,Römisches Theater Augusta Raurica,Basel,4302,Giebenacherstrasse 17,Switzerland,47.53397,7.72135,
/venues/1480303,Pavillon Am Quai,Luzern,,,Switzerland,,,
/venues/3450049,Druckereihalle Im Ackermannshof,Basel,4056,St. Johanns-Vorstadt 19-21,Switzerland,47.56302,7.58441,
/venues/943111,Le Box,Geneva,1227,"15, Place de l'Octroi",Switzerland,46.18754,6.14032,
/venues/971771,Espace Guinguette,Montreux,,,Switzerland,46.46273,6.84243,
/venues/95511,Moon And Stars,Locarno,6600,Piazza Grande 1,Switzerland,46.16922,8.79744,
/venues/2283974,Meck á Frick,Basel,5070,Geissgasse 17,Switzerland,47.50496,8.02218,
/venues/2947823,Hangar 11,Winterthur,8400,Werkstrasse 16,Switzerland,47.49927,8.74563,
/venues/951781,Alte Kaserne,Winterthur,8402,Technikumstrasse 8,Switzerland,47.49791,8.7314,http://www.altekaserne.winterthur.ch/default.asp?
/venues/460306,Espocentro,Locarno,,,Switzerland,46.19849,9.02692,
/venues/3572379,Restaurant Intermezzo,Zug,6300,Grabenstrasse 6,Switzerland,47.16595,8.51518,http://www.intermezzo-zug.ch
/venues/1203856,Moshpit Music Club,Sion,3904,Kiesweg 10,Switzerland,46.31916,7.98022,http://www.moshpit-club.ch
/venues/2963918,Baby Boa,Geneva,1201,22 Rue du Cendrier,Switzerland,46.20744,6.1454,
/venues/2076614,Corner 25,Geneva,1225,25 Rte de Geneve,Switzerland,46.19437,6.19499,http://www.corner25.ch
/venues/3133229,8 Bar,Basel,4058,Rheingasse 8,Switzerland,47.56036,7.59149,http://www.8-bar.eu/
/venues/1591828,Jazz in Bess,Lugano,6900,Via Besso 42a,Switzerland,46.00712,8.94154,
/venues/4205414,Fête des Vignerons,Montreux,,,Switzerland,,,
/venues/2902503,Kirche Saanen,Montreux,3792,Kirchstrasse,Switzerland,46.49087,7.25977,
/venues/3584484,Viertel Dach,Basel,4052,Münchensteinerstrasse 81,Switzerland,47.53992,7.60672,
/venues/1807473,Caprices Festival,Sierre,3963,Place des Charmettes,Switzerland,46.30619,7.46846,https://www.facebook.com/events/2118559514847735/
/venues/3965499,Hive Club,Zürich,,,Switzerland,,,
/venues/3432054,Pink Live Music Bar,Zermatt,,,Switzerland,46.02071,7.74912,
/venues/1492508,Chiesa San Francesco Locarno,Locarno,6600,Piazza San Francesco 19,Switzerland,46.16757,8.79156,
/venues/2260704,La Reliure,Geneva,1200,45 rue saint jean,Switzerland,46.20516,6.12994,http://daffestival.com/
/venues/2569944,Kulturkeller Höngg,Zürich,,,Switzerland,47.36865,8.53918,
/venues/3399244,Gaswerk Eventbar,Schwyz,6423 Seewen,Bahnhofstrasse 180b,Switzerland,47.02978,8.6291,https://www.gaswerk-eventbar.ch/
/venues/3450284,Temple De Nyon,Nyon,1260,Rue du Temple 2,Switzerland,46.38072,6.23838,https://antigel.ch/
/venues/417716,Murrayfield Pub,Chiasso,,,Switzerland,,,
/venues/1173391,Uptown,Geneva,1201,"2, Rue de la Servette",Switzerland,46.20931,6.1397,
/venues/47590,Winterthur,Zürich,,,Switzerland,,,
/venues/1265106,Garage,Aarau,5000,Kirchgasse 6,Switzerland,47.39265,8.04316,http://www.garasche.ch/?s=home
/venues/1596673,Silencio,Geneva,1201,Rue du Levant 3,Switzerland,46.21176,6.14779,
/venues/1109931,Club,Zürich,,,Switzerland,,,
/venues/1145826,Bäckeranlage,Zürich,8004,Hohlstrasse 67,Switzerland,47.37789,8.52444,
/venues/1573028,Kontiki,Zürich,,"Niederdorfstrasse 24, 8001",Switzerland,47.37379,8.54372,https://www.facebook.com/kontikibarzh/
/venues/3818499,Lenkerseeli,Bern,,,Switzerland,,,https://lenk-simmental.ch
/venues/1914173,Kasernenareal,Zürich,8004,Militärstrasse 16,Switzerland,47.37656,8.53311,
/venues/1148641,Acanto,Zürich,8005,Pfingstweidstrasse 6,Switzerland,47.38789,8.51864,
/venues/1277636,Ug,Bulach,8180,Schützenmattstrasse 1b,Switzerland,47.52751,8.53373,
/venues/3127604,Casino Herisau,Herisau,9100,,Switzerland,47.3857,9.27985,
/venues/2213534,Hafebar,Solothurn,4500,"Kreuzackerquai, Prisongasse 4",Switzerland,47.20501,7.53679,
/venues/2688913,Helvti,Winterthur,8400,"Wildbachstrasse 2,",Switzerland,47.49443,8.73243,
/venues/2868638,Flatterschafft,Basel,4053,Solothurnerstrasse 4,Switzerland,47.5457,7.59137,http://flatterschafft.ch/
/venues/936386,Sudhaus,Basel,4058,Burgweg 15,Switzerland,47.55802,7.60104,
/venues/4038284,Hardturm Areal – Under the White Grand Chapiteau,Zürich,8005,Pfingstweidstrasse 136,Switzerland,47.39158,8.50561,
/venues/2721693,ROX Music Bar,Bern,3700,Bahnhofstrasse 2,Switzerland,46.68979,7.67475,http://www.roxbar.ch
/venues/1993429,ORIENT MUSIK KLUB,Schaffhausen,,,Switzerland,,,
/venues/2268194,"Chillout Boswil, Restaurant Löwen",Wohlen,5623,Zentralstrasse 7,Switzerland,47.30183,8.31286,http://www.chillout-boswil.ch
/venues/4351247,Koller-event Hall,Grenchen,2540,Maienstrasse 6,Switzerland,47.19048,7.40552,
/venues/3729179,Theater am Bahnhof (TaB),Basel,5734,Tunaustrasse 5,Switzerland,47.25015,8.18546,
/venues/3408869,Palazzo Beat Club,Chur,7007,Seilerbahnweg 7,Switzerland,46.84728,9.52713,
/venues/34315,Avo Session,Basel,4058 Bas,Messeplatz,Switzerland,47.56378,7.60079,http://www.avo.ch
/venues/1676168,Backstage,St. Gallen,,,Switzerland,47.42448,9.37672,
/venues/549351,Villa Rosenau,Basel,4056,Neudorfstr 93,Switzerland,47.57537,7.56492,
/venues/234463,Schlachthaus Theater,Bern,3011,Rathausgasse 20,Switzerland,46.94863,7.45066,
/venues/2407739,Festivalzelt,Martigny,3780,Sportzentrumstrasse,Switzerland,46.47079,7.28283,
/venues/2513104,Cafe Gold,Zürich,,,Switzerland,47.36865,8.53918,
/venues/2598463,Sahara Bar,Winterthur,8400,Untere Kirchgasse 2,Switzerland,47.49929,8.72843,
/venues/116059,Casino Barrière,Montreux,1820,Rue du Théâtre 9,Switzerland,46.42973,6.9117,
/venues/727156,Kleine Scheidegg,Grindelwald,3823,Bernese Oberland,Switzerland,46.63017,8.00479,
/venues/4343654,WERFT,Luzern,6020,Bahnhofplatz 1,Switzerland,47.05026,8.31031,http://www.musikwerft.ch
/venues/418821,Zentrum Bärenmatte,Suhr,5034,Turnhalleweg 1,Switzerland,47.37213,8.07976,
/venues/556691,GZ Riesbach,Zürich,8008,Seefeldstrasse 93,Switzerland,47.35925,8.55409,
/venues/2011109,District 4,Zürich,8004,Langstrasse 83,Switzerland,47.37783,8.52646,
/venues/46069,Gurten Festival,Bern,3000,Gurten,Switzerland,46.9173,7.44348,https://gurtenfestival.ch
/venues/3167434,Das Zelt,Basel,4000,Rosentalanlage,Switzerland,47.56388,7.60286,
/venues/3398949,Le Balkkon,Neuchatel,,,Switzerland,46.98999,6.92927,
/venues/1838613,Piazza Manzoni,Lugano,,Piazza Manzoni,Switzerland,46.00388,8.95239,
/venues/1014316,Kulturfestival,St. Gallen,,Museum Street 50,Switzerland,47.4286,9.38296,
/venues/1675383,Le Caveau Coeur d'Or,Lausanne,1071,Rue du Bourg 22,Switzerland,46.48107,6.78018,http://www.coeurdor.ch/
/venues/4356115,Kulturhaus West,Zofingen,4800,Weststrasse 2,Switzerland,47.28675,7.93781,
/venues/1564848,Bar Bolgenschanze,Davos,7270,Skistrasse 1,Switzerland,46.79328,9.82472,
/venues/1097096,Café Flamingo,Oberentfelden,5036,Suhrenmattengässli 2,Switzerland,47.3608,8.05363,
/venues/1371481,Le Pachinko,Geneva,1201,Rue Des Bons Amis,Switzerland,,,
/venues/1381866,Lac de Géronde,Sierre,3960,Lac de Géronde,Switzerland,46.28894,7.54277,
/venues/2821508,Kulturhaus Helferei,Zürich,8001,Kirchgasse 13,Switzerland,47.37033,8.5451,http://www.herbst-helferei.ch/?event=tango-im-herbst-2&event_date=2016-09-24
/venues/369866,Open Air Granichen,Granichen,,,Switzerland,,,
/venues/1284806,La Buena Onda,St. Gallen,9000,Lämmlisbrunnenstr. 51,Switzerland,47.42581,9.382,http://gutewelle.blogspot.com/
/venues/3434754,Musig im Pflegidach,Zürich,,,Switzerland,47.27358,8.34156,http://www.murikultur.ch/musik/musig-im-pflegidach/
/venues/1924209,Openair Val Lumnezia,Chur,CH-7145,,Switzerland,46.70783,9.1678,
/venues/1643153,One of a Million Music Festival,Baden,,,Switzerland,47.47377,8.30647,
/venues/2734718,Opéra de Lausanne,Lausanne,1002,Av. du Théatre 12,Switzerland,46.51804,6.63689,
/venues/4162789,Zermatt Unplugged | Taste Village,Zermatt,,,Switzerland,,,
/venues/2924088,Greenfield Festival,Bern,,Airport,Switzerland,46.67639,7.87889,
/venues/3332024,Kult-Turm,Luzern,,,Switzerland,46.99546,8.6065,
/venues/953141,Casineum Grand Casino,Luzern,6006,Haldenstrasse 6,Switzerland,47.05504,8.31707,
/venues/491396,Parc de la Grange,Geneva,,Eaux-vives,Switzerland,46.2005,6.16545,
/venues/2387639,Messe Luzern - Halle 1,Luzern,6005,Horwerstr. 87,Switzerland,47.03393,8.30517,
/venues/151903,Olma Messen Halle,St. Gallen,9008,Splugenstrasse 12,Switzerland,47.43357,9.38586,https://www.olma-messen.ch/
/venues/2767953,Turnhalle,Bern,3011,Speichergasse 4,Switzerland,46.95034,7.44298,
/venues/1443043,Festivalgelände Am Rotten,Gampel,3945,Festivalgelände,Switzerland,46.31577,7.74194,
/venues/4024129,"Ortschafft Kultur, Pfungen",Winterthur,8422,Hinterdorfstrasse 10,Switzerland,47.51445,8.63983,
/venues/3807854,Lido San Domenico,Lugano,6976,Sentiero di Gandria 12 - Castagnola,Switzerland,46.00226,8.98909,http://facebook.com/labuvettelsd
/venues/3816524,IF Performance Hall,Zürich,8048,Hohlstrasse 457,Switzerland,47.38732,8.49986,
/venues/841926,Brasserie 17,Bern,,,Switzerland,,,
/venues/592156,Salle Centrale de la Madeleine,Geneva,1204,Rue de la Madeleine 10,Switzerland,46.20216,6.14863,
/venues/3599914,Stars In Town,Schaffhausen,,,Switzerland,47.69589,8.63805,http://www.starsintown.ch/
/venues/3637199,43. Winterthurer Musikfestwochen,Winterthur,8400,Steinberggasse,Switzerland,47.49831,8.72831,http://www.musikfestwochen.ch/
/venues/418311,Palace Club At Riders Palace,St. Gallen,7032,Talstation,Switzerland,46.81759,9.26517,
/venues/2379464,Vior,Zürich,8001,Löwenstrasse 2,Switzerland,47.37306,8.53472,http://www.vior.ch
/venues/47666,Spirgarten,Zürich,,,Switzerland,,,
/venues/2809083,Jazzcampus,Basel,4058,Utengasse 35,Switzerland,47.5596,7.59401,https://jazzcampus.com/de/home.html
/venues/3846919,Hard Rock Hotel,Davos,7270,Tobelmühlestrasse 2,Switzerland,46.7971,9.82306,https://www.hardrockhotels.com/davos/
/venues/2466859,Museum Rietberg,Zürich,8002,Gablerstrasse 15,Switzerland,47.35896,8.53024,
/venues/56810,Stade de Genève,Geneva,1211,Route des Jeunes 16,Switzerland,46.17822,6.12789,
/venues/2104189,Dreiegg,Winterthur,,,Switzerland,47.5573,8.89941,http://www.kellerschuran.ch/
/venues/2018819,Westhalle Parkhotel,Langenthal,4900,Weststrasse 90,Switzerland,47.21828,7.77058,
/venues/3164934,Rockfact Münchenstein,Basel,4142,Tramstrasse 66,Switzerland,47.50792,7.61626,http://rockfact.ch/
/venues/2479844,Elchclub,Bern,,,Switzerland,46.9584,7.48903,
/venues/82750,Sommer Casino,Basel,,Münchensteinerstrasse  1,Switzerland,47.5474,7.59857,
/venues/492146,Espace Gruyere,Bulle,1630,Rue de Vevey 136-144,Switzerland,46.61499,7.04904,
/venues/2192009,Sas Delemont,Basel,,Rue du 23-Juin,Switzerland,47.36505,7.34331,
/venues/2460819,Dorfkirche Riehen,Basel,4125,Baselstr.1,Switzerland,47.58279,7.64756,
/venues/1265201,Frau Meise,Baden,,,Switzerland,,,
/venues/1267706,Div. Beizen,Baden,5400,,Switzerland,47.46851,8.29722,
/venues/1995709,Hard One,Zürich,8005,Hardstrasse 260,Switzerland,47.38854,8.5207,
/venues/3742479,Orbital Garden,Bern,3011,Kramgasse 10,Switzerland,46.94813,7.45173,http://www.orbitalgarden.com
/venues/3777514,Duke's Bar,Lausanne,,Rue du Flon,Switzerland,46.52065,6.63526,https://www.dukes-bar.ch/evenements/
/venues/3790754,Vibe Club,Neuchatel,2000,FBG DE L'HOPITAL 16,Switzerland,46.99251,6.93292,
/venues/938366,Chossi Theater,Lichtensteig,9620,Bahnhalle,Switzerland,47.32129,9.08387,
/venues/1235456,Casino,Winterthur,8500,Bahnhofplatz,Switzerland,47.55819,8.89709,
/venues/3731139,The Rockies,Lausanne,1003,Rue de Bourg 43,Switzerland,46.52007,6.63621,
/venues/4233304,City Pub Bern,Bern,3011,Aarbergergasse 30,Switzerland,46.94984,7.44287,
/venues/2443529,Thbbc,Lausanne,1096,"20, rue Davel",Switzerland,46.48867,6.73071,
/venues/4360874,Stübli,St. Moritz,7500,Via dal Bagn 54,Switzerland,46.49686,9.83799,
/venues/1541208,Lounge & Gallery,Zug,6300,Dammstrasse 25,Switzerland,47.17769,8.51441,
/venues/713816,Bonsoir Gmbh,Bern,3011,Sternengässchen 5,Switzerland,46.94991,7.4431,
/venues/2094734,Vanilla Club,Locarno,,Via Cantonale] 6595 Riazzino,Switzerland,46.17474,8.8953,
/venues/2948593,La Coutellerie,Fribourg,,,Switzerland,46.80167,7.14557,
/venues/59804,"Gare du Nord, Bahnhof für Neue Musik",Basel,4058,Schwarzwaldallee 200,Switzerland,47.56739,7.60714,
/venues/2512579,Thonex Live,Geneva,1226,Av. Tronchet 18,Switzerland,46.19398,6.20505,
/venues/3276149,Lauter Festival,Zürich,8001,Gessnerallee,Switzerland,47.37553,8.53507,http://www.lauter.ch/
/venues/3313629,Le Trou,Avenches,1585,Salavaux (Bellerive) (VD),Switzerland,46.91861,7.02228,
/venues/1159326,Kultur-casino Bern,Bern,3011,Herrengasse 25,Switzerland,46.94689,7.44871,
/venues/3060699,Private Event,Zürich,,,Switzerland,47.36865,8.53918,
/venues/419011,Jazz Festival Willisau,Willisau,,,Switzerland,,,
/venues/1382441,Kupferschmiede,Bern,3550,Güterstrasse 20,Switzerland,46.93685,7.78725,
/venues/2074089,Teatro Nuovo Studio Foce,Lugano,6900,Via Foce 1 - 6900 Lugano,Switzerland,46.00562,8.9613,
/venues/2098384,Taverne De La République,Geneva,,Rue de Carouge,Switzerland,46.19292,6.14387,
/venues/984076,Kultur- und Kongresszentrum Trafo,Baden,5400,Brown Boveri Platz 1,Switzerland,47.47824,8.30507,
/venues/3010814,Quellrock Open Air,Chur,7310,Freudenberg,Switzerland,47.00848,9.49224,
/venues/3102774,George Bar & Grill,Zürich,8001,Sihlstrasse 50,Switzerland,47.37299,8.53389,http://george-grill.ch/
/venues/1310826,Devi's Pearl Bar,Zürich,8003,Birmensdorferstrasse 83,Switzerland,47.37078,8.52391,
/venues/1325236,Provisorium 8 (rötzmattweg 8),Olten,,,Switzerland,,,
/venues/2130094,Viertel,St. Gallen,9034,Hinter der Kirche,Switzerland,47.40657,9.46051,http://www.viertel.ch/
/venues/1969909,Ampere,Affoltern am Albis,,,Switzerland,47.27951,8.45401,
/venues/2619258,Les Georges Festival,Fribourg,1700,Place Georges Python,Switzerland,46.80467,7.15637,http://www.lesgeorges.ch/fr
/venues/2723023,Grand Théâtre de Genève,Geneva,,,Switzerland,46.19839,6.1423,
/venues/3242579,Conservatoire Place Neuve,Geneva,,Place de Neuve 5,Switzerland,46.20152,6.14385,http://www.cmg.ch/
/venues/2649983,LA CAVE ELECTRO,Geneva,,ARNOLD WINKELRIED 4,Switzerland,46.20712,6.1464,
/venues/3515499,The Yucatan,Luzern,,,Switzerland,46.82003,8.40699,
/venues/1312761,Théâtre 2.21,Lausanne,,,Switzerland,,,
/venues/4181034,Verso,Basel,4051,Petersgraben 50,Switzerland,47.55852,7.58353,http://www.versobar.ch
/venues/2307434,Casinotheater,Winterthur,8400,Stadthausstrasse 119,Switzerland,47.49986,8.72658,
/venues/78962,Forum Fribourg,Fribourg,1763,Route du Lac 12,Switzerland,46.82443,7.15264,
/venues/2566689,Salotto,Zürich,8005,Hardturmstrasse 169,Switzerland,47.39345,8.51121,http://www.salotto-zurich.com
/venues/1340826,Rümlang,Zürich,8153,Rümlang,Switzerland,47.4499,8.53116,
/venues/3627289,Rhybadi,Schaffhausen,3200,Rheinuferstrasse 1,Switzerland,47.69435,8.63838,https://www.rhybadi.ch
/venues/361776,Barbarie,Biel,,Silbergasse,Switzerland,47.1348,7.2488,
/venues/1817318,Stadtsommer,Zürich,,,Switzerland,,,
/venues/2864858,Autobahnkreisel,Hinwil,8340,Affeltrangerstrasse,Switzerland,47.28802,8.81931,
/venues/3536594,Marina,Basel,4057,Uferstrasse 80,Switzerland,47.58033,7.58647,
/venues/3924174,Gessnerallee,Zürich,8001,Gessnerallee 8,Switzerland,47.37476,8.53471,http://www.gessnerallee.ch
/venues/1930519,Kapitel,Bern,,,Switzerland,,,
/venues/2088739,Gare Du Nord - Theatersaal,Basel,4058,Schwarzwaldallee 200,Switzerland,47.56739,7.60714,
/venues/2961153,"Künstlerhaus Boswil, Alte Kirche",Wohlen,5623,Flurstrasse 21,Switzerland,47.30322,8.32052,http://www.kuenstlerhausboswil.ch
/venues/4199974,Bolero Club,Winterthur,,,Switzerland,,,
/venues/392111,Glashaus,Basel,5734,Aarauerstrasse 70,Switzerland,47.26532,8.17705,
/venues/551526,Memphis Bar,Zürich,,,Switzerland,,,
/venues/1907933,Bernexpo - Halle 4.1,Bern,3014,Mingerstraße 6,Switzerland,46.9598,7.46817,
/venues/3230284,Central Station,Geneva,,2 rue de la Faucille,Switzerland,46.2104,6.13982,https://www.facebook.com/centralstationgeneva/
/venues/3143859,Volkshaus Unionsaal,Basel,4058,Rebgasse 12,Switzerland,47.56108,7.59352,
/venues/2809878,Rok Klub,Luzern,,,Switzerland,47.05004,8.30893,
/venues/1426653,Chez Fritz,Buchs,,,Switzerland,,,
/venues/4082939,Einspruch Diskothek,Bern,,Aarbergergasse 35,Switzerland,46.94952,7.44252,
/venues/4176419,Aegerihalle,Zürich,6314,Zentrum Chilematt Alte Landstrasse 113,Switzerland,47.13822,8.58197,
/venues/3483204,Openair Etziken,Solothurn,4554,Bolkenstrasse 8,Switzerland,47.19053,7.65314,
/venues/4022189,Schloss Sargans,Mels,7320,Schlossstrasse,Switzerland,47.05143,9.44011,http://schlosssargans.ch
/venues/1261011,Bernhard Theater,Zürich,8008,Falkenstrasse 1,Switzerland,47.36464,8.54648,
/venues/1485298,Hotel Schatzalp,Davos,7270,,Switzerland,46.78926,9.80023,
/venues/1625668,Kultur Parterre,Basel,CH-4057,Klybeckstr. 1b,Switzerland,47.56381,7.59113,http://www.parterre.net/
/venues/1865383,Musig I De Altstadt,Aarau,,,Switzerland,,,
/venues/4064909,Freiraum,Altstätten,9443,Bahnhofstrasse 29,Switzerland,47.40538,9.63498,https://freiraum-widnau.ch
/venues/2504514,Bscene Festival,Basel,,,Switzerland,47.55742,7.59257,
/venues/2762268,Zauberwald,Chur,,,Switzerland,46.72867,9.55747,
/venues/2936213,"Gessnerallee Zürich, Nordflügel",Zürich,8001,Gessnerallee 8,Switzerland,47.37476,8.53471,
/venues/1779298,Teufenerstrasse,St. Gallen,,,Switzerland,,,
/venues/4395158,Bistro St. Gallen,St. Gallen,,,Switzerland,,,
/venues/1263796,La Barakason,Geneva,1226,Route de Jussy 39,Switzerland,46.19747,6.20824,https://barakason.live/
/venues/126444,Palazzetto Fevi,Locarno,6600,Via alla Peschiera - Locarno (CH),Switzerland,46.16345,8.79,
/venues/3021539,"Theater Casino Zug, Theatersaal",Zug,6300,Artherstrasse 2-4,Switzerland,47.16458,8.5139,
/venues/1329631,"La Fabbrica, Losone",Locarno,,,Switzerland,,,
/venues/1490163,Cafe Bar Agora,Basel,,Feldbergstrasse 51,Switzerland,47.56645,7.59128,
/venues/2211509,Vorstadt Sounds Festival,Zürich,8047,Fellenbergstrasse,Switzerland,47.37421,8.49393,
/venues/3769534,Inch Club,Sierre,,Furkastrasse 59,Switzerland,46.40435,8.13552,https://www.facebook.com/pg/inchclubfiesch/about/?ref=page_internal
/venues/2694518,Pillow Song Loft,Stans,6370,Engelbergstrasse 40a,Switzerland,46.95619,8.37116,
/venues/1265276,Café Bar Nordbrücke,Zürich,,,Switzerland,,,
/venues/32589,Loft Club and Cafe,Lausanne,1003,,Switzerland,46.52079,6.63149,http://www.loftclub.ch
/venues/1790878,Autonomer Beauty Salon,Zürich,,,Switzerland,,,
/venues/2104529,25Hours Hotel,Zürich,,,Switzerland,47.36865,8.53918,
/venues/3541734,City Garden Hotel,Zug,6300,Metallstrasse 20,Switzerland,47.17317,8.5212,http://www.cu-restaurant.ch
/venues/2756958,Kongress- und Kulturzentrum Rondo,St. Moritz,7504,Via Maistra 133,Switzerland,46.49302,9.9029,
/venues/2329314,Dracula Club,St. Moritz,7500,Plazza Gunter Sachs,Switzerland,,,
/venues/1715033,Stage Club,Basel,,,Switzerland,,,
/venues/4378865,Hauser's Terrasse,St. Moritz,7500,Via Traunter plazzas 7,Switzerland,46.49753,9.83785,https://www.hotelhauser.ch/hauser-st-moritz/
/venues/2180139,"THE CAVERN, Deep Below The Omnia",Zermatt,,Bahnhofstrasse 84,Switzerland,46.02021,7.74588,https://www.facebook.com/cavern.zermatt
/venues/1906188,Festival De La Bâtie,Geneva,,,Switzerland,,,https://www.batie.ch
/venues/3705064,Palazzo Bowling & Beat Club,Chur,7007,Seilerbahnweg 7,Switzerland,46.84728,9.52713,
/venues/2457699,Schneiderei,Zürich,8004,Langstrasse 117,Switzerland,47.37919,8.52723,https://www.schneiderei-verein.ch/
/venues/969636,Salle Arnold Reymond,Lausanne,9999 Pul,15 Chemin du Fau-Blanc,Switzerland,46.51299,6.66002,
/venues/1445918,Ug Bülach,Bulach,,,Switzerland,,,
/venues/3581224,Morel,Lugano,6900,Via Antonio Adamini 4,Switzerland,45.99893,8.94722,
/venues/3570314,MuuZ,Uzwil,,,Switzerland,47.44537,9.14224,http://www.muuz.ch
/venues/2732438,Allmend,Bern,3014,Papiermühlestrasse,Switzerland,46.96037,7.46469,
/venues/4099484,Pacifico,Luzern,,,Switzerland,,,
/venues/898161,Hidden,Solothurn,,,Switzerland,,,
/venues/1188711,Heiliggeistkirche,Bern,3011,Spitalgasse 44,Switzerland,46.94799,7.44074,https://www.offene-kirche.ch/
/venues/2323864,Areal der Kapelle St. Peter,Basel,4703,St. Peterstrasse,Switzerland,47.28503,7.75155,https://sunsetevents.ch
/venues/2787218,Kaserne Basel - Reithalle,Basel,4057,Klybeckstrasse 1B,Switzerland,47.56384,7.59128,
/venues/1042286,Im Viadukt,Zürich,,,Switzerland,,,
/venues/1170106,BEA Bern Expo,Bern,3014,Mingerstrasse 6,Switzerland,46.9598,7.46817,
/venues/1370541,Milk Klub,Geneva,,,Switzerland,,,
/venues/1751053,Parabôle Festival,Neuchatel,2014,,Switzerland,46.96887,6.83681,http://www.parabolefestival.ch/
/venues/451996,Cinema Teatro,Chiasso,6830,via D. Alighieri 3,Switzerland,45.83657,9.02692,
/venues/3778534,Schüxenhaus Ins,Bern,3232,Bielstrasse 71,Switzerland,47.00825,7.1167,
/venues/2892378,La Cyma,Winterthur,8400,Neustadtgasse 1A,Switzerland,47.49844,8.73201,
/venues/2755738,Botanischer Garten,Bern,,,Switzerland,46.94792,7.44461,
/venues/1112026,Kongress & Kursaal Bern,Bern,3000,Kornhausstrasse 3,Switzerland,46.9531,7.44938,
/venues/1047476,Postfinance Arena,Bern,3012,Mingerstrasse,Switzerland,46.9565,7.46441,
/venues/2234474,Sternenkeller,Zürich,8630,Ferrachstr.72,Switzerland,47.2554,8.85779,http://www.sternenkeller.ch
/venues/2853538,L'Abri,Geneva,1204,Place de la Madeleine 1,Switzerland,46.20176,6.14956,http://www.fondationlabri.ch
/venues/2772278,Schweizerhof Bar,Zürich,8001,Bahnhofplatz 7,Switzerland,47.37693,8.5394,
/venues/1494908,Bärensaal,Bern,3600,Frutigenstrasse 68d,Switzerland,46.74342,7.62654,
/venues/178168,Metro Club,Lugano,,,Switzerland,,,
/venues/3509194,Werkhof 102,Bern,3007,Schwarztorstrasse 102,Switzerland,46.94484,7.42564,https://www.werkhof102.com/
/venues/1675423,Kunsthaus,Bern,3800,Jungfraustrasse 55,Switzerland,46.68463,7.85695,
/venues/2893998,Le Kremlin,Monthey,,,Switzerland,46.25642,6.95717,
/venues/1240846,Das Zelt Zürich,Zürich,8004,Kasernenareal,Switzerland,47.3763,8.53153,
/venues/1903363,Les Caves de Bon-Séjour,Geneva,1290,Route de Sauverny 6,Switzerland,46.28398,6.165,http://www.versoix.ch/lescaves.php?page=1160
/venues/1325061,Strichpunkt,Luzern,,,Switzerland,,,
/venues/617181,Fassbeiz,Schaffhausen,,,Switzerland,,,
/venues/1750518,Lokal,Basel,,Hebelstr 108,Switzerland,47.56347,7.57753,
/venues/2927823,Schlaflos Club,Aarau,,,Switzerland,47.3934,8.04312,
/venues/2740453,Basler Papiermühle,Basel,4052,St. Alban-Tal 37,Switzerland,47.55468,7.60347,
/venues/3727709,Härdöpfuchäuer Schöftland,Aarau,5040 Schöftland,Dorfstrasse,Switzerland,47.30624,8.05119,http://haerdoepfuchaeuer.ch/
/venues/2736678,L'UNIQUE,Basel,4051,Gerbergässlein 20 4051 Basel,Switzerland,47.55613,7.58821,http://www.lunique.ch/
/venues/1102866,Ug Club,Bulach,,,Switzerland,,,
/venues/146993,Atelier Volant,Lausanne,,,Switzerland,,,
/venues/3493919,Musigbeiz Schlüssel,Altstätten,,Ringgasse 21,Switzerland,47.37702,9.54073,
/venues/2037389,prima luna,Bern,,Effingerstrasse 92,Switzerland,46.94583,7.42766,
/venues/2138119,Les Hivernales,Nyon,1260,Multiple venues,Switzerland,46.38051,6.22987,https://leshivernales.ch
/venues/2600483,Luzerner Theater,Luzern,6003,Theaterstrasse 2,Switzerland,47.05062,8.3062,http://www.luzernertheater.ch/
/venues/2828908,Oops Bar,Lugano,6900,Via Carlo Maderno 24,Switzerland,46.01086,8.95561,
/venues/2871503,Fenomeno Bar,Geneva,1201,Place de la navigation,Switzerland,46.2117,6.14993,
/venues/125462,Stravinsky Hall,Montreux,,,Switzerland,,,
/venues/417646,Casino Theater,Burgdorf,,,Switzerland,,,
/venues/3649524,Kulturhaus Central,Uster,8610,Brauereistrasse 2,Switzerland,47.34643,8.71777,
/venues/3452144,RAUm132,Wetzikon,8620,Bahnhofstrasse 132,Switzerland,47.32506,8.79869,
/venues/3059284,Landgasthof Riehen,Basel,4125,Baselstrasse 38,Switzerland,47.58414,7.65012,
/venues/2776023,BCV Concert Hall,Lausanne,1002,Voie du Chariot 23,Switzerland,46.52157,6.62608,
/venues/2585348,Théâtre de la Poudrière,Neuchatel,2000,Quai Ph.-Godet 22,Switzerland,46.9996,6.93441,http://www.theatre-poudriere.ch
/venues/3217028,Theater an der Winkelwiese,Zürich,CH-8001 Zürich,Winkelwiese 4,Switzerland,47.37016,8.54671,http://winkelwiese.ch/
/venues/2417804,Kirche St. Peter,Zürich,8001,St.-Peter-Hofstatt,Switzerland,47.37158,8.54065,
/venues/2545729,Kongress-zentrum Schluefweg,Kloten,8302,Schluefweg 10,Switzerland,47.44404,8.58223,
/venues/2160054,Le Bateau-Lavoir,Geneva,,,Switzerland,46.20439,6.14316,http://bateau-lavoir.ch/
/venues/3139804,Toms Beer Box,Chur,7000,,Switzerland,46.85078,9.53199,http://www.toms.ch/
/venues/1161286,Parc Des Bastions,Geneva,1204,Prom. des Bastions 1,Switzerland,46.20074,6.14458,
/venues/4233249,Eisenwerk Saal,Winterthur,8500,Industriestrasse 23,Switzerland,47.56107,8.89393,
/venues/2783968,Café-bar Turnhalle,Bern,3011,Speichergasse 4,Switzerland,46.95034,7.44298,
/venues/2500619,Go-In,Bern,,,Switzerland,46.8829,8.0161,http://go-in-soerenberg.ch/
/venues/116025,Piazza Della Riforma,Lugano,6900,,Switzerland,46.00937,8.95079,
/venues/100790,Centro Esposizioni Di Lugano,Lugano,6900,Viale Campo Marzio,Switzerland,46.00708,8.96234,
/venues/3425329,SOHO Club,Bern,4537,Wangenstrasse 45,Switzerland,47.24108,7.65203,
/venues/2813453,Flugplatz-halle,Basel,4325,,Switzerland,47.51356,7.96554,
/venues/3300304,Venoge Festival,Lausanne,1303,"Chemin du Stade, 1305",Switzerland,46.60246,6.52859,
/venues/883191,Gambrinus Jazz Club,St. Gallen,,,Switzerland,47.42448,9.37672,
/venues/1959604,Titty Twister Bar,St. Gallen,9000,Lämmlisbrunnenstrasse 5,Switzerland,47.42458,9.38018,
/venues/2436969,L'Azimut,Estavayer-Le-Lac,1470,Avenue de la Gare 111,Switzerland,46.84551,6.84313,http://www.l-azimut.ch
/venues/2704728,Bar King du Lac,Neuchatel,2000,Quai du port 10,Switzerland,46.99096,6.93323,https://www.facebook.com/LeBarKingDuLac/
/venues/1471533,Le Lux,La Chaux De Fonds,2400,Rue de  France 24,Switzerland,47.05569,6.74314,http://www.lelux-concert.ch/
/venues/612901,For Noise Festival,Lausanne,1009,Chemin Du Stand 5,Switzerland,46.51958,6.66884,
/venues/3977044,Gate54,Baden,5400,Zürcherstrasse 1,Switzerland,47.47113,8.30619,
/venues/2283024,h95,Basel,,Horburgstrasse 95,Switzerland,47.57183,7.5963,
/venues/93237,Le Transformateur,Fribourg,1700,Route de la Fonderie 11,Switzerland,46.79476,7.15295,
/venues/131314,Festivalgelande,St. Gallen,,Sittertobel,Switzerland,47.42222,9.33952,
/venues/1467118,Tommasini,Zürich,5600,Seonerstrasse 23,Switzerland,47.38323,8.17546,
/venues/1296016,Summer Sound,Sursee,6210,,Switzerland,47.17715,8.10436,
/venues/418596,Wenkenpark,Basel,4125,"Bettingerstrasse, 121",Switzerland,47.57496,7.65291,
/venues/542026,Aula Gringel,Appenzell,9050,Unterrainstrasse 7,Switzerland,47.32675,9.4127,
/venues/1564843,Gemeindesaal,Zürich,6275,Ambar 2,Switzerland,47.15335,8.3239,
/venues/2990648,Reeds Festival,Pfaffikon,,,Switzerland,47.3668,8.78476,http://www.reeds-festival.ch
/venues/47594,Metropop,Lausanne,87000,Place Bel-Air 1,Switzerland,46.52211,6.6289,
/venues/946406,Jazzclub Uster,Uster,8610,Asylstrasse,Switzerland,47.35121,8.72442,http://www.jazzclubuster.ch
/venues/2742553,Peterskirche Basel,Basel,4051,Petergasse 54,Switzerland,47.55947,7.58555,
/venues/4358877,MÄX,Zürich,8005,Hardstrasse 219,Switzerland,47.38676,8.51667,
/venues/85053,Wagenmeister,Basel,,,Switzerland,,,
/venues/3573144,Badenfahrt,Baden,,,Switzerland,47.47288,8.30809,
/venues/1593408,Stadttheater Schaffhausen,Schaffhausen,8200,Herrenacker 23,Switzerland,47.69576,8.63344,
/venues/4046529,Kino Orion,Dubendorf,8600,Neuhofstrasse 23,Switzerland,47.39934,8.62229,https://kino-orion.ch
/venues/2985573,Berner GenerationenHaus,Bern,3001 Bern,Bahnhofplatz 2,Switzerland,46.94802,7.43962,
/venues/4126719,Parterre One,Basel,4057,Klybeckstrasse 1b,Switzerland,47.56381,7.59113,http://www.parterre-one.ch
/venues/1422103,Base Bar,Lausanne,,"Avenue de Sévelin 46, 1004 Lausanne",Switzerland,46.5228,6.61855,
/venues/970056,Obere Matten,Zermatt,3920,Obere Mattenstrasse 7,Switzerland,46.02235,7.7484,
/venues/3033689,Piazza Grande,Locarno,6600,Piazza Grande 1,Switzerland,46.16922,8.79744,
/venues/3090559,Schlossgut Münsingen,Bern,3110,Schlossstrasse 13,Switzerland,46.87531,7.56019,
/venues/2260654,L'abarc,Geneva,,,Switzerland,,,
/venues/2363864,Elmo Delmo,Zürich,,Badenerstrasse 565,Switzerland,47.38381,8.49762,http://elmodelmo.com
/venues/4336912,Kir Royal,Zürich,,,Switzerland,,,
/venues/1894023,Basler Münster,Basel,,,Switzerland,,,
/venues/3856969,NOVA.Theater,Pfaffikon,8330,Spitalstrasse 1,Switzerland,47.36514,8.78842,https://nova.theater/
/venues/1781228,Borderline 2.0,Basel,4056,Hagenaustrasse 29,Switzerland,47.57402,7.56876,
/venues/3389884,Marian's Jazz Club,Bern,3012,Engestrasse 54,Switzerland,46.96103,7.43941,
/venues/1578453,Voix De Fête,Geneva,,,Switzerland,,,
/venues/4037659,Dolder Grand Hotel Zürich,Zürich,8032,Kurhausstrasse 65,Switzerland,47.37278,8.57335,
/venues/3242739,BarMünster,Zürich,8001,Münstergasse 30,Switzerland,47.37171,8.54399,http://www.barmuenster.ch
/venues/1953424,Para,Neuchatel,,,Switzerland,,,
/venues/984151,Heldenbar,Zürich,,,Switzerland,,,
/venues/1188686,Grossmünster,Zürich,8001,Zwingliplatz,Switzerland,47.37037,8.54436,
/venues/4342441,Freiruum,Zug,,,Switzerland,,,https://freiruum.ch
/venues/3295499,Laura's Pub,Zürich,,,Switzerland,47.48674,8.21091,https://www.facebook.com/Lauras-Pub-144348125643768/
/venues/3460149,Im Schtei,Luzern,,,Switzerland,47.13415,8.19336,
/venues/2469554,Villa K.,Winterthur,,,Switzerland,47.49995,8.73756,
/venues/4353777,Höfli Pub Mels,Mels,8887,Kirchstrasse,Switzerland,47.04656,9.42147,
/venues/1410093,Hacienda Sonic,Sierre,3960,Rue De La Monderèche 7,Switzerland,46.29065,7.53197,
/venues/1490358,Ey5,Bern,,,Switzerland,,,
/venues/1856983,Dampfschiff Stadt Luzern,Luzern,,,Switzerland,,,
/venues/988536,Debarcadere Cgn,Montreux,1820,Débarcadère Cgn,Switzerland,46.43466,6.91002,
/venues/1029211,Floor Club,Kloten,,,Switzerland,,,
/venues/1381186,Baracca,St. Gallen,,2/4 Teufenerstrasse 9000,Switzerland,47.421,9.37136,
/venues/2185619,Liestal Air,Basel,4410,Gestadeckplatz,Switzerland,47.48614,7.73742,
/venues/3663534,District 28,Schwyz,8854  Siebnen,,Switzerland,47.17449,8.89718,
/venues/3847384,Wash-Bar,Bern,3008,Schanzenstrasse 5,Switzerland,46.94797,7.43633,http://www.wash-bar.ch
/venues/3266619,Museum Langmatt,Baden,5401,Römerstrasse 30,Switzerland,47.48144,8.30754,http://www.langmatt.ch/
/venues/4398452,Monti-winterquartier,Wohlen,5610,Wilstrasse 71,Switzerland,47.35466,8.26354,
/venues/3979694,Ostfest,Bern,,,Switzerland,,,https://www.ostfest.ch/
/venues/2366619,Quaianlagen,Arbon,9320,Adolf Saurer-Quai,Switzerland,47.51391,9.43769,
/venues/3143229,Haberhaus,Schaffhausen,8200,Neustadt 51,Switzerland,47.69535,8.63204,http://www.haberhaus.ch/
/venues/123641,Gurten,Bern,3000,Gurten,Switzerland,46.91726,7.44379,
/venues/129728,Tab Tab,Schaffhausen,,,Switzerland,,,
/venues/938521,Mendrisio Arena,Mendrisio,CH-6850,"Via Angelo Maspoli, 24",Switzerland,45.87574,8.97978,http://www.arenalive.net
/venues/2220724,Graum,Uster,8610,Florastrasse 49,Switzerland,47.34731,8.72203,
/venues/2396014,Montana,Davos,7260,Bahnhofstrasse 2,Switzerland,46.80878,9.84057,http://www.montana-bar.ch
/venues/3928619,Les Etages des Bergues,Geneva,1201,Rue Kléberg 21,Switzerland,46.20717,6.14546,
/venues/2492474,Casa Antica,Chur,7250,Landstrasse 176,Switzerland,46.86826,9.88318,http://www.casaantica-klosters.ch
/venues/2847078,"Theater Casino Zug, Festsaal",Zug,6300,Artherstrasse 2-4,Switzerland,47.16458,8.5139,
/venues/3247614,The Pit,Locarno,,,Switzerland,46.19462,9.02441,
/venues/2088729,Wirtschaft Ziegelhütte (kegelbahn),Zürich,8051,Hüttenkopfstrasse 70,Switzerland,47.39963,8.57264,
/venues/3600384,Bau4 - Altbüron,Sursee,6147,,Switzerland,47.15966,8.0412,http://www.schaerholzbau.ch/unternehmen/kultur-bau-4/
/venues/3963739,Kulturzentrum Braui - Hochdorf,Zürich,6280,Brauiplatz 5,Switzerland,47.16731,8.29013,
/venues/417891,Estivale Open Air,Estavayer-Le-Lac,,,Switzerland,46.84964,6.84506,http://www.estivale.ch/
/venues/1226871,Aula Du Collège St-michel,Fribourg,1700,Rue St.-pierre-canisius 10,Switzerland,46.80637,7.15902,
/venues/2741898,Bongo Joe Records,Geneva,,9 pl. des Augustins,Switzerland,46.19133,6.14466,http://bongojoe.ch/
/venues/2678413,Teatro di Banco,Lugano,6981,Via Teatro 9,Switzerland,46.01117,8.8415,http://www.teatrodibanco.ch
/venues/1490298,Trischli Club,St. Gallen,,,Switzerland,,,
/venues/1546993,Théâtre Du Pommier,Neuchatel,,,Switzerland,,,
/venues/2144114,Altes Schlachthaus,Langenthal,3360,Fabrikstrasse 4,Switzerland,47.18795,7.70419,http://www.altesschlachthaus.ch/
/venues/2165179,La Fonderie Kugler,Geneva,1205,Rue de la Truite 4bis,Switzerland,46.20186,6.12565,
/venues/2183224,Weihern Unplugged,St. Gallen,9000,Dreilindenstrasse,Switzerland,47.42453,9.39151,
/venues/3803269,Point Bar Club,Geneva,1204 Genève,3 Rue du Marché,Switzerland,46.20354,6.14621,
/venues/3612449,Moon & Stars Piazza Piccola,Locarno,,,Switzerland,46.167,8.79426,
/venues/2085669,Sessions Studio 603,Montreux,,,Switzerland,46.46273,6.84243,https://www.facebook.com/pages/Sessions-Studio-603/165978506784016?ref=hl
/venues/4095669,La Galicienne,Lausanne,1008,Chemin du Viaduc,Switzerland,46.52788,6.60181,http://www.lagalicienne.ch
/venues/126952,Art On Ice,Zürich,,,Switzerland,,,
/venues/1674573,Alte Landi,Bern,,,Switzerland,,,
/venues/841906,Théâtre La Fourmi,Luzern,6003,,Switzerland,47.04846,8.292,
/venues/2268174,Mahagony Hall,Bern,,,Switzerland,,,
/venues/2264819,Hotel Schweizerhof,Zürich,8001,Bahnhofplatz 7,Switzerland,47.37693,8.5394,
/venues/99611,Sittertobel,St. Gallen,9000,,Switzerland,47.42456,9.3749,
/venues/1543943,Cafe Zahringer,Zürich,,Zähringerplatz 11,Switzerland,47.37361,8.54485,
/venues/1563153,Schaltzentrale,Basel,,,Switzerland,,,
/venues/1903838,Beach Club,Hinwil,8340,Wässeristr. 12,Switzerland,47.3045,8.82602,http://www.beach-club.ch/
/venues/551536,Chicago Bar,Zug,,,Switzerland,47.16617,8.51549,
/venues/2097264,Privilège (globull),Bulle,,,Switzerland,,,
/venues/3860514,Le Terreau,Geneva,,8 Rue des Terreaux-du-Temple,Switzerland,46.20617,6.14036,
/venues/4228809,Bären Biglen,Bern,3507 Biglen,Bärenstutz 17,Switzerland,46.92827,7.62813,
/venues/2330254,Longlake Festival,Lugano,,,Switzerland,,,
/venues/4176764,Rathaus für Kultur,Lichtensteig,,,Switzerland,,,
/venues/50430,Vernier sur Rock,Geneva,,,Switzerland,,,
/venues/3766349,Sherlock Lounge Meiringen,Brienz,,,Switzerland,46.75415,8.03169,http://sherlock-lounge.ch
/venues/121563,Cafe Mokka Thun,Bern,,,Switzerland,,,
/venues/2823538,Das O,Bern,3700,Thunstrasse 4,Switzerland,46.69001,7.67478,
/venues/4098154,"Kulturhaus Palazzo, Theater",Basel,4410,Poststrasse 2,Switzerland,47.484,7.73228,
/venues/2557534,Vivai Dance Club,St. Moritz,,,Switzerland,46.4951,9.83614,http://www.vivai.ch
/venues/1839278,Fête De La Musique,Lausanne,,,Switzerland,,,
/venues/4066424,Songbird Festival,Davos,,,Switzerland,,,http://www.songbirdfestival.ch/de/
/venues/2455884,Cargo Club Biel,Biel,2503,Mattenstrasse 165,Switzerland,47.13834,7.25963,
/venues/2665313,Lucerne Festival,Luzern,,,Switzerland,47.05004,8.30893,http://www.lucernefestival.ch/de/
/venues/2943458,Gleiswerk,Bern,3600,Seestrasse 14,Switzerland,46.75142,7.63312,
/venues/2817958,Club Tsunami,Conthey,1964,Rue des industries 9,Switzerland,46.21602,7.29728,http://www.tsunami.ch/
/venues/936341,"Ms Zug, Landsgemeindeplatz",Zug,6300,,Switzerland,47.15583,8.53149,
/venues/1341276,Café Hammer,Basel,4057,Hammerstrasse 133,Switzerland,47.56741,7.59491,
/venues/1914178,Kultarena,Bern,3122,Belpstrasse 21,Switzerland,46.90724,7.47553,
/venues/1943694,Loft Club,Luzern,,,Switzerland,,,
/venues/3612079,Estri.ch,Solothurn,4558,Hauptstrasse,Switzerland,47.1658,7.63421,
/venues/3845349,Kult X,Kreuzlingen,8280,Hafenstraße 8,Switzerland,47.65159,9.17542,https://kult-x.ch
/venues/1041911,Vanilla Club,Lugano,,,Switzerland,,,
/venues/1505778,Amphitheater Hüntwangen,Zürich,8194,Hüntwangen,Switzerland,47.5895,8.50069,
/venues/2142209,Clubzone1,Zürich,,,Switzerland,,,
/venues/3385664,Label Suisse,Lausanne,1002,Rue de Bourg 51,Switzerland,46.52013,6.63663,https://labelsuisse.ch
/venues/3823269,Octave Club,Conthey,1964,Rue des Industries 9,Switzerland,46.21602,7.29728,
/venues/2746093,Jazzkeller,Mels,7320,Städtchen 60,Switzerland,47.05064,9.43552,
/venues/2801768,Teatro Di Locarno,Locarno,6600,Largo Zorzi 1,Switzerland,46.16961,8.79894,
/venues/59033,Break,Affoltern am Albis,CH-8910,Industriestrasse 19,Switzerland,47.27111,8.44546,
/venues/60233,Patinoire des Vernets,Geneva,1227,rue Hans Wilsdorf 4,Switzerland,46.19504,6.13398,
/venues/2162499,Atelier Hinterrüti,Zürich,8810,Hinterrutistrasse 16,Switzerland,47.23716,8.6054,http://www.hinterrueti.ch
/venues/4133584,Helsinki Club,Zürich,,Geroldstrasse 35,Switzerland,47.38582,8.51819,
/venues/3300509,Lexy Club,Zürich,,,Switzerland,47.37689,8.54169,
/venues/46352,Grand Casino,Geneva,1250,Quai du Mont-Blanc 19,Switzerland,46.21018,6.15088,
/venues/1182241,Stiftung Progr,Bern,3011,Waisenhausplatz 30,Switzerland,46.95016,7.44387,http://progr.ch
/venues/649956,Java Club,Geneva,,,Switzerland,,,
/venues/606371,Dachstock Reithalle,Bern,,Schutzenmatte Neubruckstrasse 8,Switzerland,46.95296,7.44066,
/venues/418986,Sportzentrum Tägerhard,Wettingen,5430,Tägerhardstrasse 112,Switzerland,47.45664,8.33324,
/venues/3444689,Werk 1,Gossau,9200,Fabrikstrasse 7,Switzerland,47.41523,9.25342,http://www.werk-1.ch
/venues/1670993,Mzg Ifang,Bazenheid,9602,Ifangstrasse 11,Switzerland,47.41458,9.06374,
/venues/3275969,Das Zelt,Zug,6300,Stierenmarkplatz,Switzerland,47.15583,8.53149,
/venues/885001,Trucker & Country Festival Grounds,Bern,,,Switzerland,46.68635,7.8632,
/venues/4232149,Humbug Club,Basel,,,Switzerland,,,
/venues/2621578,Open Air Basel,Basel,,"Klybeckstrasse 1b, 4057",Switzerland,47.56384,7.59128,http://www.openairbs.ch/
/venues/3263979,U Bar,Lausanne,1003,Voie du Chariot 28,Switzerland,46.52097,6.62885,
/venues/1625638,Leysarium,Montreux,,,Switzerland,46.34129,7.01243,
/venues/1802273,Lugano Buskers Festival,Lugano,,,Switzerland,,,
/venues/1855728,Radio X,Basel,,,Switzerland,,,
/venues/1017751,Schweizerhof Club,Luzern,,,Switzerland,,,
/venues/1257581,"Kellertheater, Brig",Sion,,-,Switzerland,46.23312,7.36063,
/venues/556646,Openair Wipkingen,Zürich,,Wipkingen,Switzerland,47.39442,8.52536,
/venues/3678109,Gallery club,Zürich,8001,Talstrasse 5,Switzerland,47.36775,8.53895,
/venues/3840964,Grosse Reithalle,Winterthur,8400,Zeughausstrasse 67,Switzerland,47.49552,8.73198,
/venues/1103761,Clanx Festival,Appenzell,,,Switzerland,47.3308,9.40871,
/venues/2022254,Burgsaal,Bern,3600,Burgstrasse 9,Switzerland,46.75949,7.63181,
/venues/2764428,Kongresszentrum Parkarena,Winterthur,8404,Barbara Reinhartstr. 24,Switzerland,47.50316,8.76173,
/venues/1579053,Das Zelt,Aarau,5000,Schachen,Switzerland,47.39101,8.04013,
/venues/4396641,Innenhof Landesmuseum,Zürich,8000,,Switzerland,47.38181,8.53533,
/venues/2206618,Neubau Graffiti,Bern,,,Switzerland,,,
/venues/3626229,"Centre des Arts, Ecole Internationale de Genève",Geneva,1208,Route de Chêne 62,Switzerland,46.19924,6.17137,http://www.ecolint-arts.ch/
/venues/2832923,Commihalle,Zürich,8001,Stampfenbachstrasse 8,Switzerland,47.37775,8.54385,
/venues/2531414,Rondel,Bern,,,Switzerland,46.94792,7.44461,
/venues/961741,Casino,Wohlen,5610,Zentralstrasse 30,Switzerland,47.34958,8.27632,
/venues/1596733,Aiglon,Geneva,,,Switzerland,,,
/venues/1869903,Albanifest,Winterthur,,,Switzerland,,,
/venues/751661,Openair Gampel,Gampel,3945,Bahnhofstrasse 21,Switzerland,46.31431,7.74446,
/venues/233058,Platinum,Geneva,,,Switzerland,,,
/venues/419516,Kulturmarkt,Zürich,8003,Aemtlerstrasse,Switzerland,47.37473,8.51252,
/venues/4079499,Mittwochsbar,Basel,,Klybeck Areal,Switzerland,47.57577,7.58896,https://www.facebook.com/ilbardelmercoledi
/venues/3099824,Zoobar,Bern,3014,Lorrainestrasse 69,Switzerland,46.95985,7.44548,http://www.zoobar.ch
/venues/2439164,Resega,Lugano,6948,"Via Chiosso, Porza",Switzerland,46.02746,8.9639,
/venues/4160739,Helsinkiklub,Zürich,,,Switzerland,,,
/venues/2592758,Archiv,Basel,,,Switzerland,47.56744,7.59755,
/venues/3039484,Plattform,Wohlen,5610,Kapellstrasse 4,Switzerland,47.35253,8.27784,http://www.plattform-wohlen.ch/
/venues/3267109,Wasserkirche,Zürich,8001,,Switzerland,47.37416,8.53963,
/venues/551421,Neugasshof,Zürich,8005,Neugasse 35,Switzerland,47.38203,8.53035,http://www.neugasshof.ch
/venues/2000129,Badhütte Rorschach,Rorschach,9400,Seestrasse,Switzerland,47.47798,9.49485,
/venues/3776479,Redrocks,Basel,4051,Innere Margarethenstrasse 5,Switzerland,47.55021,7.58725,
/venues/1070471,Podium,Dudingen,3186,Bahnhofstrasse,Switzerland,46.8506,7.19219,
/venues/1239991,Stadttheater,Bern,3011,Kornhausplatz 20,Switzerland,46.94939,7.4472,
/venues/2693443,Les Murs du Son,La Chaux De Fonds,2300,Rue du Progrès 4,Switzerland,47.107,6.82948,http://www.mursduson.ch
/venues/1910463,Rock Altitude Festival,La Chaux De Fonds,2400,Route du Communal 3,Switzerland,47.05074,6.75758,
/venues/1928504,Pontem - Kultur Am Viadukt,Herisau,CH-9100,"GIZ Hölzli, Hölzlistrasse 3",Switzerland,47.38819,9.27045,
/venues/844881,Metalfest Open Air,Basel,,,Switzerland,,,
/venues/2941523,La Marotte,Affoltern am Albis,8910,Centralweg 10,Switzerland,47.27806,8.45195,http://www.lamarotte.ch/
/venues/3628839,Festival del film Locarno (la Rotonda),Locarno,,,Switzerland,46.167,8.79426,http://pardo.ch
/venues/2732583,Stadt-casino - Hans Huber Saal,Basel,4000,Steinenberg 14,Switzerland,47.55425,7.58936,
/venues/756901,Französische Kirche/Église Française Réformée,Bern,3000,Predigergasse 3,Switzerland,46.94921,7.44617,
/venues/4190834,Restaurant Giessenpark,Chur,7310,Seestrasse 41,Switzerland,47.00583,9.51168,http://www.giessenpark.com
/venues/2886098,Entourloop,La Chaux De Fonds,2300,Rue du Collège 4,Switzerland,47.10478,6.83189,https://www.facebook.com/lentourloopbar
/venues/2405659,Haus der Elektronischen Künste,Basel,,Oslostrasse 10,Switzerland,47.53327,7.6099,http://www.haus-ek.org
/venues/1620838,Musig Im Ochsen,Zürich,5630,Seetalstr. 16,Switzerland,47.27393,8.33647,
/venues/3657174,Ev. Kirche,St. Gallen,,,Switzerland,47.40788,9.46471,
/venues/2863003,Aarburg Im Städtli an Der Aare,Aarburg,4663,Landhausstrasse,Switzerland,47.31908,7.89854,
/venues/986136,Abendrundfahrt Auf Dem Bielersee,Biel,2500,,Switzerland,47.13678,7.24679,
/venues/3249669,Theater Basel - Grosse Bühne,Basel,4051,Theaterstrasse 7,Switzerland,47.55357,7.5904,
/venues/944326,Le Bleu Lezard,Lausanne,,,Switzerland,,,
/venues/1659883,Am Schluss,Bern,,,Switzerland,,,
/venues/3561574,Zeughaus Kultur,Sierre,3802,Gliserallee 91,Switzerland,46.31339,7.98368,http://www.zeughauskultur.ch
/venues/2836478,Kaserne (rossstall 1),Basel,4057,Klybeckstrasse 1b,Switzerland,47.56384,7.59128,
/venues/1561493,Location Steht Noch Nicht Fest,St. Gallen,,,Switzerland,,,
/venues/2460804,"Stanzerei, Royal, Merkker, U.a",Baden,5400,,Switzerland,47.46851,8.29722,
/venues/2286379,Kammgarn/haberhaus/taptab,Schaffhausen,8200,,Switzerland,47.71142,8.62654,
/venues/1834768,Cour de l'Hôtel de Ville,Geneva,1204,Rue de l’Hôtel-de-Ville 2,Switzerland,46.20072,6.14677,http://www.musiquesenete.ch
/venues/2784963,The Bruch Brothers Bar,Luzern,CH 8003,Beim Kasernenplatz Baselstrasse 7,Switzerland,47.37221,8.51624,
/venues/3259734,Haus von Klaus,Zürich,8004,Langstrasse 112,Switzerland,47.3789,8.52729,
/venues/1241291,Kollegium St. Fidelis,Stans,6370,Mürgstrasse 20,Switzerland,46.95477,8.37037,
/venues/3939224,Seaside Festival,Bern,3646,Bucht,Switzerland,46.68829,7.68552,https://www.seasidefestival.ch
/venues/4389669,Sunrise Skylights Drive-In Open Air,Zürich,8058 Kloten,Airport Parking P17,Switzerland,47.46014,8.57131,
/venues/3099149,Künstlerhaus S11,Solothurn,4502 Solothurn,Schmiedengasse 11,Switzerland,47.20751,7.53496,http://www.s11.ch
/venues/418676,Schmittner Open Air,Schmitten,,,Switzerland,,,
/venues/4359406,Casino Bern - Grosser Saal,Bern,3011,Casinoplatz 1,Switzerland,46.94696,7.44825,
/venues/3198558,La Ferme Asile,Sion,1950,Promenade des Pêcheurs 10,Switzerland,46.22978,7.37238,
/venues/2492484,Valmann Bar & Lounge,Zürich,8001,Talstrasse 58,Switzerland,47.37038,8.53612,http://www.valmann.ch
/venues/2946663,Café Les Recyclables,Geneva,1205,rue de Carouge 53,Switzerland,46.19324,6.14402,
/venues/2985603,Folk Bar,Locarno,,,Switzerland,46.19849,9.02692,
/venues/3366014,Hotel Engel,Basel,4410,Kasernenstrasse 10,Switzerland,47.4826,7.73625,
/venues/3355574,Private Event,Martigny,,,Switzerland,46.47504,7.28582,
/venues/2439199,Backstage Pub,Nyon,1196,Rue des Tuillières. 1,Switzerland,46.42257,6.25795,http://www.backstagepub.ch
/venues/3906539,Rock Oz’Arènes,Avenches,,,Switzerland,,,
/venues/4405189,Hotel Krone,Bern,,,Switzerland,,,
/venues/4389095,Pavillon Le Corbusier,Zürich,8008,Höschgasse 8,Switzerland,47.3561,8.55091,
/venues/3093919,Wilerbar,Zürich,6314,Seestrasse 10,Switzerland,47.1375,8.5868,http://www.seminarhotelaegerisee.ch/gastronomie/wilerbar.html
/venues/2400984,Cava Bar,Baden,5400,Untere Halde 9,Switzerland,47.47234,8.30993,http://www.cavabar.ch
/venues/2425829,Cafe Salon,Basel,,Sperrstrasse 94,Switzerland,47.56565,7.59646,
/venues/2514249,TheÂtre PitoËff,Geneva,,,Switzerland,46.19839,6.1423,
/venues/3325879,"Kkl Luzern, Konzertsaal",Luzern,,"Europaplatz 1, 6005 Luzern",Switzerland,47.05032,8.31183,
/venues/126480,Padiglione Conza,Lugano,6900,Padiglione Conza,Switzerland,46.00937,8.95079,
/venues/1072496,Teatro Paravento,Locarno,6600,Via Cappuccini,Switzerland,46.17096,8.79641,
/venues/927186,Kitchen Club,Arosa,,,Switzerland,,,
/venues/1655248,Rouge City,Lausanne,1003,Place Chauderon 18,Switzerland,46.52382,6.62529,
/venues/1947229,Abbey Fraumünster,Zürich,8001,Münsterhof 2,Switzerland,47.36998,8.54074,http://www.fraumuenster.ch
/venues/521246,Casino Bibliothek Herisau,Herisau,9100,Poststrasse 9,Switzerland,47.38464,9.27794,
/venues/2125864,Burgunder Bar,Bern,3011,Speichergasse 15,Switzerland,46.94992,7.44341,http://www.burgunderbar.ch
/venues/3727989,Conto 4056,Basel,4056,Gasstrasse 1,Switzerland,47.57039,7.57803,http://conto4056.com
/venues/3872059,Viscose club,Luzern,6020,Emmenweidstrasse 20,Switzerland,47.07361,8.27461,https://www.facebook.com/pg/viscoseclub/
/venues/4349268,The Lab,Basel,4056,Spitalstrasse 32,Switzerland,47.56345,7.58298,
/venues/2095224,El Rico,Samnaun,,,Switzerland,,,
/venues/3745819,Parterre Klub,Luzern,,,Switzerland,47.05017,8.30931,
/venues/3744644,CULT.,Davos,7550,Via da Trü 394,Switzerland,46.79637,10.29605,https://www.facebook.com/junicgmbh/
/venues/3758964,Volta Bräu,Basel,4056,Voltastrasse 30,Switzerland,47.57106,7.58002,https://www.voltabraeu.ch/
/venues/3801604,Plaza Club,Zürich,,,Switzerland,,,
/venues/3515034,Neubad Club,Luzern,,,Switzerland,47.05017,8.30931,
/venues/2844403,Atomic Café,Biel,2501,Place de la gare 5,Switzerland,47.13392,7.24236,http://www.atomiccafe.ch
/venues/3821414,Holzpark Klybeck,Basel,,,Switzerland,,,
/venues/2957768,Blumenmarkt,St. Gallen,9000 St. Gallen,Marktplatz 25,Switzerland,47.42584,9.37456,https://www.facebook.com/blumenmarktbar/timeline
/venues/58969,Cotton Club,Zug,,,Switzerland,,,
/venues/100720,Anker,Bern,3800,Marktgasse 57,Switzerland,46.68614,7.85261,
/venues/1109521,Thêatre Arsenic,Lausanne,,,Switzerland,,,
/venues/1629618,Das Zelt,Lugano,6900,Stadio,Switzerland,46.02376,8.96146,
/venues/1766678,Extremefest,Basel,,,Switzerland,47.52114,7.69167,
/venues/639791,Braunen Mutz,Basel,,,Switzerland,,,
/venues/4149504,Rothaus Bar,Zürich,8004,Sihlhallenstrasse 1,Switzerland,47.3794,8.52735,
/venues/2283264,Grenzwert Bar,Basel,,Rheingasse 3,Switzerland,47.56075,7.59146,
/venues/2282859,Gisi Squat,Winterthur,,,Switzerland,,,
/venues/4299129,Lindbergh Pub,Sissach,,Kirchgasse 17,Switzerland,47.46522,7.81049,
/venues/71301,Tap Tap Club,Schaffhausen,,,Switzerland,,,
/venues/1330386,Cancun Club,Neuchatel,,Faubourg De L'hôpital,Switzerland,46.99396,6.93497,
/venues/551561,Prima Vista,Baden,,Mellingerstrasse 1,Switzerland,47.47091,8.30533,
/venues/3807999,JET by Valentino,Lausanne,1003,Rue de Genève 23,Switzerland,46.52187,6.62717,http://www.madclub.ch
/venues/3818334,Kellertheater,Sierre,3900 Brig,Alte Simplonstrasse 28,Switzerland,46.31529,7.99065,http://www.kellertheater.ch/
/venues/2440244,Kulturschuppen,Chur,7250,Aeussere Bahnhofstr. 3,Switzerland,46.87013,9.88053,
/venues/3990514,La Coquette,Morges,1110,Parc de l'Indépendance,Switzerland,46.50568,6.49536,https://lacoquette.ch/
/venues/3459779,Champéry Live,Monthey,,,Switzerland,46.18165,6.87476,
/venues/4231924,PALP Festival,Martigny,,,Switzerland,,,
/venues/522121,Im Fluss,Basel,,,Switzerland,,,
/venues/4355654,Westhalle Thun,Bern,3600,Industriestrasse,Switzerland,46.75671,7.614,https://westhalle.ch
/venues/1429433,Le Buro,Bulle,,,Switzerland,,,
/venues/1650388,Ohm 10,Biel,,,Switzerland,,,
/venues/717346,Club Eleven,Solothurn,4500,Fabrikstrasse 4,Switzerland,47.21184,7.52576,
/venues/2113749,Monti,Basel,,Kaistenbergstrasse 5,Switzerland,47.50816,8.02049,
/venues/3544749,Kane's Karaoke,Schaffhausen,,"Wiesengasse 20, Beringen",Switzerland,47.69406,8.57611,
/venues/1789518,Centre de Congrès le Régent,Sierre,3963,Rue des Mélèzes 28,Switzerland,46.30539,7.46256,
/venues/3380419,Nebel,Basel,4057,Sperrstrasse 94,Switzerland,47.56565,7.59646,http://nebel.cloud
/venues/119033,Kalkbreite,Zürich,,Kalkbreitestrasse 4,Switzerland,47.37417,8.52066,
/venues/1600668,Schäferei Schaffhausen,Schaffhausen,,,Switzerland,,,
/venues/162063,Fnac,Fribourg,,,Switzerland,,,
/venues/3665994,Hush Hush,Bern,3008,Federweg 22,Switzerland,46.94567,7.41943,
/venues/3688569,Sternenbar,Arosa,7050,Weisshorngipfel,Switzerland,46.78915,9.63846,https://www.gastro.arosa.com/de/bergrestaurant-brueggerstuba
/venues/1869713,Vierwaldstättersee,Luzern,,,Switzerland,,,
/venues/3112139,Parktheater,Grenchen,2540,Lindenstrasse 41,Switzerland,47.1911,7.39047,
/venues/4161334,SCHÜTZenhaus,Bern,3011,Schützenmatte,Switzerland,46.95304,7.4412,
/venues/2364344,Pirates,Hinwil,8340,Überlandstrasse 14,Switzerland,47.29932,8.84272,
/venues/2814158,Ladybar,Basel,,,Switzerland,47.56744,7.59755,
/venues/3220139,Podium,Basel,,,Switzerland,47.5596,7.58858,
/venues/1083566,Kirchplatz,Winterthur,,,Switzerland,,,
/venues/2204909,Moloko,Geneva,1204,"4, place des volontaires",Switzerland,46.204,6.13628,
/venues/3687464,Perle,Zürich,8004 Zürich,Langstrasse 84,Switzerland,47.37777,8.52669,
/venues/243763,Montreux Jazz,Montreux,,,Switzerland,,,
/venues/4279154,Tibits,Basel,,,Switzerland,,,
/venues/1178931,Berne,Zürich,,,Switzerland,,,
/venues/1550678,Opposition,Lyss,,,Switzerland,,,
/venues/1867093,Mausefalle,Zürich,8001,Uraniastrasse 40,Switzerland,47.37294,8.53511,
/venues/1905173,Metzgerhalle,Luzern,,,Switzerland,,,
/venues/2850523,Entre Terre et Mer,Lausanne,1673,Rue du Casino 19,Switzerland,46.61915,6.82212,http://www.TerreMer.ch
/venues/3057249,Hotel Les Trois Rois - Salle Belle Epoque,Basel,4051,Blumenrain 8,Switzerland,47.56044,7.58767,
/venues/3769164,Box,Davos,7260,Bahnhofstrasse 19,Switzerland,46.81178,9.84321,http://www.boxdavos.ch/
/venues/1466193,Kornhausforum,Bern,3011,Kornhausplatz 18,Switzerland,46.94884,7.44725,
/venues/1858963,Xroom,Lausanne,,,Switzerland,,,
/venues/162078,XXe,Fribourg,,,Switzerland,,,
/venues/3560464,Taratata,Bremgarten,5620,Obertorplatz 7,Switzerland,47.35101,8.34427,https://www.facebook.com/TaratataBremgarten/
/venues/2542764,Kellertheater,Winterthur,8400,Marktgasse 53,Switzerland,47.49935,8.72712,
/venues/4233339,Uptown Geneva,Geneva,1201,2 Rue de la Servette,Switzerland,46.20951,6.13942,
/venues/2871183,FabrikBistro,Bern,,Fabrikstrasse 2a,Switzerland,46.95236,7.42282,
/venues/3113394,Dreiländereck,Basel,4057,Westquaistrasse 62,Switzerland,47.5874,7.58945,
/venues/936326,Kulturforum,Amriswil,8580,Bahnhofstrasse 22,Switzerland,47.54816,9.3025,
/venues/1395148,Helvetiaplatz,Zürich,8004,Helvetiaplatz,Switzerland,47.37606,8.52633,
/venues/3459104,Bergkirchli,Arosa,7050,Innerarosa,Switzerland,46.77442,9.65711,
/venues/3698179,Tibits,Zürich,8008,Falkenstrasse 12,Switzerland,47.3647,8.54761,http://www.tibits.ch
/venues/3830324,Gwölb,Winterthur,,,Switzerland,,,
/venues/3494679,Jetlag,Lausanne,,,Switzerland,46.51965,6.63227,
/venues/146963,Fête De La Musique,Fribourg,,,Switzerland,,,
/venues/4406919,Summer Now ExpoPark Nidau,Lyss,2560,Uferweg,Switzerland,47.12977,7.23788,https://www.summernow.ch
/venues/1135186,"Le Salon, Bleu Café",Neuchatel,,,Switzerland,,,
/venues/2841143,Bistro Bar Ratsstübli,Bern,3600,Rathausplatz 6,Switzerland,46.75983,7.62843,
/venues/96210,Petit Palais At Montreux Palace,Montreux,,,Switzerland,,,
/venues/418781,Theater An Der Mürg,Stans,6370,Mürgstrasse 6,Switzerland,46.95599,8.36715,
/venues/3507144,Waldstock Open Air Spektakel,Cham,6312,Tannstraße 4,Switzerland,47.19803,8.49479,http://www.waldstock.ch
/venues/3818214,Feel Good Music Bistro,Grenchen,,,Switzerland,,,
/venues/2404679,Studio 2 RSI Lugano/Besso,Lugano,6900,,Switzerland,46.00937,8.95079,
/venues/2974473,Gleiswerk Die Eventfabrik,Bern,3600,Seestrasse 14,Switzerland,46.75142,7.63312,
/venues/3460134,Kultur i de Braui Hochdorf,Luzern,,,Switzerland,47.05017,8.30931,
/venues/3836554,Music Days Steffisburg,Bern,3612 Steffisburg,,Switzerland,46.77923,7.63814,https://music-days.ch
/venues/3092874,Salle du Lignon,Geneva,1219 Le Lignon,Place du Lignon 16,Switzerland,46.2035,6.0944,
/venues/2916843,Nova Jazz,Yverdon-Les-Bains,,rue des Cygnes,Switzerland,46.78479,6.63548,http://www.novajazz.ch
/venues/2773358,Disco-club Utopia,Aarau,5000,Frey-Herosestr. 20,Switzerland,47.38989,8.05195,
/venues/2845033,Horse Park Zürich-dielsdorf,Dielsdorf,8157,Neeracherstrasse 20,Switzerland,47.48898,8.47142,
/venues/1527313,Ey5 Club,Bern,,,Switzerland,,,
/venues/2078519,City Club,Lausanne,,,Switzerland,46.5093,6.6616,
/venues/1774353,Schloss Greifensee Schlosswiese,Zürich,8606,Im Städtli,Switzerland,47.36459,8.67622,
/venues/2929448,Gasthaus Grünenwald,Luzern,,,Switzerland,46.81993,8.40699,
/venues/3057984,Riverside Open Air,Aarburg,4663,Badweg,Switzerland,47.3169,7.89567,http://www.riversideaarburg.com/
/venues/2474944,Sonarraum U64,Bern,,,Switzerland,46.94792,7.44461,
/venues/1110011,Tell Blues Club,Bern,3072,Bernstrasse 101,Switzerland,46.94015,7.39108,
/venues/1938909,Zamba Loca Festival,Wohlen,,,Switzerland,,,
/venues/3503904,The Chedi Andermatt,Luzern,6490,Gotthardstrasse 4,Switzerland,46.61761,8.56621,
/venues/979411,Kulturzentrum Alts Schlachthuus,Laufen,4242,Seidenweg 55,Switzerland,47.42215,7.50389,
/venues/417446,Piazza Governo,Locarno,,,Switzerland,46.19849,9.02692,
/venues/2785878,Musical Theater Messe Basel,Basel,4028,Feldbergstr. 21,Switzerland,47.5658,7.58859,
/venues/2919088,Wirtschaft zum Transit,Zürich,,Aargauerstrasse 14,Switzerland,47.39238,8.49852,https://wirtschaftzumtransit.wordpress.com/
/venues/87576,Theater Palace,St. Gallen,,,Switzerland,,,
/venues/972626,Viscose Eventbar,Luzern,6020,Emmenweidstrasse 20,Switzerland,47.07361,8.27461,http://www.viscose-eventbar.ch/
/venues/2063809,Couleur 3 Radio,Lausanne,,,Switzerland,,,
/venues/2087969,Halle Des Fêtes,Payerne,1530,Avenue du Stade,Switzerland,46.82516,6.94136,
/venues/4095629,WinterBAR.ch,Winterthur,9203,Wisental 698,Switzerland,47.43129,9.21017,
/venues/2509869,Nangijala,Schwyz,7180,Via Alpsu 43,Switzerland,46.7009,8.84545,http://www.nangijala.ch
/venues/2303854,Moon & Stars Festival,Locarno,6600,Piazza Grande Di Locarno,Switzerland,46.16757,8.80101,
/venues/2729828,MONO Spazio Condiviso Locarno,Locarno,6600,"Via Fiorina, 1",Switzerland,46.17012,8.79225,http://monolocarno.ch/
/venues/2805713,Frohe Aussicht,Zürich,8942,In der Weid 8,Switzerland,47.26725,8.57681,http://www.frohe-aussicht-oberrieden.ch
/venues/3749224,Rock Story,St. Gallen,9000,Augistinergasse 26,Switzerland,47.42715,9.37457,
/venues/1672943,Radio Kanal K,Aarau,5001,Rohrerstrasse 20,Switzerland,47.39407,8.05854,
/venues/4366601,"Theater Fauteuil, Tabourettli",Basel,4051,Spalenberg 12,Switzerland,47.55735,7.58641,
/venues/3092924,Salle CO2,Bulle,1635,La Ronclina 4,Switzerland,46.60584,7.05897,
/venues/2867233,Theater Ticino,Zürich,,xx,Switzerland,47.23815,8.64134,
/venues/3701874,Langnauer Keller-Theater,Bern,3550,Schlossstrasse 6,Switzerland,46.939,7.7879,
/venues/4255109,Duke S Wine Tapas & Music Bar,Lausanne,1003,Rue du Flon 12,Switzerland,46.52065,6.63558,
/venues/3932104,Face Club,Zürich,8305 Dietlikon,Industriestrasse 29,Switzerland,47.41258,8.62008,
/venues/2932268,Ark Guitars,Wetzikon,,Bertschickerstr. 2,Switzerland,47.32422,8.78535,http://www.arkguitars.ch
/venues/2895688,Avegno Piazza,Locarno,6670,Avegno Piazza,Switzerland,46.20213,8.74393,
/venues/2367854,OG9,Zürich,8004,Lagerstrasse 98,Switzerland,47.3802,8.52937,
/venues/2489434,La Parfumerie,Geneva,1227,"Chemin de la Gravière, 9",Switzerland,46.19724,6.13045,http://www.laparfumerie.ch
/venues/3148619,Das Zelt,Solothurn,4500,Gurzelenstrasse 3,Switzerland,47.20966,7.50486,
/venues/3201463,Représentation privée,Lausanne,,,Switzerland,46.51965,6.63227,
/venues/3167999,Tropenhaus Wolhusen,Luzern,,,Switzerland,47.05864,8.07316,
/venues/83404,Alpenrock House,Zürich,8060,Butzenbüelstrasse,Switzerland,47.44773,8.56855,
/venues/117521,Bogen 13,Zürich,,,Switzerland,47.36865,8.53918,
/venues/1380386,Rampe Club,Zürich,8608,Sennweidstrasse 1b,Switzerland,47.27255,8.82226,http://www.rampeclub.ch/
/venues/3740399,Icon Club,Zürich,8001,Augustinerhof 1,Switzerland,47.37168,8.53979,
/venues/3749944,Karma Club,Bern,3011,Genfergasse 10,Switzerland,46.94965,7.44116,http://www.karmabern.com
/venues/3476829,Babette Club,Zürich,8004,Babette Club Langstrasse 83,Switzerland,47.3778,8.5265,http://www.babette-club.ch
/venues/3891884,Sofar Sounds,Zürich,,,Switzerland,,,
/venues/1329871,Imagine Festival,Basel,,,Switzerland,,,
/venues/3256009,Bäckerstübli Scherzingen,Kreuzlingen,8596,Dorfstrasse 2,Switzerland,47.63042,9.22628,http://www.baeckerstuebli.ch
/venues/2008379,Jazz Onze +,Lausanne,,,Switzerland,,,
/venues/4374255,KANTINE ATTISHOLZ,Solothurn,4533,Attisholzstrasse 10,Switzerland,47.22649,7.57728,https://kantine-attisholz.ch
/venues/73384,El Internacional,Zürich,,,Switzerland,,,
/venues/927441,Miller's Studio,Zürich,8008,Seefeldstrasse 225,Switzerland,47.35172,8.56133,
/venues/1057716,Radio Paradiso,Lausanne,,,Switzerland,,,
/venues/1475258,Erster Stock,Basel,,Tramstrasse 66,Switzerland,47.51018,7.61652,http://www.schoolyard.ch/sy_1stock/index.php?content=info
/venues/3831469,Arosa Electronica Festival,Arosa,,"Dorf, 7050",Switzerland,46.78237,9.67991,
/venues/4041159,Horst Club,Kreuzlingen,8280,Kirchstrasse 1,Switzerland,47.64736,9.17351,
/venues/2580418,Les Amis,Zürich,8005,Förrlibuckstrasse 110,Switzerland,47.39218,8.51297,http://www.clublesamis.ch
/venues/2295014,Klosterhof,Zürich,5630,Markstrasse 4,Switzerland,47.27516,8.33757,
/venues/2978988,"Konzertsaal, Union",Basel,4057,Klybeckstrasse 95,Switzerland,47.56891,7.59018,
/venues/1403178,Pyramides de Vidy,Lausanne,1007,Esplanade des Cantons,Switzerland,46.51168,6.60282,http://www.chocolate-festival.ch
/venues/1504728,Güterschuppen Wollishofen,Zürich,8038,Verein Güterschuppen,Switzerland,,,
/venues/1560253,Bar Berlin,Luzern,6003,Laedelistr. 6,Switzerland,47.0537,8.29471,
/venues/1790568,Evita Club,Wetzikon,8620,Zürcherstrasse 27,Switzerland,47.3211,8.78956,
/venues/1856993,KKL Plaza,Luzern,,,Switzerland,,,http://www.kkl-luzern.ch
/venues/457221,Afro Pfingsten,Winterthur,8400,,Switzerland,47.48569,8.72929,https://www.afro-pfingsten.ch/
/venues/787486,Nationales Sportzentrum Huttwil,Huttwil,4953,Bernstrasse 315,Switzerland,47.10733,7.82825,
/venues/2159774,The Classroom,Wetzikon,8620,Bahnhofstrasse 132,Switzerland,47.32506,8.79869,
/venues/1075796,Kulturforum Würth Chur,Chur,7000,Aspermontstrasse 1,Switzerland,46.86014,9.52865,
/venues/1614178,Stadtplatz,Lyss,3270,Stadtplatz,Switzerland,47.0444,7.27583,
/venues/3894119,Domplatz Arlesheim,Basel,4144,Domplatz,Switzerland,47.49216,7.62066,
/venues/4109179,Restaurant Ambiente,Luzern,CH- 6014,An der kleinen Emme 1,Switzerland,47.05297,8.25603,http://www.restaurant-ambiente.ch
/venues/1575668,B70 Music Bar,Luzern,,Bahnhofstrasse 70,Switzerland,47.08362,8.43374,
/venues/4064884,Ebrietas Bar,Zürich,,,Switzerland,,,
/venues/4095624,Mehrzweckanlagen Pöschen,Schwarzenburg,3150,Freiburgstrasse 100,Switzerland,46.81497,7.32612,http://www.altjahrswoche.ch
/venues/4256414,Kunstmuseum Basel - Neubau,Basel,4052,St. Alban-Graben 20,Switzerland,47.55455,7.59495,
/venues/2663728,St. Jakobsareal,Basel,4052,Jakobsareal,Switzerland,47.54842,7.61017,
/venues/2732328,Höhematte,Bern,3800,Höheweg 41,Switzerland,46.68648,7.85691,
/venues/2263329,Cafébar Salon,Basel,,Sperrstrasse 94,Switzerland,47.56565,7.59646,http://cafesalon.ch/basel/index.html
/venues/2989458,Planetspade Shop,Bern,3014,Wankdorffeldstrasse 96,Switzerland,46.96475,7.45691,http://www.planetspade.ch/
/venues/3072254,Landiwiese Süd,Zürich,8038,Mythenquai,Switzerland,47.34746,8.53436,
/venues/83289,Palais Xtra,Zürich,,,Switzerland,,,
/venues/1296541,Youniverse Club,Olten,4600,Tannwaldstrasse 101,Switzerland,47.36128,7.91812,http://www.youruniverse.ch
/venues/843626,Cult Club,Lausanne,,,Switzerland,,,
/venues/2052304,Stadtkirche,Basel,4410,"Rathausstrasse 23, 4410",Switzerland,47.48448,7.73451,
/venues/3472824,Les Archives,Bulle,,,Switzerland,46.61545,7.05773,
/venues/3753069,Select Club,Bern,,,Switzerland,46.94797,7.44745,
/venues/3797954,Bibliothek bar,Basel,4051,Kohlenberg 7,Switzerland,47.55403,7.58844,https://www.bibliothekbar.ch/
/venues/3594614,"Frauenraum, Reitschule",Bern,,Neubrückstr. 8,Switzerland,46.95293,7.44038,http://www.frauenraum.ch
/venues/3377394,Kino Rex,Bern,3011,Schwanengasse 9,Switzerland,46.94668,7.43932,
/venues/1028421,Place Nova Friburgo,Estavayer-Le-Lac,1470,Au Bord Du Lac,Switzerland,46.84964,6.84506,
/venues/67439,Salle des Fêtes du Lignon,Geneva,,,Switzerland,,,
/venues/3083284,Bar & Pub Festival Tuggen,Eschenbach,8856,Betti 67,Switzerland,47.18563,8.93004,http://www.barundpub.ch
/venues/2269464,P'tit Music Hohl,Geneva,1216,Avenue Louis-Casai 54,Switzerland,46.22306,6.10978,http://www.musichohl.ch
/venues/1665738,Alte Taverne,Frutigen-Niedersimmental,,Dorfstrasse,Switzerland,46.49124,7.5572,
/venues/2803963,The King Size Pub,Lausanne,1002,Port-franc 16,Switzerland,46.52181,6.6268,
/venues/3029224,Royal Arena Festival,Biel,,,Switzerland,,,http://www.royalarena.ch
/venues/4263534,Konrad Lifestyle Events - Art Basel,Basel,,,Switzerland,,,
/venues/1399293,Festival Des Arcs,Zürich,,,Switzerland,,,http://www.festival-des-arcs.ch/
/venues/3459999,Jazz Club Q4,Basel,,"Hotel Schützen, Kulturkeller Bahnhofstrasse 19 4310 Rheinfelden",Switzerland,47.553,7.79275,http://www.jazzclubq4.ch/
/venues/3567269,Kiosk'Art Jeunes-Rives,Neuchatel,,,Switzerland,46.98999,6.92927,
/venues/1288106,Tennis Couvert D'ajoie,Porrentruy,,"Route De Courgenay, 110",Switzerland,47.41645,7.09174,
/venues/1583463,Jazz Cat Club,Locarno,,Via Muraccio 21,Switzerland,46.15458,8.77505,
/venues/4371127,Hotel Castell,St. Moritz,7524,Via Castell 300,Switzerland,46.59835,9.9493,
/venues/1364926,Motion Open Air Festival,Zürich,,,Switzerland,,,
/venues/3794749,Mutterschiff Openair Menziken (AG),Aarau,5737 Menziken,Turnplatzstrasse 9,Switzerland,,,http://www.mutterschiff.ch/
/venues/1650598,Schützenmatte (bei Bahnhof Sbb),Bern,3000,Bollwerk,Switzerland,46.95058,7.44062,
/venues/3223614,Laboratoire Autogéré de Création (LAC),La Chaux De Fonds,2300,Rue de l'Hôtel de Ville 21,Switzerland,47.10181,6.83425,http://www.lac-cdf.ch/
/venues/3157199,Union,Basel,4057,Klybeckstraße 95,Switzerland,47.56891,7.59018,
/venues/4316644,Kulturnacht Surselva,Surselva,,,Switzerland,,,http://www.kulturnacht-surselva.ch/
/venues/4342136,Qwertz,Lausanne,1003,Rue de la Grotte 3,Switzerland,46.51874,6.63431,
/venues/45258,Hardturmstadion,Zürich,,,Switzerland,,,
/venues/923211,Indochine,Zürich,,,Switzerland,,,
/venues/1159311,Bundesplatz,Bern,,Bundesplatz Bern,Switzerland,46.9471,7.44424,
/venues/1681308,Lwb,Baden,,,Switzerland,,,
/venues/1855028,Technikum Winterthur,Winterthur,8400,Technikumstrasse 9,Switzerland,47.49728,8.72935,
/venues/847001,Zanzibar,Wohlen,,,Switzerland,,,
/venues/3780244,Folklor,Lausanne,,,Switzerland,,,
/venues/82960,Festhalle,Luzern,,,Switzerland,,,
/venues/82941,Sporthalle,Basel,,,Switzerland,,,
/venues/895941,Lidowiese,Luzern,,Verkehrshaus-lido‎,Switzerland,47.05112,8.33477,
/venues/3507099,Lakritz,Zürich,8001,Museumstrasse 2,Switzerland,47.37902,8.54101,http://www.lakritz.landesmuseum.ch/
/venues/495176,Fürstenlandsaal,Gossau,9200,Bahnhofstrasse 25,Switzerland,47.41426,9.25221,
/venues/3968604,Zürich OpenAir,Zürich,,"Flughofstrasse 21, Glattbrugg",Switzerland,47.43615,8.55833,
/venues/2510419,Bananenreiferei,Zürich,8005,Pfingstweidstrasse 101,Switzerland,47.39025,8.509,
/venues/2560829,Churerfest,Chur,7000,,Switzerland,46.85726,9.52673,
/venues/3353354,Shedhalle,Zug,6300,Hofstrasse 15,Switzerland,47.15977,8.51564,
/venues/3204928,Konservatorium,Bern,3000,Kramgasse 36,Switzerland,46.94815,7.45031,http://www.konzerttheaterbern.ch/
/venues/4392856,Dali's,Zürich,8003,Meinrad-Lienert-Strasse 17,Switzerland,47.37481,8.51781,https://www.dalis.ch
/venues/3089504,Loft A46,Montreux,,Avenue des Alps,Switzerland,46.43628,6.9098,
/venues/2486884,2uo Club,Biel,2502,zentralstrasse 54,Switzerland,47.13572,7.24756,http://www.2uoclub.ch
/venues/4283969,Blago Bung,Bern,,Rugenparkstrasse 8,Switzerland,46.68164,7.8515,
/venues/1845353,Afg Arena,St. Gallen,9015,Zürcher Straße,Switzerland,47.40763,9.30394,
/venues/2095994,Ewigi Liebi Theater,Bern,,,Switzerland,,,
/venues/4406171,Marians Im Jazzzelt,Bern,3012,Engestrasse 54,Switzerland,46.96105,7.43938,
/venues/2620678,"Reithalle, Wenkenpark",Basel,4125,Bettinger Strasse 121,Switzerland,47.57495,7.65284,
/venues/2867263,Jazz Im Seefeld,Zürich,,,Switzerland,47.36865,8.53918,
/venues/2958278,Horn Areal,Zürich,8805,Hornstrasse 5,Switzerland,47.21071,8.70573,
/venues/3083219,Port Gitana Bellevue,Geneva,,,Switzerland,46.19839,6.1423,
/venues/522736,Manège d'Onex,Geneva,1213,Chemin des Laz 16,Switzerland,46.18293,6.10303,http://maneges.ch/
/venues/3435749,Kulm Park,St. Moritz,7500,,Switzerland,46.49527,9.82043,
/venues/1485403,Wallhalla,Davos,,,Switzerland,46.80012,9.83089,
/venues/976831,Jazzfestival Bern,Bern,,,Switzerland,,,
/venues/418961,Wega Weinfelden,Weinfelden,,,Switzerland,,,
/venues/259161,Patinoire,Geneva,,,Switzerland,,,
/venues/2225504,Altstadt Schaffhausen,Schaffhausen,8200,Herrenacker,Switzerland,47.69567,8.63352,
/venues/3526999,Sihlcity,Zürich,8045,Kalanderplatz 1,Switzerland,47.3581,8.52329,http://www.sihlcity.ch
/venues/3851044,Lakelive,Biel,2500,Festivalgelände,Switzerland,,,http://www.lakelive.ch
/venues/3035279,Zeughausareal,Uster,8610,Berchtoldstrasse 10,Switzerland,47.35039,8.71206,
/venues/3217023,Goscho,Bern,3006 Bern,Muristrasse 93,Switzerland,46.93941,7.47119,http://claudebowald.ch/de/goscho
/venues/2704718,Festival Hors Tribu,Yverdon-Les-Bains,,,Switzerland,46.9111,6.61131,http://www.horstribu.ch/
/venues/2770523,Hotel Uto Kulm,Zürich,,,Switzerland,47.36865,8.53918,
/venues/2533614,wetterhorn hasliberg (hasliberg city),Bern,,,Switzerland,46.94792,7.44461,http://www.wetterhorn-hasliberg.ch/
/venues/3343194,Blue Turtle,Bern,3705,Interlakenstrasse 107,Switzerland,46.66779,7.72047,http://blueturtle.ch/
/venues/1427098,Rampe Club,Zürich,8608,Sennweidstrasse 1B,Switzerland,47.27231,8.82253,
/venues/1967674,Zar Café Bar,Bern,3007,"Pestalozzistrasse 9,",Switzerland,46.94141,7.42549,
/venues/879761,Salle Des Spectacles,Lausanne,,Rue De Lausanne 37,Switzerland,46.53648,6.58603,
/venues/2043554,Equilibre - La Spirale,Fribourg,1700,,Switzerland,46.80978,7.16684,
/venues/2191174,Fête de l'Espoir,Geneva,,,Switzerland,,,
/venues/4201719,Gate27 Auditorium,Winterthur,8400,Theaterstrasse 27,Switzerland,47.50389,8.72846,
/venues/3919734,Akustik Terrasse Kammgarn,Schaffhausen,,,Switzerland,,,
/venues/2220614,Open Air Gampel Festival,Gampel,3945,Niedergampelstr. 15,Switzerland,46.31293,7.72986,https://www.openairgampel.ch
/venues/4001474,Théâtre de St-Gervais,Geneva,,Place de St-Gervais,Switzerland,46.20566,6.14267,https://saintgervais.ch/
/venues/2647708,Schloss Rapperswil,Zürich,8640,Lindenhügel,Switzerland,47.22734,8.81553,
/venues/2760963,Yehudi Menuhin Forum Bern,Bern,3005,Helvetiaplatz 6,Switzerland,46.94378,7.44796,
/venues/2817388,Moulin Rouge Genève,Geneva,1205,"Avenue du Mail, 1",Switzerland,46.2009,6.13978,http://moulinrouge-geneve.ch/
/venues/2746633,P1 Club,Dubendorf,8600,Neugutstr. 88,Switzerland,47.40132,8.60475,
/venues/3222864,Aigl' in Music,Montreux,1860,Rue du Collège – Collège des Ormonts,Switzerland,46.31882,6.96426,
/venues/1499218,Canton De Vaud,Geneva,,,Switzerland,,,
/venues/1526203,Unvermeidbar Theater Palino,Baden,,,Switzerland,,,
/venues/1674553,Braderie Zentralplatz Bühne,Biel,2500,-,Switzerland,47.13678,7.24679,http://www.bielerbraderie.ch
/venues/861761,Café Ve,Montreux,1800,pl. de la Gare,Switzerland,46.46308,6.84296,http://www.veme.ch
/venues/178438,Safari Beat Club,Chur,,,Switzerland,46.85078,9.53199,
/venues/4369271,"Le Rez, Usine",Geneva,1204,"Place des Volontaires, 4",Switzerland,46.20397,6.13589,https://www.kalvingrad.com/
/venues/2917948,El Cannario,Bern,,,Switzerland,46.87965,7.62115,
/venues/3234169,Sion sous les Étoiles,Sion,,,Switzerland,46.23312,7.36063,
/venues/3034334,Stockhorn Arena,Bern,3604,Thun Süd,Switzerland,46.74734,7.60303,
/venues/492646,L'Esprit Frappeur,Lausanne,,Lutry,Switzerland,46.50888,6.68276,
/venues/2978338,N2O Bar Restaurant,Lausanne,1003 Lausanne,Place de l'Europe 7,Switzerland,46.52034,6.62986,
/venues/82899,Pavillon Des Sports De Champel,Geneva,,,Switzerland,,,
/venues/4129329,Simmenfälle,Obersimmental-Saanen,3775,Oberriedstrasse 76,Switzerland,46.42691,7.47625,https://www.mittsommerfestival.ch
/venues/4176819,Che Bar,La Chaux De Fonds,2300,Rue de collège 23,Switzerland,47.10591,6.83341,https://mahirispir.wixsite.com/chebar
/venues/3964069,Beatus Wellness & Spa Hotel,Bern,3658,Seestrasse 300,Switzerland,47.25421,8.614,https://www.beatus.ch/en
/venues/2767208,L'ANNEXE Les Plans sur Bex,Bex,1880,Chemin des Jorats 7,Switzerland,46.24991,7.06719,
/venues/1578523,Le Théâtre De L'usine,Geneva,,"11, Rue De La Coulouvrenière 1204",Switzerland,46.20391,6.13643,
/venues/2593563,Café-Théâtre de la Voirie,Lausanne,,,Switzerland,46.5093,6.6616,
/venues/2792198,"Tigersaal, Ilfishalle",Bern,3550,Güterstrasse 14,Switzerland,46.93617,7.78609,
/venues/3945174,Tattoo Bar,Monthey,1870,Avenue de la Gare 24,Switzerland,46.2533,6.95031,https://www.facebook.com/tattoobarmonthey/
/venues/3933884,Le Tunnel,Fribourg,,,Switzerland,,,
/venues/3102759,Chauderon18,Lausanne,1003,Place Chauderon 18,Switzerland,46.52382,6.62529,http://chauderon18.ch
/venues/2783933,Rondel Club Bern,Bern,3011,Genfergasse 10,Switzerland,46.94965,7.44116,
/venues/2998854,Festi'Cheyres,Fribourg,,,Switzerland,46.80167,7.14557,
/venues/3131514,Villa Tacchini,Geneva,,,Switzerland,46.20439,6.14316,http://villatacchini.ch
/venues/3196208,Taco's Bar,Lausanne,1003,Rue de Genève 17,Switzerland,46.52168,6.62817,http://tacos-bar.ch/
/venues/969016,Kellerbühne,St. Gallen,,Sankt Georgen-strasse 3,Switzerland,47.42231,9.37722,
/venues/1353766,Maiers Theater,Zürich,8003,Albisriederstrasse 16,Switzerland,47.37823,8.50868,
/venues/491406,Jardin Anglais,Geneva,1200,Derrière l'horloge fleurie,Switzerland,46.20419,6.15099,
/venues/460341,Palabasket,Locarno,,,Switzerland,46.19849,9.02692,
/venues/2118299,Hotel Grischa,Davos,7270,Talstrasse 3,Switzerland,46.79145,9.82024,http://www.songbirdfestival.ch/de/programm/
/venues/3434949,Club Elite,Zürich,8048,Hohlstrasse 452,Switzerland,47.38906,8.49598,
/venues/3703339,Park Platz,Zürich,,,Switzerland,47.37689,8.54169,https://www.park-platz.org/
/venues/3671234,Molly Malone,Wetzikon,,,Switzerland,47.32706,8.80136,
/venues/3771654,Tante Pinte,Sissach,,,Switzerland,47.46439,7.81066,https://www.facebook.com/tantepintesissach/
/venues/4240664,Alte Reithalle Aarau,Aarau,5000,,Switzerland,47.39043,8.0457,
/venues/4134189,Musikzentrum Sedel,Luzern,,,Switzerland,,,
/venues/2543084,Pfalzkeller,St. Gallen,9000,Klosterhof,Switzerland,47.42354,9.37752,
/venues/120735,Open Air Luzern,Luzern,,,Switzerland,,,
/venues/2660593,Kleine Bühne,Zofingen,4800,Gen. Guisanstrasse,Switzerland,47.28895,7.94737,
/venues/2542829,Zeltainer,Zürich,,,Switzerland,47.19801,9.30664,
/venues/931411,Casino,Lausanne,1350,Route Cantonale 9,Switzerland,46.7242,6.5308,
/venues/3983614,Vice Club Basel,Basel,4051,Steinentorstrasse 35,Switzerland,47.55115,7.58824,
/venues/4088974,Zermatt Unplugged | Zeltbühne,Zermatt,,,Switzerland,,,
/venues/4162804,Zermatt Unplugged | Cervo,Zermatt,,,Switzerland,,,
/venues/4180929,Zermatt Unplugged | Foyerzelt,Zermatt,,,Switzerland,,,
/venues/4180934,Zermatt Unplugged | Gandegghütte,Zermatt,,,Switzerland,,,
/venues/2323679,Museum Tinguely,Basel,4002,Paul Sacher-Anlage 2,Switzerland,47.55881,7.61171,
/venues/3139289,Les Créatives,Geneva,,,Switzerland,46.20439,6.14316,
/venues/884651,Alti Moschti,Bern,,,Switzerland,,,
/venues/2180129,LUZ Seebistro,Luzern,,,Switzerland,,,
/venues/3495209,Theatre ONO,Bern,CH-3011,Kramgasse 6,Switzerland,46.94815,7.45196,http://www.onobern.ch/
/venues/1234116,Kulturzentrum Dreispitz,Kreuzlingen,8280,Pestalozzistrasse 17,Switzerland,47.64748,9.1774,
/venues/2551049,Kino Roland,Zürich,,,Switzerland,47.36865,8.53918,
/venues/3166004,Rok Club,Luzern,,,Switzerland,47.05017,8.30931,
/venues/3793314,Das Zelt Hafenanlage Lachen,Schwyz,8853,Hafenstrasse 4,Switzerland,47.19341,8.85161,
/venues/2874598,Piazza Del Sole,Locarno,6500,,Switzerland,46.19268,9.03544,
/venues/2317134,Théâtre Le Crève-Coeur,Geneva,1223 Cologny,Chemin de Ruth 16,Switzerland,46.22152,6.1849,http://www.theatreducrevecoeur.ch/
/venues/2498304,Rock- Und Countryfestival,Mels,7320,Rheinaustrasse,Switzerland,47.05007,9.45086,
/venues/4056949,KiFF - Kultur in der Futterfabrik,Aarau,5000,Tellstrasse 118,Switzerland,47.38711,8.05915,
/venues/2626678,V Club,Geneva,1201,18 Quai Du Seujet,Switzerland,46.2054,6.13566,
/venues/2644068,Industrie Neuhof,Gossau,9200,Kühlhausstrasse,Switzerland,47.40955,9.28299,
/venues/2433674,Event Halle,Basel,4058,Messeplatz,Switzerland,47.56378,7.60079,
/venues/2660613,Kleinbühne Chupferturm,Schwyz,6431,Herrengasse 20,Switzerland,47.0221,8.65149,
/venues/3336029,Militärkantine,St. Gallen,,,Switzerland,47.42448,9.37672,http://www.militaerkantine.ch/
/venues/58727,Blues Beiz,Niederbipp,,,Switzerland,,,
/venues/946806,Kulturbeiz Chappelehof,Wohlen,,Kapellstrasse 4,Switzerland,47.35253,8.27784,
/venues/940196,Tell Saal,Bern,3072,Bernstrasse 101,Switzerland,46.94015,7.39108,
/venues/1030406,Seminarhotel Spirgarten,Zürich,8048,Lindenplatz 5,Switzerland,47.38739,8.48542,
/venues/1162191,Club Xces,Zürich,,,Switzerland,,,
/venues/96401,Théâtre de Vidy,Lausanne,,,Switzerland,,,
/venues/117261,Kanzlei Xenix,Zürich,,,Switzerland,,,
/venues/1008231,Montreux Convention Center,Montreux,,,Switzerland,,,
/venues/1671073,Odeon,Zürich,,Bahnhofplatz 11,Switzerland,47.48148,8.20866,
/venues/1782928,UG Club,Zürich,,,Switzerland,,,
/venues/147003,Café Belvedere,Fribourg,1700,Grand-Rue 36,Switzerland,46.80493,7.1651,http://cafedubelvedere.ch/
/venues/495171,Sempach Festhalle,Luzern,,,Switzerland,,,
/venues/3405414,Baloise Session,Basel,,,Switzerland,47.5596,7.58858,
/venues/3484424,GDS.FM,Zürich,,,Switzerland,47.37689,8.54169,http://gds.fm
/venues/3823859,Le XXeme,Fribourg,1700,Avenue de Tivoli 3,Switzerland,46.80452,7.1525,http://www.xxe.ch/cms/page.php
/venues/1533603,Cantina Canetti,Locarno,6600,Via Duni 1,Switzerland,46.16869,8.79488,
/venues/1562518,Kkthun,Bern,3600,,Switzerland,46.75352,7.62244,
/venues/1722838,Space 9,Zürich,CH-8048,Hohlstrasse 452,Switzerland,47.38908,8.49605,
/venues/1929399,Overground Festival,Geneva,,,Switzerland,,,
/venues/639896,"Sperber, Hotel Basel",Basel,,,Switzerland,,,
